poiid,title,address,lon,lat,city,category_sec,checkin_num,photo_num,category_fst
B2094753DA6EA2F8419A,水郡花洲,灵寿横山岭水库正南公路,114.164257,38.586015,0311,住宅区,2,2,小区
B2094752D26AA2FB419D,河北省行唐县御城花园,,114.536093,38.436829,0311,住宅区,1,0,小区
B2094753DA6EA3F44599,阳光河谷,平山温塘镇东侧,114.001436,38.260626,0311,住宅区,0,0,小区
B2094753DA6EA3F4439D,卡纳小镇,石闫公路与温塘河口,114.00547,38.259413,0311,住宅区,0,0,小区
B2094753DA6EA2FB459F,月光溪谷,蟠龙湖区域,114.341197,37.825608,0311,住宅区,0,0,小区
B2094753DA6EA2FA4193,圣地亚水岸生活馆,蟠龙湖风景区,114.344587,37.824972,0311,住宅区,0,0,小区
B2094753DA6EA2F94298,碧水别墅,蟠龙湖度假村,114.394305,37.804935,0311,住宅区,0,0,小区
B2094753DA6EA2F84698,麓港小镇,蟠龙湖畔南岸风景区,114.341218,37.825565,0311,住宅区,0,0,小区
B2094753DA6FA2FB459E,泊岸南山,潘龙湖南岸,114.395335,37.802816,0311,住宅区,0,0,小区
B2094753DA6FA2FB469B,新景家园,翟营大街与学苑路交口,114.18035,37.723487,0311,住宅区,0,0,小区
B2094753DA6FA2FB429F,天山龙湖湾,蟠龙湖旅游风景区南岸,114.179277,37.724429,0311,住宅区,0,0,小区
B2094750D564A7F8409B,清凉盛景,平山驼梁景区售票处西北150米,113.802223,38.720608,0311,住宅区,0,0,小区
B2094750D56AAAFA459B,驼梁中台山,平山县驼梁风景区中台山村东,113.81012,38.72034,0311,住宅区,0,0,小区
B2094750D56BA6F5439E,孔雀湖原乡国际假日基地,行唐县口头水库西侧,114.369907,38.617541,0311,住宅区,4,2,小区
B209475DD768A5FF479E,太行水乡度假小区,平山平山县拦道石红色生态风景区境内,113.754501,38.584673,0311,住宅区,1,1,小区
B2094750D56AAAFF409F,洪洲花园,平山县古月镇西洪子店,113.862305,38.307181,0311,住宅区,0,0,小区
B2094750D56BA4FB4393,西柏坡国御温泉度假小镇,平山温塘镇东部,114.004784,38.263524,0311,住宅区,1,0,小区
B2094750D56AABFA499E,天山龙湖世界,蟠龙湖旅游风景区南岸西侧,114.343506,37.82443,0311,住宅区,1,1,小区
B2094750D564A7F84693,麟凯江山墅,元氏县境内蟠龙湖风景区,114.38055,37.816293,0311,住宅区,0,0,小区
B2094750D56AA3FD499E,龙城山湖颂,元氏装院路168号,114.399736,37.819844,0311,住宅区,0,0,小区
B2094750D564A4FF479F,峰豪度假村,井陉县苍岩山景区,114.152412,37.830938,0311,住宅区,3,0,小区
B2094656D364A6FF4099,蕃茄花园,,114.38545,37.6617,0311,住宅区,0,0,小区
B2094750D564A7FD409E,上山间,石家庄市西部山前生态区，山前大道608号,114.309311,37.973974,0311,住宅区,16,15,小区
B209475DD768A7FF4492,龙凤湖田园度假村全茂山庄,鹿泉铜冶镇羊角庄村,114.375916,37.949071,0311,住宅区,7,1,小区
B2094753DA6FA2FB439F,梅迪雅逸墅,龙凤湖北岸,114.38069,37.929449,0311,住宅区,0,0,小区
B2094750D569AAFD479D,天下财富湾,鹿泉市龙凤湖景区龙凤湖北岸,114.381666,37.929034,0311,住宅区,3,2,小区
B2094750D569AAF44099,中堂,鹿泉市龙凤湖度假风景区龙凤湖南岸,114.382567,37.921339,0311,住宅区,0,0,小区
B2094750D564A7FE489C,山水龙庭,元氏姬村镇城郎村村北,114.418316,37.891383,0311,住宅区,1,1,小区
B2094753DA6EA3FB429B,翠堤湾水岸,蟠龙湖南案风景区,114.419174,37.899985,0311,住宅区,0,0,小区
B2094753DA6EA3F5449E,天籁山水清音,鹿泉市省城西南龙凤湖畔,114.379166,37.928196,0311,住宅区,0,0,小区
B2094753DA6EA2FF4999,中道佳馨,龙凤湖风景区,114.379692,37.929034,0311,住宅区,0,0,小区
B2094750D56AA3FC4598,茗仁嘉苑,鹿泉龙凤湖景区北岸,114.380207,37.929105,0311,住宅区,0,0,小区
B2094750D56AA3FC459D,水玲珑,庄院路259号，东郭村村北即到(封龙山前，龙凤湖畔),114.403338,37.914808,0311,住宅区,1,1,小区
B2094750D56BAAF9439A,奥冠水悦龙庭,山前大道凤凰山北侧,114.309483,37.94677,0311,住宅区,1,1,小区
B2094757D56FA5F5439C,河北工院学生公寓,中国河北省石家庄市区,114.470185,37.97657986,0311,住宅区,5917,1936,小区
B2094656D06CA3FD409C,宫家庄新世纪小区,,114.46612,37.97846,0311,住宅区,87,37,小区
B2094757D56FA1FF489D,河北工院学生公寓(北门),中国河北省石家庄市区,114.47012044,37.97723443,0311,住宅区,106,22,小区
B2094750D56AA4F94498,翡翠城,栾城107国道和南三环交叉口南行四公里窦妪镇,114.510498,37.902558,0311,住宅区,0,0,小区
B2094454D26CABFF439B,洨龙湾,裕翔街与南三环交叉口,114.51376,37.913597,0311,住宅区,0,0,小区
B209475DD768A1F54092,帝城阳光,石铜路沿线与红旗路交口,114.38068974,37.96710155,0311,住宅区,0,0,小区
B209475DD768A6FA469C,南国新大陆,裕翔街与衡井线交汇处,114.541569,37.906554,0311,住宅区,0,0,小区
B209475DD768ABF8429A,8090.0,石铜路与西南三环交汇处东南角,114.39994812,37.97206963,0311,住宅区,0,0,小区
B2094750D569ABF54599,铜城丽都,鹿泉市石铜路和获铜路交口西北角,114.381752,37.967749,0311,住宅区,0,0,小区
B2094750D569AAF5409C,四季阳光城,红旗大街南头,114.481943,37.939336,0311,住宅区,2,2,小区
B2094750D56AA3FD419A,十里洋房,胜利大街与南三环交叉口西南角,114.499061,37.952344,0311,住宅区,1,1,小区
B2094750D56BA1FC469A,俪城兰庭,桥西红旗大街南沿线，与西南高校区及环城水系相邻,114.461746,37.933367,0311,住宅区,0,0,小区
B2094750D564A3FD4693,四季花城,红旗大街与南二环交口南行500米路西,114.471303,37.946942,0311,住宅区,0,0,小区
B2094750D564A3F5439C,海兰嘉园,红旗大街与东营北街交口南行500米路东,114.471016,37.940542,0311,住宅区,1,0,小区
B2094750D564A5F9499B,都市新城,桥西红旗南大街西侧(寺家庄镇镇府西边),114.460613,37.936576,0311,住宅区,0,0,小区
B2094753DA6EA3F4489F,水语春天,位于良村开发区以东,114.439151,37.957954,0311,住宅区,0,0,小区
B2094753DA6EA3F4499A,城南春晓,胜利南大街,114.508352,37.95594,0311,住宅区,0,0,小区
B2094753DA6EA3F54593,岸溪,鹿泉开发区,114.521055,37.932622,0311,住宅区,1,1,小区
B2094750D564A3FE4199,城果,新胜利大街南延线新火车站出南二环南行2000米,114.504662,37.954485,0311,住宅区,7,4,小区
B2094750D564A7F54692,城市印象,鹿泉红旗大街南头西行1000米寺家庄镇中心,114.468613,37.938782,0311,住宅区,0,0,小区
B2094750D564A6FE4793,城市傲居,红旗大街与南三环交口南行1500米路西,114.460201,37.967343,0311,住宅区,0,0,小区
B2094750D564A6F84492,理想城,桥西红旗大街南延线寺家庄镇(南三环交口西南角),114.450964,37.938825,0311,住宅区,0,0,小区
B2094750D564A6FB4593,柠檬小镇,桥西红旗大街南三环交口南行1000米路西,114.464235,37.970185,0311,住宅区,3,2,小区
B2094750D564ABFF479F,天冠城,桥西红旗大街与南三环交叉口南头,114.465566,37.969517,0311,住宅区,0,0,小区
B2094750D56BA7FA4898,福城,栾城新开街与宏达路交口处,114.655037,37.894261,0311,住宅区,1,0,小区
B2094750D564A3F44498,沸点名邸,栾城县宏远路与华兴街交叉口南行20米路东,114.639244,37.90222,0311,住宅区,0,0,小区
B2094750D569A4FB489E,花溪里,栾城308国道与88米大道交口东南处,114.601822,37.925886,0311,住宅区,1,1,小区
B2094750D569AAFE4492,现代阳光园,其他区栾城宏达路与新开街交叉口路南,114.653622,37.88132,0311,住宅区,2,1,小区
B2094750D569AAFE469E,天山新伯爵,栾城县惠源路45号(体院馆东临),114.650433,37.882256,0311,住宅区,2,2,小区
B2094750D569AAFF4698,学府一品,其他区栾城县丰泽大街与宏达路交汇处,114.64178,37.894441,0311,住宅区,0,0,小区
B2094750D56AA6FB409B,尚城,栾城308国道与圣雪路交叉口,114.658127,37.894905,0311,住宅区,0,0,小区
B2094750D564A6FB4892,尚城丽都,栾城裕泰路和丰泽街北大街交叉口，县政府北侧,114.647141,37.902423,0311,住宅区,0,0,小区
B2094753DA6EA2FF4598,东坡家园,湘江大道太行大街交口,114.649168,37.893753,0311,住宅区,0,0,小区
B2094753DA6EA2F94098,栾城水榭花都,裕泰路与丰泽大街交叉口,114.646454,37.897225,0311,住宅区,1,1,小区
B2094750D56AAAF44299,华鼎孔雀城,栾城环城西路与裕泰路交口西南,114.620018,37.907231,0311,住宅区,0,0,小区
B2094750D56BA7FA4193,神农福地,南三环308国道与衡井线交口东行6公里,114.682846,37.915763,0311,住宅区,1,1,小区
B2094750D564A3FF459F,尚客怡园,太行大街与南三环交叉口南行1000米路东,114.652033,37.936345,0311,住宅区,0,0,小区
B2094750D564A4FF4498,承翰世家,栾城裕泰路与新开大街交口西北角(栾城县政府东临),114.650005,37.900372,0311,住宅区,0,0,小区
B2094753DA6EA2F9499E,中润怡园,藁城市正无路与机场路交口南行100米路西,114.900341,37.974583,0311,住宅区,0,0,小区
B2094750D564A2F44592,贯庄四季花城,藁城衡井线与藁贾路交叉口西行1000米路南,114.878961,37.953538,0311,住宅区,0,0,小区
B2094750D56AAAFB4593,富达山庄,石家庄市井陉县县材库南侧100米,114.158936,38.026459,0311,住宅区,0,0,小区
B2094750D564A7FB489C,燕春星河国际,井陉矿区平涉路入区口,114.071732,38.059445,0311,住宅区,0,0,小区
B2094750D56AAAFF4693,锦秀乾城,井陉县秀林镇棋盘岭平涉路路东秀林中学对过,114.084091,38.002656,0311,住宅区,0,0,小区
B2094751D46BAAFB4492,尚都花园,河北省石家庄辛集市,115.229732,37.939036,0311,住宅区,19,9,小区
B2094752D56CA4FD439E,石家庄朱雀门,井陉县秀林镇棋盘岭平涉公路东,114.095764,38.081068,0311,住宅区,193,4,小区
B209475DD768A0FC4992,悠然居,石家庄鹿泉市抱犊寨山下,114.29008483,38.07701345,0311,住宅区,0,0,小区
B2094750D564ABFD439C,大者,抱犊寨风景区东侧北斗路与观景大街交口南行800米路西,114.290686,38.087013,0311,住宅区,3,3,小区
B209475DD46EA4F9439E,石家庄幸福家园社区,,114.86,38.064,0311,住宅区,0,0,小区
B2094656D365A0F54798,阳光花园(正大小区西),,114.96503,38.17017,0311,住宅区,109,73,小区
B2094656D365A4FC459B,正大小区,,114.96638,38.1701,0311,住宅区,27,9,小区
B2094656D365A7FB4798,安康花园(正大小区西北),,114.96433,38.17125,0311,住宅区,42,12,小区
B2094656D364AAFA489F,安康之家,昌盛北街2,114.85884,38.0317,0311,住宅区,1,1,小区
B2094656D364A2FF499A,齐心家园,,114.85938,38.03257,0311,住宅区,0,0,小区
B2094753DA6EA3FB459D,御温泉渡假小镇,石家庄市区以东16公里紧邻307国道,114.864807,38.031749,0311,住宅区,0,0,小区
B2094656D364A2F4439E,天健装饰装修特训营学员宿舍,,114.85798,38.03583,0311,住宅区,1,1,小区
B2094753DA6EA2FB479F,银虹花园,炼油厂工业区,115.145559,38.01777,0311,住宅区,0,0,小区
B2094656D365A1FE469F,神池花园,平山县温塘镇石闫路,113.98042,38.26528,0311,住宅区,13,7,小区
B2094656D365A7FF479C,清清世界度假村,,113.97772,38.26913,0311,住宅区,11,1,小区
B2094757D768A6FA4398,欧陆苑,近郊平山县温塘镇,113.986849,38.259371,0311,住宅区,0,0,小区
B2094750D569AAFF499D,卓达假日公馆,其他区平山温塘镇东侧,113.988925,38.260544,0311,住宅区,0,0,小区
B2094753DA6FA2FB469D,星期八假日,平山县温塘镇,113.97337,38.261738,0311,住宅区,0,0,小区
B2094750D569AAFE459F,东方波尔多庄园,平山县温塘镇中心侧,113.987397,38.261237,0311,住宅区,0,0,小区
B2094750D569AAF8429F,华域御水蓝庭,其他区平山温塘镇东入口处石闫公路南侧,113.989939,38.261814,0311,住宅区,0,0,小区
B2094750D569AAF8499D,温泉桃花城,其他区平山温塘镇,113.988271,38.259245,0311,住宅区,0,0,小区
B2094750D569AAFB409F,温泉国际,西北方向太行山与华北平原交界处,113.990879,38.260963,0311,住宅区,1,1,小区
B2094750D564A0FD4399,林屿森林别墅,温塘镇温塘河西岸石闫公路南侧,113.986759,38.259615,0311,住宅区,0,0,小区
B2094750D564A7F54793,汤城香格里,平山温塘站前商业街东200米路南,113.990707,38.259211,0311,住宅区,0,0,小区
B2094753DA6EA3F5479D,神州花园,温塘镇,113.986802,38.260457,0311,住宅区,0,0,小区
B2094753DA6EA2FA4493,滨河峻景,平山温塘镇,113.990729,38.263204,0311,住宅区,0,0,小区
B2094753DA6EA2F4419F,格林童话,温塘镇,113.987188,38.260963,0311,住宅区,0,0,小区
B2094753DA6EA2F5419B,莱茵假日,平山温塘镇,113.995825,38.263145,0311,住宅区,1,0,小区
B2094753DA6EA1FC4899,颐和山水,温塘镇西南鹿台,113.989334,38.257593,0311,住宅区,0,0,小区
B2094753DA6EA1F8479B,温泉假日,温塘镇温泉东路,113.990214,38.264147,0311,住宅区,1,0,小区
B2094750D56BA0FF4999,华威三十七英里,石家庄市平山县温塘镇东入口西行300米，石闫公路南侧,113.984528,38.260828,0311,住宅区,0,0,小区
B2094454D26CAAF8489D,西柏坡国御温泉度假小镇御山美墅,平山县温塘镇东,114.2337799,38.24680841,0311,住宅区,0,0,小区
B2094454D26CABFD449A,石家庄逸格,平山县柏坡东路与蒲胜大街交口东南角,114.22245,38.252471,0311,住宅区,0,0,小区
B209475DD768A4FA469D,滨河雅园,平山县冶河西路68号(新县医院对过),114.192581,38.259497,0311,住宅区,0,0,小区
B2094753DA6FA2FB4198,温塘兰溪谷,平山温塘镇,114.228512,38.267517,0311,住宅区,0,0,小区
B2094750D569AAFC4192,东岸酷博,平山温塘车站西行200米路北,114.18927,38.256898,0311,住宅区,0,0,小区
B2094750D569AAF9479E,盛景华庭,其他区平山县平光南街和建材街交叉口向东150米,114.206334,38.24913,0311,住宅区,0,0,小区
B2094753DA6EA2FC4298,水云涧,平山县西北部驼梁风景区,114.217097,38.255799,0311,住宅区,0,0,小区
B2094753DA6EA2FE479F,天圣华庭,平山县商贸中心南,114.212279,38.261266,0311,住宅区,0,0,小区
B2094753DA6EA2FF409C,假日听海,岗南镇,114.203439,38.250718,0311,住宅区,0,0,小区
B2094753DA6EA2FF489E,龙山先生,九龙山风景区内,114.215841,38.25734,0311,住宅区,0,0,小区
B2094753DA6EA2F44098,温泉绿色庄园,平山县温塘镇,114.189277,38.250819,0311,住宅区,0,0,小区
B2094753DA6EA2F44593,温泉山庄,平山温塘镇泉眼南,114.203246,38.256178,0311,住宅区,0,0,小区
B2094752D26DA0FC4793,老街坊炖骨馆,近郊平山县外环路南义羊村东,114.24087,38.23851,0311,住宅区,0,0,小区
B2094656D368A0F84198,秦庄荷花园,,114.34364,38.21781,0311,住宅区,0,0,小区
B2094750D56BABFB429B,国际空港花园,正定新区京珠高速以东，机场路以南东平乐(正定四中南行150米路西),114.681258,38.266927,0311,住宅区,0,0,小区
B2094750D56AAAF4459B,空港家合小镇,空港新区,114.706364,38.274171,0311,住宅区,0,0,小区
B2094750D56BA6FA439D,空港国际,正定新区国际机场新建航站楼西500米,114.687412,38.27719,0311,住宅区,21,16,小区
B2094750D56BA6F44293,北辰商务花园,北二环和东二环交叉口西北角,114.619263,38.194212,0311,住宅区,0,0,小区
B2094750D564A1F44792,树林新村,正定新区正定国际物流园南邻,114.592209,38.178291,0311,住宅区,0,0,小区
B2094750D564ABF94393,新安家园,正定新区107国道与绕城高速交口北行500米路东新安镇政府南邻,114.622679,38.214446,0311,住宅区,1,0,小区
B2094750D564ABF9459D,福郡雅居,正定新区107国道与机场路交叉口北行800米路东,114.650917,38.260289,0311,住宅区,0,0,小区
B2094750D564ABF94498,居鑫苑,正定新区正行路与正灵路交叉路口北行1.5公里路东,114.792589,38.136892,0311,住宅区,0,0,小区
B2094656D368A0F84293,春草苑,,114.98856,38.17731,0311,住宅区,21,9,小区
B2094752D56CA6FB4498,紫晶名门,深泽县北苑路与西苑街交叉口西行300米路北,115.196288,38.191514,0311,住宅区,1,1,小区
B2094750D564A0FE419D,塞纳河谷,深泽县医院东行300米,115.213966,38.185248,0311,住宅区,1,0,小区
B2094656D365A0F9479B,富泽园,,115.20362,38.19198,0311,住宅区,361,130,小区
B209475DD16EA4F94492,北方明珠住宅小区,河北省 石家庄市 深泽县北苑路,115.205856,38.192943,0311,住宅区,6,1,小区
B2094750D564A0FD479B,兴和苑,深泽县后马里村马里办事处东临,115.30838,38.190165,0311,住宅区,0,0,小区
B2094750D569AAFE449D,峰林湖畔,其他区平山岗南镇岗南水库旁,114.035854,38.319707,0311,住宅区,1,0,小区
B209475DD768A4F94993,神池龙泉溪,平山县温塘镇石闫路往西至桃园街路东,113.999634,38.269454,0311,住宅区,0,0,小区
B2094753DA6FA2FB469C,乐城,温塘镇西岸宾馆西边,113.99369,38.289869,0311,住宅区,0,0,小区
B2094753DA6EA2FA479B,水印长滩,岗南水库上游,114.02298,38.32772,0311,住宅区,0,0,小区
B2094753DA6EA2F44698,千百度澜珊,温塘镇东边301省级公路对面,114.002638,38.266287,0311,住宅区,0,0,小区
B2094750D56BA6FB4098,家和苑,中华北大街交正灵公路东南角,114.515948,38.222302,0311,住宅区,0,0,小区
B2094750D56BA5FF439A,水郡花洲,灵寿县横山湖水库北岸,114.388962,38.307719,0311,住宅区,0,0,小区
B2094753DA6EA2FD4299,观澜逸品,横山湖旅游度假区北岸,114.376001,38.306457,0311,住宅区,0,0,小区
B2094753DA6EA1FE489B,东城小区,灵寿县城附近,114.386644,38.299671,0311,住宅区,0,0,小区
B2094656D365A7FD4498,敬业公寓,,114.13931,38.37017,0311,住宅区,81,19,小区
B209475DD768A4FC4792,藏龙镇,平山县南甸镇王坡乡黄金寨旅游区北邻,114.117737,38.392263,0311,住宅区,0,0,小区
B2094752D56CA6FB469C,盛世名门,行唐县城东桥头南行150米路西,114.564743,38.42616,0311,住宅区,0,0,小区
B209475DD06CA2FF4098,花园小区,香港路2号,114.569595,38.432044,0311,住宅区,0,0,小区
B2094656D365A5F5499D,泰和花园,,114.67841,38.35624,0311,住宅区,78,24,小区
B2094656D365A2FE419E,颐和花园,,114.68092,38.33531,0311,住宅区,36,12,小区
B2094656D365A7FC4792,建安小区,,114.69396,38.34626,0311,住宅区,37,14,小区
B2094753DA6EA3F44292,元亨家园,幸福路以北,114.67864,38.357744,0311,住宅区,6,1,小区
B2094656D364A6FE469A,馨苑小区,,114.39703,37.66496,0311,住宅区,399,88,小区
B2094656D364AAF5459C,凤城花园,,114.61025,37.59706,0311,住宅区,94,32,小区
B2094656D364A6F44892,阳光花园,,114.60556,37.61466,0311,住宅区,219,75,小区
B2094656D364A5FC469F,信合怡园,,114.60773,37.59816,0311,住宅区,12,3,小区
B2094656D364A6F5429E,供电局生活区,,114.60832,37.60779,0311,住宅区,9,3,小区
B2094750D569AAFE409F,碧水明珠,其他区域石家庄市元氏县蟠龙湖南岸,114.514408,37.750048,0311,住宅区,0,0,小区
B2094750D569AAFE419A,泊岸南山,其他区域元氏县潘龙湖南岸,114.513609,37.74793,0311,住宅区,0,0,小区
B2094656D364A0FB479D,东关小区,,114.52199,37.75479,0311,住宅区,15,4,小区
B209475DD768A6FD499E,金桥天海湾,元氏县常山路与西环交口西北,114.50174328,37.76747594,0311,住宅区,0,0,小区
B2094750D569AAFD449E,享墅,其它区元氏县蟠龙湖南案风景区,114.515547,37.758037,0311,住宅区,0,0,小区
B2094753DA6EA2FA4693,大湖之翼,蟠龙湖风景区,114.509082,37.744521,0311,住宅区,0,0,小区
B2094753DA6EA2F54698,心海湾,岗丘路石炼宾馆斜对面,114.516163,37.758501,0311,住宅区,2,0,小区
B2094753DA6EA1FC419D,蟠龙湖别墅,蟠龙湖景区,114.510627,37.745896,0311,住宅区,1,1,小区
B2094750D569AAFF419B,天怡庄园,其他区赵县柏林大街北头路东,114.767279,37.749472,0311,住宅区,1,1,小区
B2094750D564A6FB479E,中央逸家,赵县重点中学西邻,114.771595,37.752869,0311,住宅区,1,0,小区
B209475DD768A1FC419C,翡翠华庭,常山路与槐阳大街交口北行400米路西(北国商城北行400米路西),114.53650472,37.76793456,0311,住宅区,1,1,小区
B2094656D364A7FE4093,小区(槐阳镇人民政府北),,114.53632,37.77152,0311,住宅区,14,3,小区
B2094656D364A7FE449F,怡景嘉园,,114.52099,37.76649,0311,住宅区,82,36,小区
B2094656D364A7FE4492,银苑小区,,114.51976,37.76648,0311,住宅区,45,12,小区
B2094656D364A0FB4892,双龙花园,,114.52674,37.75498,0311,住宅区,130,77,小区
B2094750D569ABF5469E,岸乡,其它区元氏蟠龙湖南岸紧临工行度假村,114.535874,37.764831,0311,住宅区,0,0,小区
B2094750D564A0FB4793,元氏盛世华庭,元氏县常山路槐阳大街北行500米路东,114.538822,37.770019,0311,住宅区,0,0,小区
B2094750D564A7FB4793,元氏天山水榭花都,元氏县常山路县一中对过,114.520111,37.775057,0311,住宅区,35,16,小区
B2094750D564A6F8459E,雅仕兰庭,元氏常山路与槐阳大街交口北行100米,114.536934,37.768544,0311,住宅区,0,0,小区
B2094656D364A7FD409A,工商银行生活小区,,114.52563,37.75796,0311,住宅区,10,5,小区
B2094656D364A7FE469C,六合苑,,114.51476,37.76605,0311,住宅区,27,9,小区
B2094656D364A7FE489F,扬华小区,,114.52406,37.76604,0311,住宅区,1,0,小区
B2094753D56DAAFA409B,北苑花园,河北省 石家庄市 元氏县 常山路163号,114.5167,37.765998,0311,住宅区,1,0,小区
B2094757D56FABFE419E,卓达太阳城,栾城308国道与南三环交汇处路北,114.5969656,37.9498584,0311,住宅区,712,396,小区
B2094750D564A2F44893,恒大雅苑,裕华翟营南大街与广源路交叉口(方郄路178号),114.567661,37.979995,0311,住宅区,519,291,小区
B2094750D56AAAFA4899,东龙府邸,裕华谈固大街南延线与308国道交口西南方,114.561803,37.971677,0311,住宅区,9,5,小区
B209475DD768A3F44499,卓达太阳城希望之洲,石家庄308国道与京港澳高速交口东侧,114.5877457,37.95286016,0311,住宅区,1,0,小区
B209475DD768ABFA419F,卓达太阳城青年之都,石家庄308国道与京港澳高速交口东侧,114.59220888,37.95338167,0311,住宅区,0,0,小区
B2094750D56BA7FB469D,万和城,裕翔街与环城水系交口东南角,114.535904,37.958546,0311,住宅区,0,0,小区
B2094750D56AAAF5469A,新谊家园,卓达太阳城南行200米，308国道东侧,114.598056,37.947819,0311,住宅区,0,0,小区
B2094753DA6EA2F5419E,卓达太阳城汉府,石栾公路与京珠高速交叉口,114.589205,37.952675,0311,住宅区,1,0,小区
B2094753DA6EA1FC479E,佳琳花园,翟营大街南头,114.567404,37.979792,0311,住宅区,0,0,小区
B2094752D56CA4FB439E,泊水湖1号,东二环与南二环交口南行约2000米,114.577446,37.978033,0311,住宅区,0,0,小区
B2094753D564A5F4429E,千禧花园,河北省 石家庄市 建设街，文昌路,115.225006,37.916599,0311,住宅区,29,12,小区
B2094750DB6AA2FB4492,芳华小区,河北省辛集市芳华小区,115.235671,37.923984,0311,住宅区,39,17,小区
B2094751D26FA6FB4992,明珠花园,辛集市明珠花园小区,115.206718,37.929267,0311,住宅区,40,19,小区
B2094656D365A5F4429E,河北辛集化工集团三生活区,,115.22179,37.90708,0311,住宅区,2,0,小区
B2094750DA69ABFB449C,千禧花园,,115.222595,37.914871,0311,住宅区,2,0,小区
B2094750D26EA6F54092,古城花园,河北省 石家庄市 辛集市古城花园,115.21991,37.947045,0311,住宅区,22,14,小区
B2094656D364A0FC4293,铁马住宅小区,,115.21572,37.92267,0311,住宅区,3,1,小区
B2094656D364A0FC469E,鹿马公司职工生活区,,115.20669,37.91836,0311,住宅区,9,0,小区
B2094757D56FA2F5419A,绿洲小区南院,中国河北省辛集市,115.23694689,37.91884711,0311,住宅区,175,57,小区
B2094656D364A1F5449F,鑫苑花园,石家庄辛集鑫苑花园,115.20944,37.93863,0311,住宅区,173,54,小区
B2094757D56FA1F8419F,天山花园(北门),中国河北省辛集市安定大街,115.22706923,37.93794488,0311,住宅区,223,58,小区
B2094757D56FAAF9429B,安定小区西区,中国河北省辛集市,115.22294,37.94055447,0311,住宅区,132,36,小区
B2094656D364A1F44993,澳森生活小区,,115.21479,37.94982,0311,住宅区,122,50,小区
B2094656D364A1F5439D,亨盛小区,,115.21334,37.93852,0311,住宅区,37,14,小区
B2094757D56FA0FA419C,富贵花园,中国河北省辛集市文昌路,115.22461453,37.93672743,0311,住宅区,12,6,小区
B2094753DA6EA2FC4899,橡胶厂宿舍,和平东路与东二环交叉口,115.22374,37.918176,0311,住宅区,0,0,小区
B2094656D368A5F94892,西山花园别墅,河北省,114.3707,38.0416,0311,住宅区,2666,1397,小区
B2094656D365ABF8479C,龙泉花园,龙泉花园,114.37844,38.0082,0311,住宅区,691,210,小区
B2094757D56FAAF4409D,云鼎山庄,槐安西路与山前大道交汇处北行300米,114.343846,38.025164,0311,住宅区,40,13,小区
B2094656D365A4FB459C,吉溪庄园,,114.32937,38.01706,0311,住宅区,55,17,小区
B2094656D364A5F4499D,龙海新区(鹿泉市妇幼保健院东北),,114.32965,38.07984,0311,住宅区,126,68,小区
B2094656D368A5FB469A,吉恒小区,吉恒街8号,114.406,38.03934,0311,住宅区,84,36,小区
B2094656D365A7FF4799,上庄新新家园,,114.39032,38.03253,0311,住宅区,329,78,小区
B2094656D365A3F44299,富丽花园富兴苑,中山西路,114.37802,38.03686,0311,住宅区,140,75,小区
B2094656D368A5FB4593,西兴小区,桥西区西王西兴小区,114.40555,38.04406,0311,住宅区,84,22,小区
B2094656D06CA1FE449F,申后新村,,114.35439,38.06741,0311,住宅区,37,9,小区
B2094750D66EAAFB489B,水岸星城,槐安路与西三环交叉口往东路北,114.411506,38.026462,0311,住宅区,23,4,小区
B2094757D56FA1F44492,西山渡,山前大道与龙泉寺交口南行2公里路西,114.3221856,38.03514556,0311,住宅区,10,8,小区
B2094750DA6BA6FF4692,朗润园小区,获铜路8号,114.356903,38.048885,0311,住宅区,44,20,小区
B2094750D564A5FD409B,苏园,桥西石铜路432号，距南二环1200米处,114.426727,37.993998,0311,住宅区,5,4,小区
B2094750D56AA3FF409F,西山御园,鹿泉翠屏山迎宾馆北侧(鹿泉经济技术开发区),114.348969,38.049154,0311,住宅区,4,3,小区
B2094454D26CABFB4092,帕克公馆,中山路与苑西街交口1号地铁口,114.411364,38.039304,0311,住宅区,0,0,小区
B2094454D26CAAFF449E,恒信国际产业园,位于石家庄市石铜路与南二环交叉口南行4.5公里处,114.42157743,37.98753808,0311,住宅区,0,0,小区
B2094750D569AAFE429D,宏扬香木林,鹿泉中山西路上庄镇,114.376287,38.037525,0311,住宅区,2,1,小区
B209475DD768A3FB4299,众诚五福苑,槐安路与苑东街交口西北角,114.41938881,38.02461611,0311,住宅区,0,0,小区
B209475DD768A5F84992,壹号院,中山西路沿线御园路南侧,114.370422,38.043089,0311,住宅区,0,1,小区
B2094752D56CAAF9429E,西城国际,和平路西路与海山大街交口处东北角,114.331198,38.078501,0311,住宅区,0,0,小区
B2094750D569AAF4479B,西城公馆,中山西路与获铜路交口北行100米路西,114.380757,38.034865,0311,住宅区,1,1,小区
B2094753DA6FA2FB4199,金瓦台,中山西路800号,114.407898,38.04009,0311,住宅区,0,0,小区
B2094753DA6FA2FB449A,永兴花园,石铜路666号,114.427071,37.99158,0311,住宅区,4,4,小区
B2094753DA69A0FA459E,油漆厂宿舍,车管所西行100米,114.409368,38.041805,0311,住宅区,0,0,小区
B2094750D569AAFC449C,龙洲新城,石铜路与车铜冶交叉口100米,114.429019,37.994046,0311,住宅区,3,1,小区
B2094750D569AAFE439A,瑞泰澜庭,鹿泉市高新区昌盛大街108号,114.369736,38.066879,0311,住宅区,2,2,小区
B2094750D569AAFF4993,唐宁官邸,老动物园(苑西街)西侧,114.413115,38.034907,0311,住宅区,0,0,小区
B2094750D569AAF94192,锦绣山城,石家庄山前大道,114.38314,38.034301,0311,住宅区,1,1,小区
B2094750D569AAF44198,方盛园,新华西路与西三环路交叉口,114.34998,38.069261,0311,住宅区,0,0,小区
B2094750D569AAF54399,龙泉盛景,槐安西路与获铜路交叉口路南,114.389742,38.02388,0311,住宅区,0,0,小区
B2094750D56AA3FC499C,西山岭秀,桥西区上庄镇,114.393042,38.035325,0311,住宅区,0,0,小区
B2094750D56AA3FD4899,西山绿岛,中山路与获铜路交叉口东北(上庄),114.382267,38.032949,0311,住宅区,5,4,小区
B2094750D56AA3FE499C,绿荫锦江,中山西路一路车终点站(西兴超市)西行100米,114.408581,38.040691,0311,住宅区,10,6,小区
B2094750D56BA2F44699,军城港湾,新华路与西三环交口西南角,114.367332,38.060256,0311,住宅区,3,2,小区
B2094753DA6EA3F4439E,美达西山御园,石家庄市鹿泉经济技术开发区,114.348969,38.049154,0311,住宅区,0,0,小区
B2094753DA6EA3F4439C,吉恒园,吉恒街8号,114.406954,38.037428,0311,住宅区,2,1,小区
B2094753DA6EA3F44699,置嘉公寓,新华西路与西三环交叉口,114.369907,38.063466,0311,住宅区,0,0,小区
B2094753DA6EA3F4469F,香堤名筑,工农路与院西路交口,114.412469,38.033067,0311,住宅区,0,0,小区
B2094753DA6EA3F54292,安联朗润园,北方大学园区内,114.38334,38.037242,0311,住宅区,1,0,小区
B2094753DA6EA2FC479D,静心园,石铜路与三环交叉口,114.42529,37.992307,0311,住宅区,0,0,小区
B2094753DA6EA2FD419E,翰林雅筑,建通街与仓丰路交叉口南行200米路东,114.409733,37.984257,0311,住宅区,0,0,小区
B2094753DA6EA2FD419D,苑西小区,动物园西侧,114.412951,38.029941,0311,住宅区,0,0,小区
B2094753DA6EA2FE409A,秀水丽城,上庄镇台头村,114.397781,38.015488,0311,住宅区,0,0,小区
B2094753DA6EA2FF4798,龙泉西区,槐安路与三环交叉口,114.377933,38.005936,0311,住宅区,1,1,小区
B2094753DA6EA2FF499A,浪琴湾,西三环边上石获南路,114.375443,38.062487,0311,住宅区,0,0,小区
B2094753DA6EA2F94199,金虹花园,中山西路816号,114.406815,38.039642,0311,住宅区,0,0,小区
B2094753DA6EA2FA449D,盛泽果岭湾,新华路与西三环交汇处,114.367976,38.060223,0311,住宅区,1,1,小区
B2094753DA6EA2FA4599,易城雅居,红旗大街寺家庄村,114.364843,38.04461,0311,住宅区,0,0,小区
B2094753DA6EA2F5449D,丽秀园,中山路与西三环交叉口上庄镇政府对面,114.392953,38.040554,0311,住宅区,0,0,小区
B2094753DA6EA2F54893,汀香十里,海山大街附近,114.308474,38.078501,0311,住宅区,0,0,小区
B2094753DA6EA1FC439F,安年颐园,中山路西延线联合大学城附近,114.381967,38.036735,0311,住宅区,0,0,小区
B2094753DA6EA1FC4392,汇鑫小区,石炼佳园南侧工商银行对面,114.318001,38.075916,0311,住宅区,0,0,小区
B2094753DA6EA1FD4392,西锦小区,中营街1号,114.402695,38.045675,0311,住宅区,1,1,小区
B2094753DA6EA1FF439D,安联星朗,联合大学城附近,114.382653,38.037124,0311,住宅区,0,0,小区
B2094753DA6EA1FF4799,依山花园,红旗大街与仓安路交叉口,114.422436,37.988553,0311,住宅区,0,0,小区
B2094753DA6EA1F8449C,丽馨园,中山西路上庄镇政府西侧,114.37731,38.036769,0311,住宅区,0,0,小区
B2094753DA6EA1F8469F,丽景园,中山西路上庄段,114.380894,38.036414,0311,住宅区,0,0,小区
B2094752D56CA6FF449A,蓝湾半岛,鹿泉市获鹿镇六街,114.320726,38.078366,0311,住宅区,0,0,小区
B2094750D56BA3FF469C,绿墅蓝山(云台),石家庄市槐安路与山前大道交汇处北行800米,114.33197,38.039439,0311,住宅区,0,0,小区
B2094750D56BA1FF4693,百盛郁金香,中山西路北国超市西兴店西行500米,114.401407,38.038526,0311,住宅区,0,0,小区
B2094750D56BA5FB499A,何东比邻居,鹿泉市新华路与西三环交汇处西行1500米路北,114.335107,38.078146,0311,住宅区,0,0,小区
B2094750D56BA4FC449B,中山凯旋门,桥西中山西路与兴华街交叉口南行200米,114.386012,38.035594,0311,住宅区,202,6,小区
B2094750D56BAAFD489A,香醍溪岸,槐安路西沿线至山前大道龙泉寺对面,114.344931,38.021016,0311,住宅区,0,0,小区
B2094750D56BAAFF489C,西山一号,鹿泉山前大道与龙泉寺交口南行2公里,114.322872,38.043157,0311,住宅区,1,1,小区
B2094750D564A3FF489C,西兴花园,中山西路与长兴街交口北行400米路东,114.408531,38.042954,0311,住宅区,0,0,小区
B2094750D564A3F9469F,裕西华府,中山西路772号,114.409776,38.039168,0311,住宅区,0,0,小区
B2094750D564A6FD439D,龙泉凯旋,鹿泉市中山西路上庄镇南(槐安西路与232高速交叉口南行2公里),114.376259,38.013206,0311,住宅区,0,0,小区
B2094750D564A6FA439D,庄辰丽景苑,工农路与苑东街交口西行三百米路南(裕西公园西南),114.415033,38.031174,0311,住宅区,0,0,小区
B2094750D564A6FB449C,滨湖颐园,鹿泉市中山路与西三环交叉口北行至国宾路西行500米路北,114.375486,38.04532,0311,住宅区,1,0,小区
B2094750D564A4FB459B,江水西岸,石家庄西三环翠屏路交口西行200米路北,114.388618,38.045387,0311,住宅区,0,0,小区
B2094750D564ABFE409C,恒大金碧天下,石家庄市槐安西路西沿线与青银高速交汇处西南方,114.341412,38.015911,0311,住宅区,3,2,小区
B2094750D564ABF94099,欧景城,晋州商务宾馆北行50米路东,115.067247,38.023325,0311,住宅区,1,0,小区
B2094750D26FA2FD409C,朝阳小区,晋州市朝阳小区,115.063552,38.033966,0311,住宅区,150,40,小区
B2094757D56FA6FA419D,龙头花园,中国河北省晋州市,115.06062771,38.03694472,0311,住宅区,254,80,小区
B2094757D56FA6FD4993,朝阳馨苑(朝阳小区社区卫生服务站西),中国河北省晋州市,115.0609101,38.03644748,0311,住宅区,67,30,小区
B2094656D365A6FF439B,富康楼,,115.03306,38.02582,0311,住宅区,8,0,小区
B2094750D668A3FD439F,石油小区,工业路东边,115.020423,38.017192,0311,住宅区,1,0,小区
B2094656D364A1F9429D,世纪花园(中兴街),,115.06179,38.02438,0311,住宅区,80,38,小区
B2094656D365A4F4449A,田家庄新区,天苑小区西邻,114.44238,38.099842,0311,住宅区,88,14,小区
B2094750D564A5FC4792,上水园商铺,新华友谊北大街与丰产路交叉口西北角,114.455131,38.120688,0311,住宅区,0,0,小区
B2094750D56BA5F84298,农耕时代,友谊北大街与学府路交叉口西行200米路北,114.468441,38.145898,0311,住宅区,1,0,小区
B2094656D365A4F5459F,纳帕溪谷,石清路,114.43063,38.12354,0311,住宅区,513,250,小区
B2094757DA6EA6FB479E,绿源小区,桥东区学府路,114.495563507079,38.1274000368368,0311,住宅区,192,64,小区
B2094757D56FA6FC419C,杜北小区,北二环民心河北侧,114.44096761,38.11782172,0311,住宅区,191,66,小区
B2094757D56FA1FB489B,美景天地,新华友谊大街东，南水北调南，西营村北,114.4632478,38.13924778,0311,住宅区,20,11,小区
B2094656D365A7FD449D,东柏棠康居家园,,114.5404,38.16479,0311,住宅区,17,2,小区
B2094750DB6CA1F8409A,原河名墅,中华北大街与翠屏西路交口东南角,114.4731011796998,38.11603902191147,0311,住宅区,172,96,小区
B2094750D564A4FE4698,河心岛,正定中华大街胜利大街与滹沱河交汇处,114.522514,38.137527,0311,住宅区,69,59,小区
B2094752D569A3FF4893,河心岛别墅,新华区中华大街、胜利大街与滹沱河交汇处,114.508339,38.150243,0311,住宅区,12,10,小区
B209475DDB65A4FF429D,南海佳园,石铜路与南二环交口,114.43192,38.13405,0311,住宅区,0,0,小区
B2094750D564A1F94099,康太家园,新华区友谊大街与古城西路交口西南角,114.453635,38.102819,0311,住宅区,0,0,小区
B209475DD768A1FC4299,泊岸星城,车站西街与曙光路交口北行800米路西,114.54925078,38.17022759,0311,住宅区,0,0,小区
B209475DD768A0FD489A,玉琥明珠苑,中华北大街高速收费站西南角,114.51929564,38.19223981,0311,住宅区,0,0,小区
B209475DD768A0F54693,怡荷园,中华北大街曙光路北行1000米路西,114.512826,38.1915376,0311,住宅区,0,0,小区
B209475DD768ABFD429E,东岸尚园,石家庄市新华区中华北大街与太平河交口,114.476552,38.10623,0311,住宅区,1,1,小区
B2094750D56BA3FB499F,南海佳园花溪别墅,新华区石闫公路杜北以西,114.432907,38.136447,0311,住宅区,0,0,小区
B2094753DA6FA2FB469E,南高基小区,中华北大街与北三环交叉口,114.470887,38.11663,0311,住宅区,3,2,小区
B2094750D56AA3FE4693,成果社区,石清路毗卢寺对过,114.424667,38.125374,0311,住宅区,0,0,小区
B2094750D56BA0F9409A,壹江城,恒山路与107国道交汇处西行800米路南斜角头村改造,114.535089,38.1542,0311,住宅区,5,1,小区
B2094750D56BABF9419D,四季春城,新华石闫公路杜北以西,114.443035,38.136312,0311,住宅区,12,10,小区
B2094750D564A6FE429D,丽都河畔,友谊北大街与古城西路交叉口东南角,114.455824,38.101367,0311,住宅区,2,1,小区
B2094753DA6EA2F8439E,一街新村,北村宾馆向西,114.468784,38.107328,0311,住宅区,0,0,小区
B2094753DA6EA1FE4799,梦园小区,前杜北大街9号,114.434688,38.130337,0311,住宅区,0,0,小区
B2094752D56CA6FA4398,天丽花园,新华区中华北大街与翠屏路交口路西,114.473763,38.11874,0311,住宅区,1,1,小区
B2094752D56CA4FA4899,誉宏乾院,中华北大街与古城西路交口北行200米路西,114.473007,38.104927,0311,住宅区,0,0,小区
B2094752D56CABFC4393,平安小镇,正定新区中华大街北沿线西行2公里平安屯村,114.470673,38.19664,0311,住宅区,0,0,小区
B2094750D56BAAFA4599,奥翔园,友谊大街与古城西路交口西南角,114.453549,38.102009,0311,住宅区,0,0,小区
B2094750D564A7FC4998,紫金蓝湾,中华北大街与滹沱河北岸交口东北角,114.510241,38.172319,0311,住宅区,0,0,小区
B2094750D564A6FD4593,鸿名华府,翟营大街与跃进路交叉口西南角,114.523888,38.138742,0311,住宅区,0,0,小区
B2094750D564A6FE4598,江南鸿郡,中华北大街北沿线滹沱河岸北,114.510155,38.19003,0311,住宅区,0,0,小区
B2094750D564ABFF439F,金筑香水岸,石家庄新华石清路与杜北大街交叉口西北角,114.437171,38.116652,0311,住宅区,0,0,小区
B2094750D564ABF8419A,汇君城,石清路以西，景源街以东，石环路以南，武警支队以北,114.439387,38.100675,0311,住宅区,3,3,小区
B2094750D564ABF94698,西原泓郡,元氏常山路与向阳街交口南行80米路东,114.510498,38.164795,0311,住宅区,0,0,小区
B2094750D564A4F54799,龙宫花苑,正定新区藁城市机场路和正无路交叉口北行500米路东,114.703291,38.281313,0311,住宅区,0,0,小区
B209475DD768A5FA429A,金鱼家园,赵县新商业中心,114.77623,37.757144,0311,住宅区,0,0,小区
B209475DD768A4FE479E,福美公馆,赵县柏林大街与李春大道交叉口西北角,114.783568,37.765965,0311,住宅区,1,1,小区
B2094656D365A6FA449D,宋营花园新村,秦岭大街与湘江道交叉口,114.63057,38.03011,0311,住宅区,86,18,小区
B2094656D06CA2FA4598,东仰陵小区,,114.60917,38.00975,0311,住宅区,148,54,小区
B2094757D56FA2F4469D,苹果城,中国河北省石家庄市区,114.60690186,38.03240723,0311,住宅区,91,46,小区
B2094656D06CA1FD439D,石炼一区,,114.69158,37.99033,0311,住宅区,63,22,小区
B2094757D56FA0F8459B,留村东区,中国河北省石家庄市区,114.61847087,38.0407685,0311,住宅区,26,11,小区
B2094656D06CA3FC4198,旭丰公寓,石家庄胜利北大街和光华路交汇处,114.682,38.02835,0311,住宅区,14,4,小区
B2094656D365A6FE4698,筑业花园广场B,,114.60349,38.03864,0311,住宅区,5,2,小区
B2094750D56AA6FA419F,昊城蓝湾,和平路东延307国道与燕山大街交口北行200米吴家营村东,114.653149,38.0512,0311,住宅区,17,3,小区
B2094750D56AAAF94398,恒大绿洲,槐安路与阿里山大街交叉口(阿里山大街15号),114.66907,38.023281,0311,住宅区,418,226,小区
B2094750D56BA7F5429C,和合美家,学苑路与天山大街西南角,114.606113,38.015911,0311,住宅区,93,39,小区
B2094656D364A5F94292,水榭花都,珠峰大街附近,114.60309,38.02631,0311,住宅区,2996,1555,小区
B2094656D06CA3FD4892,天然城,祁连大街122号(东仰陵村北),114.61531,38.01329,0311,住宅区,923,208,小区
B2094656D06CA3FD419E,珠峰国际花园,高新开发区珠峰大街180号(与湘江道交口西南角),114.60232,38.02987,0311,住宅区,668,214,小区
B2094656D365A0F54799,石炼佳园,,114.68783,37.99053,0311,住宅区,640,242,小区
B2094656D06CA2F44498,星辰花园,,114.61979,38.03526,0311,住宅区,272,90,小区
B2094656D365A2F4469E,东方城,学苑路23,114.59319,38.01416,0311,住宅区,195,59,小区
B2094757D56FA6FC4192,花样年华,裕华区湘江大道与秦岭大街交叉口花样年华小区紫薇阁B座3-102(近郝家营),114.62461751,38.03109212,0311,住宅区,357,103,小区
B2094757D56FA5FC4992,卓达·星辰花园,中国河北省石家庄市区,114.6219987,38.03431885,0311,住宅区,52,12,小区
B2094656D06CA2F94798,北席小区,,114.68001,38.02434,0311,住宅区,142,35,小区
B2094656D06CA2F9479E,北邑小区,,114.69698,38.02805,0311,住宅区,200,68,小区
B2094656D365A4FD4693,天山花园,珠江大道49号,114.60742,38.02405,0311,住宅区,81,29,小区
B2094750D26CA3FF4698,花香漫城,开发区心海假日东临(珠峰大街和淮河道交叉口东南角),114.60277162153,38.041015811156,0311,住宅区,2,1,小区
B2094757D56FA3FD4299,居美颐园,槐安路与东二环交口东行1200米路北,114.601092,38.024278,0311,住宅区,17,4,小区
B2094750D569AAFC479A,丽景湾,天山大街与学苑路交叉口,114.604697,38.011602,0311,住宅区,6,4,小区
B2094750D56AA3FC479D,天地荣域,天山大街与学苑路交口东行300米路南,114.610784,38.012885,0311,住宅区,25,12,小区
B2094750D56BA5F9439C,同祥城,中山东路(黄河大道)与祁连街交口北行200米,114.613495,38.050727,0311,住宅区,130,86,小区
B2094750D564A0F44292,心海湾二期,开发区岗丘路，石炼宾馆斜对面,114.693732,37.999387,0311,住宅区,1,0,小区
B2094757D56FA2F9489A,天山·枫景(东门),中国河北省石家庄市区,114.65825385,38.03525364,0311,住宅区,54,21,小区
B2094757D56FA6FF479B,加洲阳光(东门),中国河北省石家庄市区祁连大街,114.61637885,38.00765218,0311,住宅区,190,58,小区
B2094656D365A1F8419E,康星家园,创业路5号,114.68406,38.03337,0311,住宅区,39,20,小区
B2094656D365A7FE4198,兴发怡园,创业路开发大街，湘江大道与东三环南行,114.67606,38.028927,0311,住宅区,22,6,小区
B2094656D365A2F9449F,大江山小区,长江大道26,114.60699,38.03672,0311,住宅区,10,5,小区
B2094750D56AA0FA479D,石门福地,开发区天山大街与学苑路交口东行380米路南,114.613645,38.012812,0311,住宅区,15,6,小区
B2094757DA64A3F8479D,花都金街,珠峰大街218号,114.600476,38.025203,0311,住宅区,0,0,小区
B2094752D26CA2F94593,铁锅一居,裕华区高新区湘江道36号(近河北省第四医院东院区),114.6069,38.03294,0311,住宅区,0,0,小区
B2094753DA68A5F5489F,盛宏嘉苑,河北省石家庄市开发区学苑路88号,114.64289,38.01358,0311,住宅区,18,8,小区
B2094753D765A1FA439B,花香漫城,河北省 石家庄市 石家庄市裕华区,114.604202,38.040744,0311,住宅区,30,21,小区
B2094454D26CAAFF4098,长九中心,珠江大道与天山大街交口东行500米,114.61083413,38.02260466,0311,住宅区,0,0,小区
B209475DD46EABFA4298,石家庄筑业花园社区,,114.60341,38.03908,0311,住宅区,1,1,小区
B209475DD768A3FB499A,月珑湾,长江大道与秦岭大街交口北行300米路西,114.628601,38.03889806,0311,住宅区,0,0,小区
B209475DD768A1F4469D,红石原著小区,天山大街与学苑路交口东行500米路南,114.62561808,38.01180204,0311,住宅区,0,0,小区
B2094752D56CAAF94699,御江景城,长安区北二环东沿线与赵村桥交口东行500米(石津总干渠北岸),114.627314,38.054985,0311,住宅区,0,0,小区
B2094750D569AAFF4093,橙色宝邸,石炼佳园对面，工行南侧,114.688221,37.990532,0311,住宅区,0,0,小区
B2094750D569AAF44692,心海湾,岗丘路，石炼宾馆斜对面,114.694119,37.997203,0311,住宅区,0,0,小区
B2094750D56AA3FC459E,荣御府,槐安路与祁连大街西北角,114.610466,38.022417,0311,住宅区,0,0,小区
B2094753DA6FA2FB429B,新港花园,学苑路69号,114.615383,38.014829,0311,住宅区,0,0,小区
B2094753DA6FA2FB4293,金岗新村,良村富强大街与文明东路交叉口,114.686966,38.047787,0311,住宅区,0,0,小区
B2094753DA6FA2FB439A,富源城,槐安路与祁连大街交叉口,114.610705,38.022537,0311,住宅区,0,0,小区
B2094753DA6FA2FB4399,金石花园,天山大街祁连大街交口,114.605148,38.032189,0311,住宅区,0,0,小区
B2094753DA6FA2FB479A,东方曼哈顿城市广场,天山大街与淮河路交叉口西北角,114.605169,38.041602,0311,住宅区,0,0,小区
B2094750D569ABFB489A,天山峰尚,珠峰大街218号(闽江大道与珠峰大街交口西南角),114.651688,38.023304,0311,住宅区,0,0,小区
B2094750D569ABFB4899,加洲阳光,裕华区天山大街东侧(天然城对面),114.622339,38.010542,0311,住宅区,0,0,小区
B2094750D569AAFE4198,香居美地,创业路3号,114.684005,38.035281,0311,住宅区,0,0,小区
B2094750D569AAFE4592,芳华怡园,良村岗上村村口路东,114.675343,38.044454,0311,住宅区,0,0,小区
B2094750D569AAFE479A,御景东城,东三环高架桥西侧300米,114.671152,38.053076,0311,住宅区,2,2,小区
B2094750D569AAFE489A,风情假日,东开发区天然城东侧1000米,114.611012,38.011536,0311,住宅区,0,0,小区
B2094750D569AAFF4098,城宇花园,炼油厂生活区工商银行对面,114.680404,37.990548,0311,住宅区,0,0,小区
B2094750D569AAFF409D,纯粹家园,南村镇,114.640282,38.066877,0311,住宅区,0,0,小区
B2094750D569AAF9439F,御汤墅,其他区藁城市藁新路6号，石家庄市区以东16公里，307国道东三环口东3公里路北，石津渠畔,114.789139,38.030662,0311,住宅区,0,0,小区
B2094750D569AAF5449A,天帝城,开发区黄山大街与和平路交叉口北五女村,114.671712,38.052814,0311,住宅区,0,0,小区
B2094750D569AAF54699,东南雅居,石练生活区附近,114.622339,37.972996,0311,住宅区,0,0,小区
B2094750D56AA3FE429D,紫苑,学苑路以东宋营镇韩通村,114.640293,38.013478,0311,住宅区,0,0,小区
B2094750D56AA6FE489A,盛景八方,太行大街与石炼路交口东行八方村西侧,114.652033,37.989128,0311,住宅区,2,0,小区
B2094750D56AA6F9449A,南豆新村,学苑路与太行大街交口南行500米路西(裕华区职教中心西邻),114.635017,38.008506,0311,住宅区,1,0,小区
B2094750D56AA6FA449F,东上华府,石津干渠北岸，石家庄经济技术开发区岗上,114.694391,38.045016,0311,住宅区,0,0,小区
B2094750D56BAAF9469C,阳光华庭,良村开发区岗上镇富强大街,114.699669,38.045387,0311,住宅区,0,0,小区
B2094750D56BAAF4429D,东湖湾,东二环与学苑路交叉口东南角,114.58251,38.012225,0311,住宅区,0,0,小区
B2094750D564A7F54299,东上金地,开发区石家庄经济技术开发区岗上桥头直行200米路东,114.696665,38.045658,0311,住宅区,0,0,小区
B2094753DA6EA5F94693,学苑路69号,学苑路与昆仑大街西北角,114.61916,38.014186,0311,住宅区,0,0,小区
B2094750D569ABFB459D,东城国际广场,天山大街与淮河路交叉口西北角,114.60754,38.041391,0311,住宅区,3,2,小区
B2094750D569AAF4489D,新城,开发区太行大街与和平路交叉口北行800米,114.635454,38.048336,0311,住宅区,0,0,小区
B2094753DA6EA3F5489D,天山阳光印象,天山大街与槐南路交口,114.607701,38.024481,0311,住宅区,0,0,小区
B2094753DA6EA2FC409B,金石公寓,黄河大道141号,114.616113,38.046469,0311,住宅区,0,0,小区
B2094753DA6EA2FC409D,卓达星辰银座,长江大道158号,114.63212,38.037124,0311,住宅区,0,0,小区
B2094753DA6EA2FC449A,岗上新村,开发区外国语职业学院西侧,114.685013,38.046021,0311,住宅区,0,0,小区
B2094753DA6EA2FC459F,凝瑞苑,东三环炼油厂生活区三环入口处,114.678597,37.994945,0311,住宅区,0,0,小区
B2094753DA6EA2FD4692,美新公寓,和平路619号与秦岭大街交叉口,114.628301,38.048581,0311,住宅区,0,0,小区
B2094753DA6EA2F8459B,湘江花苑,裕华区湘江道150号,114.628311,38.0318,0311,住宅区,0,0,小区
B2094753DA6EA2F84792,天瑞福地,星辰广场东南方向,114.652033,38.034538,0311,住宅区,0,0,小区
B2094753DA6EA2F9409A,三环新城,岗邱路与石炼北路交口,114.684734,38.011481,0311,住宅区,0,0,小区
B2094753DA6EA2F9409C,东城郦景,区东三环高架桥西侧,114.67113,38.053346,0311,住宅区,0,0,小区
B2094753DA6EA2F9419C,博仕名筑,天山大街199号,114.609461,38.025698,0311,住宅区,0,0,小区
B2094753DA6EA2F94393,大有东苑,炼北路与岗邱路交口,114.678233,38.033743,0311,住宅区,0,0,小区
B2094753DA6EA2F9469C,天山水榭花都,珠峰大街218号,114.602337,38.026433,0311,住宅区,3,3,小区
B2094753DA6EA2F94992,丽景沁园,良村岗上村,114.645875,38.047348,0311,住宅区,1,0,小区
B2094753DA6EA2FA429B,香槟小郡,珠江大道与秦岭大街交口,114.609375,38.024701,0311,住宅区,0,0,小区
B2094753DA6EA2FB419D,康乐公寓,杨子路西头路北,114.690485,38.046672,0311,住宅区,0,0,小区
B2094753DA6EA2FB4793,旭丰惬意空间,扬子路6号,114.680378,38.028538,0311,住宅区,0,0,小区
B2094753DA6EA2F44599,春龙大厦,长江大道13号,114.605545,38.037943,0311,住宅区,0,0,小区
B2094753DA6EA2F4489A,卓达星河国际,长江大道158号,114.623408,38.03834,0311,住宅区,0,0,小区
B2094753DA6EA2F44993,水榭花都别墅,珠峰大街与槐安路交叉口,114.594548,38.023873,0311,住宅区,12,4,小区
B2094753DA6EA2F5439F,弘达眀尚,槐安路与京珠高速交叉口,114.594054,38.022571,0311,住宅区,0,0,小区
B2094753DA6EA1FE4598,炼油厂一区,邱头镇邱头村,114.66774,37.983547,0311,住宅区,0,0,小区
B2094753DA6EA1FE4992,卓达星辰一号,长江大道158号,114.655166,38.038222,0311,住宅区,1,0,小区
B2094753DA6EA1F8419E,润达小区,石炼佳园院内,114.687653,37.990751,0311,住宅区,0,0,小区
B2094753DA6EA1F8419D,百合大厦,开发区黄河大道与天山大街交叉口北行100米路东,114.608528,38.048507,0311,住宅区,0,0,小区
B2094753DA6EA1F8429A,怡景园,万泉道与秦岭大街交口,114.630114,38.017212,0311,住宅区,0,0,小区
B2094753DA6EA1F84299,好家园,东北部湘江道169号,114.633086,38.034555,0311,住宅区,0,0,小区
B2094750D56BA1FC4998,想象国际,珠峰大街与珠江大道交口东北角,114.604847,38.024566,0311,住宅区,2,3,小区
B2094750D56BA7FA419B,柠檬郡,中山东路与天山大街交叉口北行1000米(路西),114.607186,38.045354,0311,住宅区,1,1,小区
B2094750D56BA7FA4499,珠峰国际花园三期,珠峰大街与湘江道交叉口南行100米路西,114.599934,38.030177,0311,住宅区,1,0,小区
B2094750D56BA6F44199,辰溪苑,天山大街与南二环东沿线交口西南,114.60892,38.006037,0311,住宅区,0,0,小区
B2094750D56BABF94892,德隆品苑,创业路(湘江道)与开发大街交叉口南行100米,114.684026,38.034124,0311,住宅区,0,0,小区
B2094750D564A3FF4492,弘达明尚,槐安路与东二环交口东1000米路南,114.594054,38.022571,0311,住宅区,0,0,小区
B2094750D564A1F8449E,旭东花园,段高路与昆仑大街交口东北角,114.628773,37.969102,0311,住宅区,0,0,小区
B2094750D564A0FA499E,长江道壹号,开发区长江大道(裕华路东延线)第一排,114.647141,38.037276,0311,住宅区,1,1,小区
B2094750D564A0F4469C,IPC南村湾,南村镇,114.644394,38.0635,0311,住宅区,1,0,小区
B2094750D564A7FB4393,凡尔赛私邸,凡尔赛私邸位于石家庄高新技术开发区，紧邻石家庄城市轴线槐安路,114.609504,38.023315,0311,住宅区,0,0,小区
B2094750D564A5FF4592,雍雅锦江,开发区天山大街和学苑路交叉口的东北角,114.609715,38.014198,0311,住宅区,0,0,小区
B2094750D564A5F54493,紫睿天和,槐安东路与东二环交口东行1000米路北,114.59959,38.02585,0311,住宅区,0,0,小区
B2094750D564A5F8449E,新都汇,黄河大道与珠峰大街交叉口东行100米路北,114.602584,38.044754,0311,住宅区,0,0,小区
B2094656D364A1FF469D,四明花园,四明南街058,114.84772,38.02441,0311,住宅区,263,88,小区
B2094656D365A1FD419A,龙湾·帝景,,114.85768,38.01618,0311,住宅区,368,203,小区
B2094656D365A0F4479A,盛业花园,,114.85888,38.02503,0311,住宅区,59,10,小区
B2094656D365A4FC479E,天瑞嘉园,,114.85131,38.02568,0311,住宅区,6,1,小区
B2094656D364A2F44998,世纪花园(市府西路),,114.8464,38.03592,0311,住宅区,69,33,小区
B2094757DB68A2FA459C,广泰花园,广泰花园,114.8569686,38.024149,0311,住宅区,26,12,小区
B2094656D365A7FE479B,府东园,,114.84822,38.02289,0311,住宅区,15,5,小区
B2094656D364A2FD4993,中天小区,,114.83802,38.03137,0311,住宅区,25,12,小区
B2094656D364A1FC419E,福欣,,114.83094,38.02114,0311,住宅区,24,10,小区
B2094656D364A1FD479C,建行生活小区,,114.84275,38.02044,0311,住宅区,23,12,小区
B2094656D364A1FF479F,四明建鹏小区,,114.84774,38.02356,0311,住宅区,4,0,小区
B2094750D56AA6FC419F,大有容园,藁城市站南街与廉州路交口南行100米,114.85398,38.020526,0311,住宅区,10,2,小区
B2094753DA6EA2FE4498,雅筑2008,石炼生活二区附近,114.846954,38.016181,0311,住宅区,0,0,小区
B2094750D569AAFE4398,旭丰惬意空间,良村经济技术开发区扬子路6号,114.847543,38.021726,0311,住宅区,0,0,小区
B2094750D569AAF84398,三环明珠,其他区蒿城市岗邱路与石炼北路交口东南角,114.847073,38.021676,0311,住宅区,0,0,小区
B2094750D569AAF9499A,国大御温泉渡假小镇,近郊藁城市藁新路6号,114.778162,38.030741,0311,住宅区,3,2,小区
B2094750D56BA0FB469A,御汤墅国粹,307国道东三环东行六公里路北(石家庄藁城市藁新路8号),114.766874,38.035505,0311,住宅区,0,0,小区
B2094750D56BABFE419B,龙华苑,藁城市四明街与育才路交口南侧(原西刘村),114.848285,38.01444,0311,住宅区,0,0,小区
B2094656D365A6FD419C,府东小区,,114.84825,38.02233,0311,住宅区,20,3,小区
B2094656D364A2FF4693,校南第四安全小区,,114.8566,38.03188,0311,住宅区,45,17,小区
B2094656D364A1FD479A,丰园小区,通安街201,114.84288,38.01899,0311,住宅区,39,16,小区
B2094656D368A0FA489B,银山花园,鹿泉市向阳北大亍,114.31385,38.091297,0311,住宅区,363,146,小区
B2094656D368A0FB439F,小区(海山大街),,114.3285,38.08739,0311,住宅区,106,14,小区
B2094656D06CA3FD499E,西简良小区,石获南路与西二环北路交叉口,114.40858,38.06182,0311,住宅区,206,60,小区
B2094757D56FABFD459E,石家庄长兴大学生公寓,中国河北省石家庄市区,114.40935845,38.04856391,0311,住宅区,798,371,小区
B2094750D36FA2FC4599,奇石花园,新开路与向阳大街交叉口，东行200米,114.323265,38.09383,0311,住宅区,18,8,小区
B2094757D56EAAF54999,朗润园,中山西路,114.32380724,38.08858941,0311,住宅区,11,1,小区
B2094757D56FA1FD4798,水域南岸天马新庭院(北门),中国河北省石家庄市区,114.4098641,38.09309163,0311,住宅区,31,20,小区
B2094757D56FA1FB489F,馨香苑,中国河北省石家庄市区,114.39806668,38.08932237,0311,住宅区,37,22,小区
B2094757D56FA6F9489B,阳光小郡,中国河北省石家庄市区,114.40952148,38.06186225,0311,住宅区,107,48,小区
B2094757D56FA5FF4099,岳泰明珠,中国河北省石家庄市区,114.4004628,38.08512167,0311,住宅区,112,36,小区
B2094757D56FA0F5499F,康庄小区,中国河北省石家庄市区,114.3895969,38.07911675,0311,住宅区,79,37,小区
B2094757D56FA3FC409E,秀水·归墅,植物园路与石太高速交叉口南行100米(植物园南侧、秀水公园西门),114.3834689,38.08958,0311,住宅区,18,7,小区
B2094757D56FA1FF4492,瑞泰澜庭(东北门),中国河北省鹿泉市,114.37139242,38.071604,0311,住宅区,98,8,小区
B2094757D56FA2FF459D,鑫泽苑,建东街15,114.42053087,38.05832004,0311,住宅区,344,150,小区
B2094656D06CA1FF479D,南郭小区,中山西路与长兴街交叉口,114.40878,38.05203,0311,住宅区,61,38,小区
B2094656D06CA2FD4398,君苑小区,中山西路777路,114.41428,38.04875,0311,住宅区,229,119,小区
B2094757D56FA2F4479B,水域南岸天马新庭院,中国河北省石家庄市区,114.40926975,38.09310764,0311,住宅区,53,32,小区
B2094757D56FA5F8489E,四季凤凰城,植物园西侧800米,114.346149,38.09561,0311,住宅区,16,5,小区
B2094757D56FA4FE459D,林溪小镇,植物园北侧,114.3787028,38.11196018,0311,住宅区,15,6,小区
B2094750DA6BAAFD449E,西山别墅,,114.318962,38.08712,0311,住宅区,0,0,小区
B2094751DA64A3FD4393,朝阳小区,河北省鹿泉市,114.315865,38.088527,0311,住宅区,1,0,小区
B2094757D56FA3FB4693,孔寨小区,中国河北省石家庄市区,114.39819,38.059097,0311,住宅区,62,27,小区
B2094750D569A6FE4692,水印城,和平西路518号(植物园街与和平路交口),114.411964,38.078906,0311,住宅区,65,18,小区
B2094750D569AAFE449A,安联星朗,其他区鹿泉中山路西联合大学城,114.310935,38.082809,0311,住宅区,4,2,小区
B2094750D569AAFE4499,龙海南苑,鹿泉新华西路与海山大街交口西100米路北,114.3119,38.083795,0311,住宅区,3,0,小区
B2094757D56EAAF4489D,馨香苑(东门),中国河北省石家庄市区,114.39839084,38.08931559,0311,住宅区,0,0,小区
B209475DD768A1FD419F,君悦国际,和平路与西二环交口西行1千米路北,114.42046179,38.06998518,0311,住宅区,0,0,小区
B209475DD768A6F4469A,香橼墅,石家庄市植物园西行1000米,114.355488,38.102144,0311,住宅区,0,0,小区
B209475DD768ABFC4899,国源和天下,新华区和平路西延线与植物园街交叉口北行500米路西,114.40569924,38.08708066,0311,住宅区,1,1,小区
B2094753D26DA2FA429C,良兴美嘉城,桥西区新华路与建东街交口北行300米,114.41338233961,38.05418089788,0311,住宅区,0,0,小区
B2094750DB6EAAFD429F,西部峰景,新华路与向阳大街交叉口北行150米路西,114.316392,38.081576,0311,住宅区,3,2,小区
B2094753DA6FA2FB429D,南郭花园,长兴街18号,114.405141,38.052113,0311,住宅区,7,6,小区
B2094753DA6FA2FB459B,南简良小区,新华路与西二环交叉口,114.418874,38.055931,0311,住宅区,1,1,小区
B2094753DA6FA2FB499A,南郭新城,新华路车管所东行100米,114.393959,38.067951,0311,住宅区,0,0,小区
B2094752D56CABF9499D,幸福城,石家庄市桥西区车管一所对面,114.397159,38.063534,0311,住宅区,6,4,小区
B2094752D56CABF54492,太行轩圃,槐安路山前大道南五峰山下,114.307723,38.089479,0311,住宅区,0,0,小区
B2094750D569A6FE479D,秀水名邸,植物园路与石太高速交叉口南行100米,114.387159,38.089445,0311,住宅区,0,0,小区
B2094750D569AAFC429B,龙泉花园(三期),鹿泉槐安路与获铜路交口南500米,114.311394,38.08366,0311,住宅区,0,0,小区
B2094750D569AAFC4299,大湖之翼,其它区蟠龙湖旅游区南岸坝口前行6千米,114.310692,38.082447,0311,住宅区,0,0,小区
B2094750D56BA7F54898,天铭怡港,鹿泉市石家庄理工职业学院东门西行50米(25路终点站对面),114.331326,38.087148,0311,住宅区,0,0,小区
B2094750D564A7F4439C,福麟苑,鹿泉市北斗路与翠屏大街交叉口北行200米路西,114.306564,38.089006,0311,住宅区,0,0,小区
B2094750D564A6FD499E,百岛绿城,植物园路与石环北路交叉口东南侧,114.389348,38.090391,0311,住宅区,19,9,小区
B2094750D564A5FF4893,华普城,桥西新华路车管所西行300米路南,114.408531,38.05708,0311,住宅区,1,0,小区
B2094750D564ABF94493,棕榈湾,鹿泉市新华路与西三环交汇处往西500米路南,114.360741,38.07896,0311,住宅区,3,2,小区
B2094757D56EAAF94598,园丁小区(鹿泉市地址矿产局居民小区西北),中国河北省鹿泉市,114.31291965,38.09699165,0311,住宅区,13,9,小区
B2094757D56FA7F4439B,园丁小区(南门)(鹿泉市地址矿产局居民小区西北),中国河北省鹿泉市,114.31293783,38.0968297,0311,住宅区,0,0,小区
B2094757D56FABFD4398,鹿泉市地质矿产局居民小区(北门),中国河北省鹿泉市,114.31305718,38.09654948,0311,住宅区,3,2,小区
B2094750D569ABFF439F,良兴嘉园,新华路与建东街交叉口北行200米,114.415569,38.055255,0311,住宅区,0,0,小区
B2094750D569ABFF449F,上城水岸,杜北乡上京村毗卢寺对过,114.418831,38.061608,0311,住宅区,0,0,小区
B2094750D569ABF5459A,奥克兰风情小镇,槐安路西行至山前大道北行3公里,114.310881,38.083726,0311,住宅区,3,3,小区
B2094750D569AAFC449B,帝华南苑,其他区鹿泉新华路与海山大街交口西100米路北,114.311096,38.082945,0311,住宅区,0,1,小区
B2094750D569AAFC4593,西环青年汇,其它区域石家庄西三环与新华路西沿线交口西北处,114.408016,38.058099,0311,住宅区,0,0,小区
B2094750D569AAFE439E,名仕苑,其他区鹿泉北斗路中段建行对面,114.311849,38.083919,0311,住宅区,0,0,小区
B2094750D569AAF8409B,弗莱明戈,鹿泉槐安西路与山前旅游大道交汇处北行200米,114.310456,38.083848,0311,住宅区,0,0,小区
B2094750D569AAF94892,碧水阳光,新华区植物园路与北二环西沿线交叉口处的大马村,114.399858,38.079368,0311,住宅区,0,0,小区
B2094750D569AAFB429E,神奇庭院,新华路与西三环交汇处,114.381065,38.068501,0311,住宅区,0,0,小区
B2094750D56AA6FA4799,景祥苑,桥西区新华西路车管所东侧,114.402759,38.059775,0311,住宅区,0,0,小区
B2094750D56BA2FB459F,嘉宇枫尚,和平路与植物园路交叉口北行800米路北大马村,114.40557,38.088499,0311,住宅区,0,0,小区
B2094750D56BA5FF499A,良城逸园,新华西路与长兴街交口北行300米路西,114.407845,38.058837,0311,住宅区,4,2,小区
B2094750D564A6FB4899,竹境,石获南路与长兴街交口西南角,114.408317,38.057013,0311,住宅区,1,1,小区
B2094750DB6EAAFD4199,石桥润泽园,市车管一所斜对面石获南路路北,114.398575,38.062554,0311,住宅区,3,2,小区
B2094753DA6EA3F5449B,城东小区,鹿泉市海山大街与镇宁路交叉口,114.31577,38.087689,0311,住宅区,1,0,小区
B2094753DA6EA2FC4592,奥斯卡纳,石获北路与西三环交叉口,114.375787,38.102245,0311,住宅区,0,0,小区
B2094753DA6EA2FC489D,水玲珑,庄院路259号,114.322743,38.082318,0311,住宅区,0,0,小区
B2094753DA6EA2FD4392,南简良东区,建东街7号,114.414765,38.060763,0311,住宅区,0,0,小区
B2094753DA6EA2FE439A,康达花园,康庄旧村,114.387674,38.080494,0311,住宅区,0,0,小区
B2094753DA6EA2FE469C,康馨花苑,和平西路康庄村北,114.387116,38.093194,0311,住宅区,4,3,小区
B2094753DA6EA2F84098,岳村新村,植物园南侧,114.325147,38.093988,0311,住宅区,5,2,小区
B2094753DA6EA2F84892,龙海花园,海山大街与平路交叉口,114.325018,38.086355,0311,住宅区,1,1,小区
B2094753DA6EA2F94493,银泉花园,鹿泉市原动物园南行1000米,114.412093,38.042295,0311,住宅区,0,0,小区
B2094753DA6EA2FA4593,月容和庄,植物园西侧,114.375787,38.102043,0311,住宅区,1,0,小区
B2094753DA6EA2F4429B,欧特花园,和平西路与西外环交叉口,114.3857,38.075342,0311,住宅区,0,0,小区
B2094753DA6EA1FE4298,原乡,石家庄植物园南侧,114.382643,38.09723,0311,住宅区,0,0,小区
B2094753DA6EA1FE449A,岳村花园,植物园路岳村,114.39394,38.097787,0311,住宅区,4,0,小区
B2094753DA6EA1FE4493,华西新村,西二环与新华路交口,114.413252,38.047077,0311,住宅区,0,0,小区
B2094753DA69A7FC4599,水域南岸,和平西路第四空军学院附近,114.398704,38.095356,0311,住宅区,0,0,小区
B2094757D56FA1FD489D,凌透花园(西门),中国河北省石家庄市区,114.59957275,38.07698676,0311,住宅区,3,0,小区
B2094757D56FA5FD499D,凌透花园,中国河北省石家庄市区,114.600102,38.07722792,0311,住宅区,58,23,小区
B2094751DB6FA3FE4893,啤酒花园(体育场店),长安区裕彤体育场,114.58622,38.07054,0311,住宅区,1,0,小区
B2094656D365A3FE449F,东方怡园,西兆通,114.60796,38.074837,0311,住宅区,4,0,小区
B209475DD768A4FD419D,紫林湾,石津路和石兆街交叉口的东北角,114.601135,38.060662,0311,住宅区,0,0,小区
B209475DD768ABFE4093,长瑞上城,长安区和平路与东二环交口东行1500米路南,114.598045,38.053228,0311,住宅区,0,0,小区
B2094750D564A3FD489E,香水湾,正定新区滹沱河南岸西兆通镇石丰路与石兆街交叉口西北角,114.613366,38.075832,0311,住宅区,19,10,小区
B2094750D564A3FF4892,晨馨花园,藁城南董镇,114.774513,38.102684,0311,住宅区,0,0,小区
B2094753DA6EA2FF4193,桃园名居,南村镇侯帐村,114.664843,38.09061,0311,住宅区,0,0,小区
B2094753DA6EA2FF4792,店上翠城,西兆通镇店上村,114.614503,38.092282,0311,住宅区,1,0,小区
B2094753DA6EA2F8489A,外贸食品宿舍,和平路555号,114.600953,38.055526,0311,住宅区,0,0,小区
B2094752D56CA6FB4793,众和嘉苑,和平路与东二环交叉口东行800米路南,114.597788,38.053059,0311,住宅区,0,0,小区
B2094752D56CA4F84799,紫苑二期,石家庄开发区学院路以东宋营镇韩通村,114.632034,38.016993,0311,住宅区,0,0,小区
B2094752D56CA4F9479D,石家庄主语城,开发区太行大街与学苑路交口西南角,114.63933,38.013409,0311,住宅区,2,1,小区
B2094752D56CA4FB4998,安联生态城,长安区东二环与北二环交汇处东侧,114.582939,38.066744,0311,住宅区,0,0,小区
B2094750D569A0F8469C,怡景苑,滹沱河南岸西兆通镇,114.598045,38.074987,0311,住宅区,0,0,小区
B2094750D56BA0F9499E,枫林小镇,和平路与石兆街交口北行500米路西,114.598929,38.061811,0311,住宅区,0,0,小区
B2094750D56BA7F5439C,新南家园,太行大街与和平路交叉口北行800米路东,114.638804,38.047084,0311,住宅区,2,2,小区
B2094750D56BA6FE479F,天山熙湖小区,昆仑大街与湘江道交口东南角,114.620622,38.032391,0311,住宅区,2,2,小区
B2094750D56BA4F84293,东城国际商务中心,东开发区天山大街与黄河大道交汇处西南角,114.607186,38.043833,0311,住宅区,2,1,小区
B2094750D564A1F9409F,河北大厦,天山大街与黄河大道交汇处沿黄河大道东行100米路北,114.610748,38.045725,0311,住宅区,0,0,小区
B2094750D564A1F54393,馨悦小镇,长安区东北二环交叉口紧邻二环,114.582596,38.06742,0311,住宅区,0,0,小区
B2094750D564A0FA439A,国风,长安区和平路与东二环交口东行1500米路北,114.606683,38.055303,0311,住宅区,0,0,小区
B2094750D564A0FB459A,日中天创新科技园,天山大街与建华东路交口东南角,114.608688,38.050795,0311,住宅区,0,0,小区
B2094656D369A6FB419E,联邦名都,裕华西路166,114.48132,38.03363,0311,住宅区,1018,412,小区
B2094656D364ABFD459F,东岗怡园(建设南大街),槐安东路96,114.51494,38.02137,0311,住宅区,1276,539,小区
B2094656D06CA2FB499B,尹泰花园,红旗大街与南二环交叉口南行二站地,114.46607,37.99098,0311,住宅区,1269,595,小区
B2094656D365A2F9469C,众美·凤凰城,长安区和平路和广安大街交叉口北侧,114.549997,37.998983,0311,住宅区,2899,1355,小区
B2094656D364A4FA419A,春江花月(新石中路),石家庄市桥西区新石中路166号,114.46872813607216,38.01329858542535,0311,住宅区,2593,980,小区
B2094656D06CA3F8489D,盛世天骄,石家庄胜利北大街和光华路交汇处,114.45971,38.04882,0311,住宅区,2313,1080,小区
B2094656D365A7FA409B,世纪花园(东岗路),东岗路75,114.53995,38.01592,0311,住宅区,1230,653,小区
B2094656D06CA3F84593,绿家小区,建通街与南二环交叉口南行200米,114.50311,37.993729,0311,住宅区,345,150,小区
B2094757D56EAAF54292,开元先天下,育才街58号,114.52642443,38.04110379,0311,住宅区,172,60,小区
B2094656D369A7FE4492,华夏家园,桥东区东风路,114.49747,38.02315,0311,住宅区,649,283,小区
B2094656D06CA3FD4799,中央悦城,中山路与大经街交叉口西行100米路南,114.5274,38.03003,0311,住宅区,420,190,小区
B2094656D365ABF84292,金裕花园,石家庄桥西区南长街,114.48318,38.03732,0311,住宅区,273,128,小区
B2094757D56FA1F4419A,河北医大二院,中国河北省石家庄市区中华北大街,114.47804091,38.05879829,0311,住宅区,254,58,小区
B2094656D365A4F44692,富强电力小区(富强大街),富强大街149号,114.52369,38.01943,0311,住宅区,187,53,小区
B2094656D365ABF8429E,金正缔景城,石家庄市桥西区工农路255号,114.4741946938658,38.032977394306,0311,住宅区,4274,1477,小区
B2094656D368AAFA479B,万信城市花园,石家庄北城路35号,114.4584,38.07356,0311,住宅区,951,400,小区
B2094656D365A2FF4293,名门华都,长安区和平路和广安大街交叉口北侧,114.5221,38.05439,0311,住宅区,664,364,小区
B2094656D36AA5F4439E,博雅庄园,光华路9号,114.50729,38.05915,0311,住宅区,824,253,小区
B2094656D06CA3FE4398,留营华苑,开泰街20号,114.43232,38.05715,0311,住宅区,964,378,小区
B2094757D56FA5FD499B,汇景家园·棉二生活区,谈南路2,114.51922987,38.04632894,0311,住宅区,635,213,小区
B2094656D365A4FA409E,自由港公寓,和平东路20号,114.49837,38.05344,0311,住宅区,483,176,小区
B2094757D069AAFA4799,一茶一座(先天下店),石家庄中山东路326号北国先天下购物广场三楼,114.52704161,38.042135703,0311,住宅区,114,48,小区
B2094656D365A4FA429F,省直玉成小区,城角街726,114.44375,38.01361,0311,住宅区,556,240,小区
B2094656D364A4FF4393,河北省委宿舍(师范街),师范街47,114.46693,38.03658,0311,住宅区,352,142,小区
B2094656D364ABF54799,君晓家园,槐安路二环交叉口往西(仓安综合市场对面),114.43072,38.02478,0311,住宅区,843,299,小区
B2094656D369A1FF4692,西里小区(裕华西路),裕华西路118,114.45563,38.0343,0311,住宅区,764,320,小区
B2094656D365ABF84993,碧水青园,长安区和平路和广安大街交叉口北侧,114.51727,38.01521,0311,住宅区,506,273,小区
B2094757D168A5F8459E,燕港新村,河北省石家庄市育才街328号,114.52634806,38.013122143,0311,住宅区,744,392,小区
B2094656D06CA1FE499E,青园小区,富强大街150号,114.51812,38.01666,0311,住宅区,848,416,小区
B2094656D364A4FD439E,中国电子科技集团公司第五十四研究所生活区(中山西路),中山西路491号,114.44764,38.04282,0311,住宅区,953,348,小区
B2094656D364AAFD4792,北苑别墅(变电街),变电街16,114.44076,38.06927,0311,住宅区,1248,642,小区
B2094656D365A5F44892,海天·阳光园,翟营大街458,114.55519,37.99703,0311,住宅区,582,183,小区
B2094656D365A4F4449F,顺美华庭(城角街),桥西区槐安西路与城角街交叉口,114.44322,38.02316,0311,住宅区,1141,538,小区
B2094757D16EA1FA4699,万隆国际,裕华东路和育才街交汇处西南,114.525767764,38.0349287369,0311,住宅区,513,257,小区
B2094656D368A4FE459E,御景园,光华路7号,114.50457,38.06001,0311,住宅区,441,197,小区
B2094656D36AA3F54193,西焦城市花园,新华路591,114.45429,38.04895,0311,住宅区,472,201,小区
B2094656D365AAF44692,联盟小区,联盟路与友谊大街交叉口,114.44958,38.07564,0311,住宅区,491,229,小区
B2094656D365A0F4439F,棉七生活区,桥东裕华路,114.49801,38.03422,0311,住宅区,243,57,小区
B2094656D06CA2F9499A,滨河新城,滨河街8号！,114.46977,37.99967,0311,住宅区,231,64,小区
B2094656D06CA2F44392,旭城花园,南二环与滨河街交叉口,114.46907,38.00331,0311,住宅区,337,103,小区
B2094656D368ABF5409D,中华绿园,红军大街69,114.47433,38.06695,0311,住宅区,432,151,小区
B2094656D365A0FE4899,中国电子科技集团公司第五十四研究所生活区(侧门),,114.44415,38.04864,0311,住宅区,339,180,小区
B2094656D365A0F54193,河北省公安厅(西)生活区,友谊北大街48,114.45105,38.04447,0311,住宅区,403,71,小区
B2094656D06CA3F9419D,财富商业中心,石家庄广安大街24号,114.52158,38.05146,0311,住宅区,68,15,小区
B2094656D364A4F94492,十三所生活区(新合街),新合街106,114.45574,38.05303,0311,住宅区,98,28,小区
B2094656D365A5FA429F,泰华园东区,泰华街与朝阳路交叉口,114.46037,38.06873,0311,住宅区,427,198,小区
B2094656D06CA3FF419E,碧水蓝湾,西三环与南二环西延线交叉口,114.4359,38.00626,0311,住宅区,124,42,小区
B2094656D06CA3F94792,开泰小区,保龙仓北行300米,114.42553,38.06065,0311,住宅区,465,311,小区
B2094656D06CA3F94798,君苑花园,,114.41841,38.0478,0311,住宅区,434,197,小区
B2094656D36BABFD409D,核四院生活小区(兴苑街),兴苑街66,114.53633,38.02387,0311,住宅区,184,86,小区
B2094656D06CA3F9409D,阳光新城,建华大街南头交南二环外,114.55248,37.9853,0311,住宅区,112,57,小区
B2094656D365A5FE4099,滨河小区颐宁苑(滨河街),新石中路168,114.46466,38.01232,0311,住宅区,150,41,小区
B2094656D365A5FF439C,北苑小区(变电街),变电街19,114.44126,38.0696,0311,住宅区,130,55,小区
B2094656D364ABFE429D,平安生活小区南区,建胜路平安南大街交口,114.5064,38.01754,0311,住宅区,177,62,小区
B2094656D365A5FD4593,方北新村(体育南大街),,114.5337,38.03361,0311,住宅区,442,159,小区
B2094656D364ABF9489E,旭景琴园(建通街),建通街16号,114.50525,38.0107,0311,住宅区,176,63,小区
B2094656D06CA3FF469B,风尚水郡,石家庄胜利北大街和光华路交汇处,114.54835,38.0014,0311,住宅区,132,52,小区
B2094757D56FA4FD429C,北杜花园(西门),中国河北省石家庄市区时光街,114.42862386,38.02786268,0311,住宅区,180,86,小区
B2094656D365A1F44993,滨湖小区(滨华路),滨华路9,114.46641,38.06932,0311,住宅区,167,65,小区
B2094656D365A4F4479D,北苑别墅(西门),西二环北路299,114.43767,38.06964,0311,住宅区,101,37,小区
B2094656D365A4F4499E,合作小区北区(国泰街),,114.4398,38.06018,0311,住宅区,102,20,小区
B2094656D365ABFC449C,盛邦华庭梅林园,维明街与新石南路交叉口北行50米,114.46926,38.00843,0311,住宅区,175,67,小区
B2094757D56FABF4459E,泊爱家园,石家庄胜利北大街和光华路交汇处,114.4381906,38.03161278,0311,住宅区,78,18,小区
B2094656D368AAF8479B,滨湖新村(泰华街),泰华街水上公园东门,114.46475,38.07455,0311,住宅区,290,131,小区
B2094656D365A5FB419F,华兴小区(东岗路),东岗路42,114.53761,38.01542,0311,住宅区,493,161,小区
B2094656D365ABF84392,棉一小区,建设北大街113,114.5139,38.05181,0311,住宅区,142,37,小区
B2094656D365A1F8479E,嘉实蓝岸,长安区和平路和广安大街交叉口北侧,114.54174,38.0331,0311,住宅区,382,141,小区
B2094656D368A5FB479E,卓达院士专家园,,114.4327,38.01682,0311,住宅区,274,74,小区
B2094757DA6EAAF9419D,璟郡小区,桥东区石家庄市公安局西邻,114.483285811742,38.0226627333738,0311,住宅区,236,116,小区
B2094656D364AAFB479C,棉二小区,,114.51837,38.04678,0311,住宅区,35,4,小区
B2094656D365A5FE499A,合作小区(广源路),广源路2,114.44171,38.05851,0311,住宅区,409,97,小区
B2094656D36BA7F4439D,阳光水岸,建设南大街168号,114.51103,38.0161,0311,住宅区,249,93,小区
B2094656D365A6F54498,青园小区(西1门),,114.52061,38.01885,0311,住宅区,109,11,小区
B2094656D365A4FB4398,联盟居住小区(友谊北大街),友谊北大街336,114.454,38.0774,0311,住宅区,65,13,小区
B2094656D36AA7F4479D,石家庄市交管局宿舍,汇华路10,114.49417,38.00909,0311,住宅区,45,12,小区
B2094656D36AA4FA499E,河北日报生活小区,青园街173,114.51831,38.03417,0311,住宅区,144,65,小区
B2094656D365A5FC459A,新石小区(新石中路),中华大街与新石中路交叉口,114.47614,38.01356,0311,住宅区,154,62,小区
B2094656D368ABFF409E,太行生活区,新华区和平西路221号太行宿舍,114.47977,38.06247,0311,住宅区,377,120,小区
B2094656D36AA6FF4398,仁和嘉园,槐安东路28,114.50492,38.02159,0311,住宅区,485,273,小区
B2094656D364A5F54192,冀兴花园(胜利北街),胜利北街141号,114.50366,38.06294,0311,住宅区,128,46,小区
B2094656D365A4F44199,钟强小区(钟旺路),,114.44814,38.06618,0311,住宅区,187,52,小区
B2094656D365ABF8449A,宁安小区,北荣街41号,114.48638,38.05153,0311,住宅区,244,58,小区
B2094656D06CA2FA479C,紫荆花园,,114.51177,37.97526,0311,住宅区,341,133,小区
B2094757D064A7F94092,燕都花园,石家庄市桥东区华新路65号,114.50910472,38.062223668,0311,住宅区,179,59,小区
B2094656D369A4FF4699,开达小区,工农路,114.46223,38.03134,0311,住宅区,185,72,小区
B2094656D365ABFC4092,铁路34宿舍,中华南大街与槐安路交叉口,114.4757,38.02759,0311,住宅区,152,49,小区
B2094757D56FA7FD439D,紫晶·天域一期,中国河北省石家庄市区胜利北街,114.50004367,38.05584093,0311,住宅区,271,97,小区
B2094656D36AA2FB439B,石铁三十一宿舍,宁安路291,114.46925,38.05666,0311,住宅区,61,18,小区
B2094656D364A4FB429F,平安万和园(北门),,114.49753,38.01758,0311,住宅区,126,49,小区
B2094757D66EA0FB4692,宏业花园,石家庄华新路30号,114.507302157,38.0617705644,0311,住宅区,278,119,小区
B2094656D369A0FE439B,建国小区,槐安西路257,114.44104,38.02472,0311,住宅区,82,14,小区
B2094656D36BA7FD4793,燕港怡园,东岗路28,114.52613,38.01532,0311,住宅区,106,53,小区
B2094656D365A4F9499D,湖畔佳苑,泰华街与北城路交叉口,114.4621,38.07407,0311,住宅区,120,57,小区
B2094656D365A4FB439D,建国小区南区(东门),槐安西路246,114.43997,38.02423,0311,住宅区,104,17,小区
B2094656D365A4F44793,环城花园生活东区(城角街),城角街669,114.44526,38.02069,0311,住宅区,222,80,小区
B2094656D365ABFD4693,宁安小区(南门),,114.48645,38.05093,0311,住宅区,15,1,小区
B2094656D369A1FE499F,西里新区(东门),西里街30,114.45522,38.03708,0311,住宅区,22,7,小区
B2094656D364AAFF409E,钟家庄(北区),,114.45182,38.06776,0311,住宅区,118,48,小区
B2094656D365ABFF4992,胜利小区明珠园,塔南路,114.49277,38.01209,0311,住宅区,54,7,小区
B2094656D365ABFC409B,中华绿园(东门),中华北大街186,114.47705,38.0661,0311,住宅区,17,5,小区
B2094656D365A2F4429A,省艺校宿舍,,114.51806,38.03665,0311,住宅区,79,26,小区
B2094656D36AA4F94692,省广播电视局宿舍,青园街150,114.51666,38.03777,0311,住宅区,145,36,小区
B2094656D365ABFC4099,和平庄园,和平路与西三庄街交叉口,114.44623,38.063187,0311,住宅区,41,6,小区
B2094656D365ABFE4093,石府公寓(南门),,114.50856,38.02838,0311,住宅区,17,4,小区
B2094757D56FA6FE499C,海龙城市之光,槐安路交南长街,114.4813889,38.02319119,0311,住宅区,117,76,小区
B2094757D16AA6FB419C,石府公寓,石家庄桥东区槐中路97号,114.50940308,38.028029472,0311,住宅区,20,6,小区
B2094656D365A3FB4798,蓝钻名座,北大街19号,114.48749,38.04837,0311,住宅区,16,2,小区
B2094656D364AAF9489C,经编厂宿舍(育才街),育才街与东岗路交叉口,114.52908,38.0168,0311,住宅区,32,6,小区
B2094656D368ABFF469B,鹏远公寓,北新街60号,114.48538,38.05854,0311,住宅区,128,56,小区
B2094656D365ABFE4992,博雅庄园(南门),,114.50737,38.05873,0311,住宅区,14,3,小区
B2094656D365A4F5499E,长安花苑(北门),,114.51096,38.05035,0311,住宅区,8,2,小区
B2094656D365A4FA4098,石家庄市第五医院住宅小区,,114.51074,38.00503,0311,住宅区,13,3,小区
B2094656D365A7FD4998,石家庄电业局职工宿舍(水源街),新华路409,114.46599,38.04818,0311,住宅区,10,1,小区
B2094656D369AAF5479A,铁路十六宿舍,宁安路91,114.48116,38.05471,0311,住宅区,49,17,小区
B2094656D36AABF84893,疾控中心生活小区,东风路222,114.52003,38.02366,0311,住宅区,117,45,小区
B2094656D365A4FA419E,平安小区碧海园,建胜路14号,114.50476,38.01947,0311,住宅区,28,4,小区
B2094656D365A1FE459D,泰安小区,维明街与新华路交叉口北行50米,114.46686,38.04946,0311,住宅区,84,14,小区
B2094656D365A3FC4693,华潍公寓,工农路214号,114.47178,38.03207,0311,住宅区,42,15,小区
B2094656D364A2FC469B,银宏花苑,园明路29,114.50643,38.0491,0311,住宅区,31,12,小区
B2094656D36AABFE479E,华脉新村,槐中中路116号,114.51681,38.02785,0311,住宅区,93,45,小区
B2094656D36AA6FD499F,芳馨家园,金利街19,114.49842,38.01028,0311,住宅区,42,6,小区
B2094656D368A5FB469F,宝曼家园,建国路661号,114.43328,38.0307,0311,住宅区,99,15,小区
B2094656D06CA1FF429C,平安小区,建胜路12号,114.50943,38.01807,0311,住宅区,38,20,小区
B2094757D56FA0FD4993,汇景家园·棉二生活区(北门),谈南路2,114.51941189,38.04737033,0311,住宅区,27,8,小区
B2094656D369AAF54193,路苑小区,,114.48365,38.05427,0311,住宅区,207,47,小区
B2094757D56FA1FE499C,尹泰家园,中国河北省石家庄市区,114.46420166,37.98361084,0311,住宅区,73,22,小区
B2094656D365A6F5449B,香榭苑(普圆街),,114.49789,38.02136,0311,住宅区,275,165,小区
B2094656D365A0FC4893,警苑小区,槐安西路73号,114.46853,38.02721,0311,住宅区,49,18,小区
B2094656D36BA3FB409D,谈后小区,谈北路19,114.52027,38.05158,0311,住宅区,135,52,小区
B2094656D36AA0FC489A,滨河小区,红旗大街红滨路6号,114.46226,38.01626,0311,住宅区,48,12,小区
B2094656D368A5F4489D,旭华园,江新路1号,114.46658,38.00363,0311,住宅区,23,7,小区
B2094656D365A4F5489E,变电街家属院(变电街),变电街7,114.44197,38.06627,0311,住宅区,22,7,小区
B2094656D365A4FB4198,中铁小区(东门),工人街22,114.49983,38.0638,0311,住宅区,39,18,小区
B2094656D365ABFD429A,石家庄市交管局宿舍(北门),汇华路10,114.49404,38.00944,0311,住宅区,17,0,小区
B2094656D369A4FF4598,怡禾风景,,114.46134,38.03185,0311,住宅区,36,8,小区
B2094656D36BA4FA4892,金鹏花园,裕华东路114,114.54101,38.03497,0311,住宅区,49,6,小区
B2094656D36BA3F84098,康华园,青园街与健康路交叉口,114.51585,38.05156,0311,住宅区,38,13,小区
B2094656D36AA7F84793,水晶·郦城,新石中路36,114.48059,38.01306,0311,住宅区,62,27,小区
B2094656D36BA3F9469E,近水楼台,谈中街88,114.51876,38.05215,0311,住宅区,50,29,小区
B2094750DA6EA2FC469B,乐汇城85℃,桥东区中山东路,114.497215,38.044189,0311,住宅区,63,42,小区
B2094750D36FA2FC4493,南岭小区,,114.544624,37.98561,0311,住宅区,55,22,小区
B2094656D06CA2FA409B,泊爱蓝岛,石家庄工农路,114.43767,38.03156,0311,住宅区,770,403,小区
B2094656D06CA2F5439C,五星花园东区,,114.45947,38.00349,0311,住宅区,52,15,小区
B2094656D06CA2FD469C,尖岭小区,建华南大街126号,114.54124,38.02884,0311,住宅区,71,18,小区
B2094656D06CA2FC469D,龙岗小区,槐安路与时光街交叉口,114.42754,38.02134,0311,住宅区,16,2,小区
B2094656D364AAFF4292,广平小区(广平街),,114.47335,38.02329,0311,住宅区,127,19,小区
B2094656D365A2FD439B,交通银行宿舍,育丰巷2号,114.45432,38.01822,0311,住宅区,9,0,小区
B2094757D56EAAFB409B,旭城卧龙花园(东门),中国河北省石家庄市区,114.46876763,38.00238525,0311,住宅区,12,4,小区
B2094656D365A4FA489C,玉村小区(新石中路),新石中路369号,114.43894,38.01514,0311,住宅区,39,10,小区
B2094656D365A5FF4198,元南小区,建胜路19号,114.49958,38.02045,0311,住宅区,17,9,小区
B2094656D365A5FD439B,长丰苑,长丰路4号,114.4633,38.03775,0311,住宅区,30,14,小区
B2094656D365A6FC469F,美麟花园,公里街22号,114.4864,38.04878,0311,住宅区,15,6,小区
B2094656D365A2F54293,福源大厦,和平东路260-1,114.51371,38.05343,0311,住宅区,49,24,小区
B2094656D365A3FC499F,雅景园,工人街6,114.4966,38.05749,0311,住宅区,32,4,小区
B2094656D364ABFD4893,槐底新村生活小区(槐安东路),槐安东路112,114.52615,38.02094,0311,住宅区,58,2,小区
B2094656D369A4FF4698,红旗小区,红旗大街,114.46153,38.03114,0311,住宅区,199,122,小区
B2094656D369A6FA439F,东龙花园,南长街187,114.48364,38.02669,0311,住宅区,76,35,小区
B2094656D368AAF4409F,泰华园西区,电大街86,114.45709,38.06756,0311,住宅区,125,70,小区
B2094656D365A2F44799,钻石公寓(石滨巷),新石中路170,114.46279,38.01306,0311,住宅区,20,8,小区
B2094656D364A4FD4293,西焦住宅中区(友谊北大街),友谊北大街118,114.45163,38.0507,0311,住宅区,21,6,小区
B2094656D36BA3FD419A,远洋花园,栗康街与正东路交叉口,114.5084,38.04554,0311,住宅区,78,39,小区
B2094656D364A4FF439B,金鼎公寓2号楼,,114.47444,38.04216,0311,住宅区,43,11,小区
B2094750D26FA6FB469B,发源小区,中华南大街建国路2号,114.481216,38.02666,0311,住宅区,229,94,小区
B2094656D364ABFD469B,电业小区(育才街),育才街319,114.52916,38.01425,0311,住宅区,45,11,小区
B2094656D365A6FB429D,伴纵创业城,,114.48361,38.04633,0311,住宅区,51,31,小区
B2094656D365A3F84593,师范街166号院,,114.46592,38.02671,0311,住宅区,44,5,小区
B2094656D365A2F5459F,福清怡苑,长青路2,114.46042,38.03876,0311,住宅区,113,23,小区
B2094656D365A1FE409F,铁路三十二宿舍(永泰街),永泰街165,114.46846,38.05413,0311,住宅区,6,1,小区
B2094656D365A4F5439D,滨湖新村(西门),,114.46321,38.07419,0311,住宅区,101,44,小区
B2094656D365ABFC499F,交远家园(西门),靶场街25,114.44922,38.0458,0311,住宅区,22,7,小区
B2094656D365A2FB4492,河北省三院宿舍,,114.46722,38.0399,0311,住宅区,2,0,小区
B2094656D365A2FF4098,河北省外贸化工宿舍,变电街15,114.44163,38.068,0311,住宅区,16,7,小区
B2094656D365A2FD4292,河北省科学院宿舍,工农路565,114.4485,38.03199,0311,住宅区,31,11,小区
B2094656D365A3F54093,人行宿舍,裕华西路95,114.44602,38.03505,0311,住宅区,24,5,小区
B2094656D365A3F9479D,城市之光,,114.4832,38.02275,0311,住宅区,66,11,小区
B2094656D365A3FD4193,河北省人民银行宿舍(北合街),北合街2,114.46193,38.05466,0311,住宅区,27,9,小区
B2094656D365A3FC4393,中国银行宿舍,,114.53781,38.02547,0311,住宅区,7,2,小区
B2094757D065A3F9479E,省医院宿舍,石家庄泰华街249号,114.46864015,38.053638639,0311,住宅区,5,1,小区
B2094757D56FA6FA4992,夏朵,钦州市安洲大道(妇幼保健院斜对面),114.4604478,38.00168389,0311,住宅区,18,5,小区
B2094656D365A7FC4892,省直机关宿舍,,114.46911,38.04863,0311,住宅区,6,0,小区
B2094656D365A1FA4699,第十三研究所宿舍,合作路115,114.45435,38.05426,0311,住宅区,23,3,小区
B2094656D365A1FD419D,河北医科大学宿舍(新石南路),新石南路229号,114.45616,38.00881,0311,住宅区,151,62,小区
B2094656D365A3F94492,石药第一生活区,中山西路273,114.46075,38.04196,0311,住宅区,75,14,小区
B2094656D364AAFF4392,鼎嘉府邸(大经街),大经南街67,114.49768,38.04199,0311,住宅区,39,15,小区
B2094656D368A5F44898,都市晶华,南二环158号,114.46583,38.00373,0311,住宅区,19,5,小区
B2094656D368A5FB469C,裕西小区,裕华西路860号,114.42372,38.03335,0311,住宅区,26,13,小区
B2094757D56FA1F4469E,海悦天地,中国河北省石家庄市区裕华西路66号,114.47383950122344,38.03423127057672,0311,住宅区,3668,2567,小区
B2094757D56EAAFD4298,三宏公寓,南二环与红旗大街交叉口,114.46307,38.000942,0311,住宅区,86,35,小区
B2094656D36AA4F94199,府阳公寓,建设大街与范西路交叉口,114.51505,38.039768,0311,住宅区,10,2,小区
B2094656D06CA2F5459B,文苑小区,北城路,114.47402,38.07362,0311,住宅区,24,15,小区
B2094757D16EA6F94792,西苑小区,石家庄农科路,114.45039367,38.056926727,0311,住宅区,17,5,小区
B2094656D364ABFC4199,谈中园,谈南路39,114.52171,38.04778,0311,住宅区,174,76,小区
B2094757D56FA5FE409E,长城三宏别墅,汇宁街6号,114.46363471,38.00097765,0311,住宅区,121,62,小区
B2094656D365A4F5449E,合作小区西区(广源路),广源路5,114.43722,38.05894,0311,住宅区,170,61,小区
B2094656D36AA7F84792,嘉实·栖园,新石中路39号,114.48047,38.01398,0311,住宅区,183,55,小区
B2094656D365A1F94793,铁路三十二宿舍(宁安路),宁安路238,114.46833,38.05597,0311,住宅区,105,34,小区
B2094656D365A0FD419C,嘉实红人公馆,,114.47678,38.05452,0311,住宅区,291,131,小区
B2094656D365A6FF4898,河北省公安厅靶场街生活区,朝霞街18,114.4478,38.05175,0311,住宅区,79,23,小区
B2094757D56FA6FC489A,泰丰家园,新华路,114.4869637,38.05012885,0311,住宅区,3,0,小区
B2094757D56FA1F44193,华林国际,石家庄胜利北大街和光华路交汇处,114.47933567,38.07422635,0311,住宅区,506,265,小区
B2094656D365ABF8439A,中央银座小区,四中路66号,114.50945,38.03799,0311,住宅区,12,3,小区
B2094656D365A7F9439B,盛景佳园,中华南大街,114.47595,38.0155,0311,住宅区,58,27,小区
B2094656D365A3F9469A,天蕴大厦,友谊南大街51,114.45236,38.03924,0311,住宅区,20,13,小区
B2094656D364AAFB409C,范华小区,西大街与范西路交叉口,114.51896,38.04087,0311,住宅区,20,7,小区
B2094656D364ABFD409F,水工局宿舍(体育南大街),体育南大街365,114.53407,38.0142,0311,住宅区,82,31,小区
B2094656D364A4F84792,华泰家园,新华路149号,114.48187,38.048905,0311,住宅区,29,16,小区
B2094656D36BA0F8449D,富强西区,青园街与东岗路交叉口,114.51978,38.01286,0311,住宅区,35,28,小区
B2094656D36BA3F9439E,园东园,青园街15,114.51771,38.05121,0311,住宅区,12,4,小区
B2094656D369A1F9439E,军安水晶公寓,裕华路与城角街交叉口,114.44444,38.03499,0311,住宅区,15,5,小区
B2094656D365A4F5429C,河北送变电宿舍(水产西街),水产西街38,114.45726,38.04669,0311,住宅区,13,3,小区
B2094656D36AA6FD489B,胜利小区温馨园,塔南路27号,114.4966,38.012238,0311,住宅区,282,59,小区
B2094656D06CA2F8429A,电业小区,,114.46617,38.0277,0311,住宅区,41,11,小区
B2094656D06CA2FE449E,华兴花园,,114.53215,38.01207,0311,住宅区,9,4,小区
B2094656D06CA2F94199,安惠小区,,114.43827,38.03189,0311,住宅区,11,0,小区
B2094656D365A1FC419A,石铁南新街宿舍,,114.48026,38.02065,0311,住宅区,29,12,小区
B2094656D365A5FD429C,石家庄市教育局园丁小区(西苑派出所广源路社区警务室西),国泰街39,114.43906,38.05633,0311,住宅区,42,11,小区
B2094656D365A6FE489E,河北省统计局家属院,西焦北路3,114.45079,38.05256,0311,住宅区,10,2,小区
B2094656D365A7F94599,石家庄市卷烟厂宿舍,新华路264,114.4618,38.04793,0311,住宅区,7,0,小区
B2094656D365A0FA4492,谈阁街第三居民生活区,,114.518,38.0487,0311,住宅区,12,7,小区
B2094656D365A0FF479B,24中生活小区,,114.4842,38.0259,0311,住宅区,16,14,小区
B2094656D365A0FE449F,师大南院教工宿舍,槐北路232,114.53189,38.0314,0311,住宅区,20,4,小区
B2094656D365A2F44093,车辆厂小区,北荣街20,114.48401,38.05295,0311,住宅区,30,6,小区
B2094656D365A2FC4198,西芩园,,114.4487,38.07807,0311,住宅区,13,6,小区
B2094656D365A3FA409B,东塑生活区,,114.46884,38.0306,0311,住宅区,45,4,小区
B2094656D365A4F44993,虹光苑小区(虹光街),虹光街30,114.4422,38.05014,0311,住宅区,36,11,小区
B2094656D365A4F4419E,红旗小区(西门),红旗大街129,114.45968,38.02738,0311,住宅区,134,44,小区
B2094656D365A4FB479E,铁路电器化宿舍,西三庄街38,114.44461,38.06962,0311,住宅区,24,13,小区
B2094656D365A4FB469C,市中医院宿舍(东门),康乐街20,114.47322,38.04501,0311,住宅区,5,0,小区
B2094656D365A4FB439F,东珠小区东院(南门),,114.4841,38.02602,0311,住宅区,14,7,小区
B2094656D365A4FA429C,东三教新村B区,槐安路与东平路交口往西200米,114.49189,38.01776,0311,住宅区,18,7,小区
B2094656D365A4FB409C,市交管局宿舍(北门),,114.50489,38.01694,0311,住宅区,14,7,小区
B2094656D365ABFD4199,河北印染机械厂宿舍(西门),泰华街509,114.4639,38.07058,0311,住宅区,4,1,小区
B2094656D36AA7F4479F,东三教新区,汇华路12号,114.49525,38.00875,0311,住宅区,15,4,小区
B2094656D36BA7FE499A,电建生活小区,,114.53066,38.01363,0311,住宅区,7,2,小区
B2094750D56BA0FF4993,河北师大科技园,建设大街南二环东南角,114.513502,38.000491,0311,住宅区,124,28,小区
B2094750D56AA4F9489C,青鸟中山华府,中山东路与大经街交口西南角,114.496636,38.042582,0311,住宅区,667,345,小区
B2094750D56AA3FD409C,璟郡,市公安局西邻槐南路龙世界对过,114.49271,38.021903,0311,住宅区,4,0,小区
B2094750D569AAFC409C,世奥湾,东岗路建华大街以西(世纪花园对面),114.545916,38.015391,0311,住宅区,212,87,小区
B2094656D364AAFF429A,河北医科大学第二医院宿舍(西门),九中街19号,114.48387,38.05971,0311,住宅区,23,9,小区
B2094656D365A6F8429B,省建行宿舍,桥西中华南大街与工农交口,114.476788,38.031597,0311,住宅区,81,28,小区
B2094656D369A7FF439F,香晴苑,东风路与建设大街交叉口西行100米,114.50516,38.02387,0311,住宅区,211,157,小区
B2094656D369ABFE449C,栗新小区,栗胜路65,114.49861,38.05212,0311,住宅区,200,123,小区
B2094656D36BA3FE439A,长安花苑,建设北大街80,114.51118,38.04949,0311,住宅区,166,51,小区
B2094656D365A7F4489D,丽都花园(石风路),红旗大街4号,114.46132,38.02227,0311,住宅区,181,83,小区
B2094656D365A5F54993,五十四所东风院,,114.43966,38.04933,0311,住宅区,131,48,小区
B2094656D365A4FB4792,国富华庭(北门),,114.50923,38.02132,0311,住宅区,85,37,小区
B2094656D368A5F44299,八一花苑,河北省,114.43563,38.04527,0311,住宅区,64,26,小区
B2094656D36AABF4489E,宾南花园,槐中路201号,114.52748,38.02904,0311,住宅区,154,84,小区
B2094656D36AAAF4499E,都景园,建设南大街94号,114.51126,38.02878,0311,住宅区,141,58,小区
B2094656D364A4FD489A,谊联小区(谊联街),谊联街25,114.44937,38.02925,0311,住宅区,96,45,小区
B2094656D364AAFE4299,时代花园(国泰街),国泰街58,114.43775,38.06092,0311,住宅区,63,23,小区
B2094656D365AAF5489C,安联青年城,红旗大街汇新路东行300米路南,114.45634,37.98445,0311,住宅区,128,61,小区
B2094750D56BA6FF4398,恒大华府,槐安西路与维明街交汇处西南角(维明南大街266号),114.470437,38.022706,0311,住宅区,834,580,小区
B2094656D365A4FA429A,滨河小区颐安苑(红滨路),红滨路6,114.46179,38.01084,0311,住宅区,80,24,小区
B2094656D365A4FB4099,西里小区富华园,中山西路288,114.45871,38.041,0311,住宅区,127,55,小区
B2094656D368AAFF439C,高柱新村,,114.46543,38.07525,0311,住宅区,120,20,小区
B2094656D36AABFA419B,槐底村(怀特国际商城西北),,114.52694,38.02348,0311,住宅区,35,10,小区
B2094656D364A1F44198,华闻别墅区,,114.55519,37.98715,0311,住宅区,126,83,小区
B2094757D66EA0FF489B,银宏小区,河北省石家庄市桥东区休门街13号,114.50532806,38.033584949,0311,住宅区,39,18,小区
B2094757D064A3F4489C,中基礼域小区,石家庄市桥东区平安北大街19号,114.50168609,38.045082092,0311,住宅区,92,28,小区
B2094656D365A4FA4892,工行宿舍(北门),建胜路22号,114.4988,38.01979,0311,住宅区,96,26,小区
B2094656D365ABFD469B,中华绿园(南门),红军大街69,114.47011,38.06519,0311,住宅区,74,19,小区
B2094656D369A7FA499A,凯嘉大厦,长安区中山东路126号,114.50481,38.043,0311,住宅区,261,36,小区
B2094656D364ABFC4292,石家庄棉三生活区(谈南路),,114.52585,38.04575,0311,住宅区,93,21,小区
B2094656D365A2FD499D,阳光园,红旗大街与南三环交处,114.554787,37.997346,0311,住宅区,122,40,小区
B2094656D364AAF44598,友谊社区,精英路3,114.45382,38.02959,0311,住宅区,22,7,小区
B2094656D365A3FF4293,河北省农业投资公司宿舍,银宏花园1号楼,114.5055,38.04878,0311,住宅区,1,0,小区
B2094656D365A2FE4798,青园街市委宿舍,青园街33,114.51742,38.04513,0311,住宅区,9,2,小区
B2094656D365A6FE4399,三鹿集团公司生活区(西区),,114.4451,38.06551,0311,住宅区,6,0,小区
B2094656D365A4F4439A,筑凯嘉园(友谊北大街),,114.45277,38.05353,0311,住宅区,28,11,小区
B2094656D365ABFC419B,铁路配件厂宿舍(西门),放射西路5号,114.5009,38.01379,0311,住宅区,13,3,小区
B2094656D365ABFD429C,师大南院教工宿舍(北门),槐北路232,114.53175,38.03201,0311,住宅区,4,0,小区
B2094750DB6EAAFC499E,中天世都,建设南大街裕华东路四中路市规划局包围,114.511163,38.035932,0311,住宅区,117,69,小区
B2094750D56AA3FC4693,祥云国际,桥西中华大街与南二环交口向南200米,114.473891,38.003535,0311,住宅区,72,34,小区
B2094750D569AAF4449C,百年华府,槐安西路与西二环交叉口西南(桥西地税局行政楼西侧),114.436072,38.023516,0311,住宅区,3,1,小区
B2094750D569AAF94699,橄榄城,槐安路与城角街交口南行150米路西,114.443723,38.02363,0311,住宅区,4,2,小区
B2094750D569AAFE419C,万豪大厦,中华南大街工农路裕华西路仓安路包围,114.478623,38.033203,0311,住宅区,76,33,小区
B2094656D365ABFE429F,邮电园(西门),,114.50726,38.02379,0311,住宅区,2,0,小区
B2094757D56FA6FA419F,旭雅园,滨河街8号,114.46551053,38.00236925,0311,住宅区,7,3,小区
B2094656D06CA3FE499D,天伦锦城,友谊南大街与南二环交叉口,114.47394,38.00473,0311,住宅区,15,0,小区
B2094656D365AAF54593,新友合康城,桥西区友谊北大街35号(友谊北大街以东,114.4516,38.04786,0311,住宅区,3,2,小区
B2094656D365ABFC4499,北后小区,兴凯路与清真寺街交叉口,114.48335,38.04991,0311,住宅区,13,2,小区
B2094656D365A4F5449D,莱茵港小区,裕华西路164,114.44202,38.03452,0311,住宅区,16,7,小区
B2094656D365A4FB4393,华西园(广源路),广源路18,114.43666,38.05826,0311,住宅区,19,7,小区
B2094656D365A5FA499A,交远家园,靶场街25,114.44984,38.04516,0311,住宅区,12,7,小区
B2094656D365A6F44898,石家庄市电信局宿舍,,114.46968,38.05157,0311,住宅区,15,6,小区
B2094656D365A1FD4692,河北省气象局宿舍三号院,槐中路295,114.53784,38.02919,0311,住宅区,18,6,小区
B2094656D36BA6FC449B,荣盛家园,石栾路28号,114.51056,38.00806,0311,住宅区,24,3,小区
B2094656D36AA6FC439B,怡然居小区,东平路3号,114.50017,38.01811,0311,住宅区,32,11,小区
B2094656D36AA0F5499E,高新国税局宿舍,新石北路387号,114.44581,38.01895,0311,住宅区,3,1,小区
B2094656D369AAFA499A,龙城公寓,隆盛路1,114.48051,38.04971,0311,住宅区,7,4,小区
B2094656D369A4F8429D,工商局宿舍,师范街160,114.46575,38.0273,0311,住宅区,7,2,小区
B2094656D369A5F5489E,省法院宿舍,城角街振岗路附近,114.46092,38.03638,0311,住宅区,2,1,小区
B2094750D56AA3FC409E,白金公馆,维明街民心河交口东北侧,114.471647,38.026706,0311,住宅区,12,6,小区
B2094656D364A4FF429D,金鼎公寓(体育东街),,114.47433,38.04118,0311,住宅区,45,16,小区
B2094656D365A5FE4599,河北省直西苑小区(翠芳园),友谊北大街166,114.45134,38.05597,0311,住宅区,54,23,小区
B2094656D365A5F8409C,西焦生活西区(朝霞街),朝霞街12,114.44847,38.05159,0311,住宅区,16,3,小区
B2094656D365A4FA4992,军创园(西门),,114.47626,38.04714,0311,住宅区,7,5,小区
B2094656D365A4FB489A,槐东小区(北门),,114.53794,38.03016,0311,住宅区,15,5,小区
B2094656D36AA2F4419D,裕通园,永泰中街66,114.47103,38.05558,0311,住宅区,2,0,小区
B2094656D365A3FD429A,省统计局宿舍,新华合作路488号,114.436941,38.052712,0311,住宅区,12,7,小区
B2094750D26DABFA4192,世纪花园小区,,114.527642,38.013132,0311,住宅区,5,2,小区
B2094750D76BA4FC419E,时光小区,,114.422813,38.025447,0311,住宅区,31,4,小区
B2094750D669A7FC429D,军馨家园,石家庄桥西区中山西路486号,114.438438,38.040756,0311,住宅区,94,68,小区
B2094751D568A4FA479A,和润苑,石家庄市新华区水产西街25号,114.453417,38.044866,0311,住宅区,9,6,小区
B2094656D365A1FC4699,广安小区康华园(健康路),健康路33,114.51435,38.05125,0311,住宅区,69,22,小区
B2094656D369A7F44299,君泽苑,裕华西路92号,114.4944,38.03294,0311,住宅区,201,110,小区
B2094656D36BA7FE459D,水云间小区,富强大街168号,114.52317,38.0117,0311,住宅区,162,50,小区
B2094656D365ABFE459E,自由港公寓(北门),和平东路20号,114.49838,38.05403,0311,住宅区,9,0,小区
B2094656D365A4F9449C,南花园C座,,114.483,38.04249,0311,住宅区,13,2,小区
B2094656D368A4FD429F,花香维也纳神州嘉园,花香维也纳,114.50039,38.06141,0311,住宅区,26,11,小区
B2094656D36BA3F5419F,第四棉纺织厂生活区,广安大街61,114.52466,38.04961,0311,住宅区,19,2,小区
B2094656D369A4FF489C,石家庄市人民政府园林式居住小区,师范街146,114.46547,38.02967,0311,住宅区,42,16,小区
B2094656D369A1FB4098,河北司法警官职业学院宿舍,工农西路607,114.44492,38.03238,0311,住宅区,43,6,小区
B2094656D365ABFD449B,联邦名都(南门),,114.4825,38.0318,0311,住宅区,16,3,小区
B2094656D365A4FB4699,河北省工商银行宿舍,维明南大街193,114.471,38.0266,0311,住宅区,80,33,小区
B2094656D365A7F4439B,河北省公安厅合作路生活区,合作路128,114.45967,38.05392,0311,住宅区,75,33,小区
B2094656D369A2FF4193,信息产业部电子第五十四研究所生活区,中山西路491,114.44152,38.04647,0311,住宅区,23,8,小区
B2094656D369A2FF409F,西焦花园生活西区,靶场街148,114.44853,38.05102,0311,住宅区,21,4,小区
B2094656D365A4FB489E,蓝湾小区,,114.52442,38.00334,0311,住宅区,20,9,小区
B2094656D365A2FF4993,河北师范大学青年公寓楼,,114.52903,38.0379,0311,住宅区,14,1,小区
B2094656D365A5FA409A,天安小区,中山西路与友谊南大街交叉口,114.45363,38.040901,0311,住宅区,18,4,小区
B2094656D365A1F4419C,泰华小区,泰华街14,114.46222,38.043858,0311,住宅区,0,0,小区
B2094656D365A3F4449C,宝泰苑,维明街与支农路交叉口,114.46958,38.02943,0311,住宅区,2,2,小区
B2094656D364A4FA4092,新北小区,中华南大街348号附1号,114.47657,38.018208,0311,住宅区,7,3,小区
B2094656D36AAAFF4499,邮电园,休门街东风路,114.50764,38.023785,0311,住宅区,16,1,小区
B2094656D36AAAFA4099,百汇小区,四中路与建设大街交叉口,114.50838,38.038754,0311,住宅区,9,6,小区
B2094751DA6FA5FE4793,红星小区,裕华西路西二环吉恒街,114.42213,38.035698,0311,住宅区,30,12,小区
B2094750DA6CA3FB4992,天水丽城,永中街道镇南商厦,114.432121,38.020812,0311,住宅区,2,2,小区
B2094656D06CA2F54393,五星花园,红旗大街与南二环交叉口西侧,114.45176,38.00474,0311,住宅区,15,12,小区
B2094656D06CA2FB459B,园丁小区,,114.43881,38.05608,0311,住宅区,2,1,小区
B2094751D26DABFE409F,石纺宿舍,石家庄市桥东区胜利北大街233号,114.520851,38.042945,0311,住宅区,1,0,小区
B2094750DA6BA4F4429A,瑞景华庭,中山东路与东二环交叉口,114.526748,38.043502,0311,住宅区,1,0,小区
B2094750D26DA5FB429D,筑境嘉园,广安大街,114.517407,38.052023,0311,住宅区,2,0,小区
B2094757DB6CA6F4439F,省医药宿舍小区,电大街78号,114.449748,38.066571,0311,住宅区,1,0,小区
B2094656D365A0FD449F,铁一中宿舍,兴凯路291,114.46685,38.05167,0311,住宅区,2,1,小区
B2094750D56AA3FE439E,聚和远见,建设大街与槐安路交汇处南行200米路东,114.514189,38.018176,0311,住宅区,252,143,小区
B2094750D569AAF44493,富源公馆,紧邻水上公园。东临文苑街，南临滨湖小区，西临高柱预留地，北临高柱商业用地,114.464718,38.078618,0311,住宅区,2,2,小区
B2094656D36AA1FD419C,金恒花园,健康路8号,114.50591,38.04989,0311,住宅区,17,10,小区
B2094757D56EAAFD489B,东里苑,中国河北省石家庄市区,114.47176622,38.03253391,0311,住宅区,1,0,小区
B2094656D365A2F44893,河北少年儿童出版社小区,工农路359,114.46914,38.0319,0311,住宅区,1,0,小区
B2094656D365A3FF4298,河北省交通厅家属院,,114.44959,38.05271,0311,住宅区,10,4,小区
B2094656D365A6FD489A,河北省机械设备进出口公司家属院,合作路474,114.43805,38.05368,0311,住宅区,6,2,小区
B2094656D365A4FA419F,北焦小区,,114.45874,38.06204,0311,住宅区,13,4,小区
B2094656D365A4FA4993,华海园(东门),,114.47928,38.04906,0311,住宅区,1,1,小区
B2094656D365A4F44093,兰亭(石铜路),新石南路336,114.44988,38.00823,0311,住宅区,11,6,小区
B2094656D365A4F4449D,市第一医院宿舍(西门),胜利南街229,114.48923,38.01664,0311,住宅区,9,5,小区
B2094656D365A4F54799,东三教新区(北门),汇华路12号,114.49528,38.00947,0311,住宅区,2,0,小区
B2094656D365ABFC449B,燕都花园(南门),华新路65,114.50907,38.06211,0311,住宅区,2,0,小区
B2094656D365ABFC4799,兴凯·颐园(西门),,114.48739,38.05146,0311,住宅区,1,0,小区
B2094656D365ABFD419D,惠馨苑(南门),滨华路31,114.46728,38.06927,0311,住宅区,3,0,小区
B2094656D365ABFD429F,热一小区(北门),华星路8,114.4788,38.01653,0311,住宅区,24,17,小区
B2094656D365ABFD439C,信通花园生活小区(东门),,114.48651,38.06818,0311,住宅区,1,0,小区
B2094656D06CA1FD469C,十三所宿舍,,114.45705,38.05411,0311,住宅区,1,0,小区
B2094656D06CA2FB479E,玉成小区,城角街726号,114.44397,38.01554,0311,住宅区,1,0,小区
B2094656D06CA1FC4799,蔬菜公司宿舍,,114.474,38.07242,0311,住宅区,0,0,小区
B2094656D369A3F5459D,华翠苑,广源路3,114.44001,38.05867,0311,住宅区,4,4,小区
B2094656D365ABFE429E,钓鱼台(北门),,114.51406,38.05045,0311,住宅区,2,0,小区
B2094656D365ABFE4599,中央银座小区(北门),,114.50948,38.0381,0311,住宅区,4,3,小区
B2094656D06CA3FD4699,安苑小区,,114.53117,38.0018,0311,住宅区,5,4,小区
B2094656D368A5F4479F,正阳宫,,114.45848,38.00424,0311,住宅区,5,1,小区
B2094656D369A7FF4998,省直平安住宅小区,平安南大街95号,114.5027,38.02785,0311,住宅区,1,0,小区
B2094656D36BA1FB4593,杏林苑,,114.54528,38.01697,0311,住宅区,3,2,小区
B2094656D368AAF84298,惠馨苑,滨华路31,114.46724,38.07015,0311,住宅区,7,4,小区
B2094656D06CA2FE449F,华兴家园,,114.53377,38.01428,0311,住宅区,0,0,小区
B2094656D06CA2F5479A,外贸小区,,114.47126,38.06254,0311,住宅区,0,0,小区
B2094751DA65A6FB439E,金悦公馆,,114.4810967127023,38.03849000894322,0311,住宅区,6,4,小区
B2094752DB6EA3F84298,塔谈一区,河北省 石家庄市 河北省石家庄市桥东区塔谈,114.488248,37.990528,0311,住宅区,7,4,小区
B2094753DB6AA1FA429E,万达小区,河北省 石家庄市 建华大街,114.542602,38.025592,0311,住宅区,51,37,小区
B2094753D164A6F5459A,八克拉公馆,河北省 石家庄市 裕华路体育大街口,114.531515,38.0358,0311,住宅区,12,7,小区
B2094656D36AA4FB4392,名秀苑(青园街),,114.51757,38.04048,0311,住宅区,0,0,小区
B2094454D26CABFB4593,燕云台,友谊大街振岗路交口西行100米路南,114.451189,38.020982,0311,住宅区,0,0,小区
B209475DDB65A4FF4798,汇通小区,汇通路与石栾路交叉口,114.5053,38.012318,0311,住宅区,0,0,小区
B209475DD46BA4F4479C,盛安嘉园,,114.45548,38.04782,0311,住宅区,0,0,小区
B209475DD46EABF94698,石家庄发源小区社区,,114.47996,38.02828,0311,住宅区,0,0,小区
B209475DD46EABFF429E,石家庄谈阁小区社区,,114.518,38.0498,0311,住宅区,1,1,小区
B209475DD46EABFF449B,石家庄建东里社区,,114.50663,38.03168,0311,住宅区,1,1,小区
B209475DD46EA4F9419B,石家庄雅兰庭院社区,,114.4846,38.0632,0311,住宅区,0,0,小区
B209475DD46EA4F9459A,石家庄维明小区社区,,114.47078,38.02781,0311,住宅区,0,0,小区
B209475DD46EA4FB4999,石家庄家兴小区社区,,114.4978,38.0288,0311,住宅区,0,0,小区
B209475DD46EA4FD4698,石家庄东方国际社区,,114.4516,38.0744,0311,住宅区,0,0,小区
B209475DD768A2FD479F,河北国际商会广场,仓丰路和建通街交口西北角,114.50068649,37.99328342,0311,住宅区,0,0,小区
B209475DD768A0FE4298,天玺名著一号区天阙,桥西区槐安路与城角街交口东北角,114.44436543,38.02495347,0311,住宅区,0,0,小区
B209475DD768A7FB4598,时代公馆,石家庄市桥西区红旗大街与汇丰路交叉口西行200米路北,114.46009398,37.994978,0311,住宅区,0,0,小区
B209475CD664A7FF429C,佳兴园小区,河北省石家庄市新华区文苑街8号,114.46675600524895,38.07503914978229,0311,住宅区,17,17,小区
B2094750D56AA3FE459C,壹公馆,新石中路城角街西北角,114.443324,38.015674,0311,住宅区,0,0,小区
B2094656D365A5FB459B,河北省总工会宿舍东院,工农路272-2号,114.4644,38.03148,0311,住宅区,5,4,小区
B2094753DA6FA2FB439D,电大街66号院,新华区电大街66号,114.454665,38.065325,0311,住宅区,1,0,小区
B2094753DA6FA2FB4499,天滋花苑,裕华路与大经街交叉口,114.488096,38.035873,0311,住宅区,0,0,小区
B2094753DA6FA2FB449F,华源新村,汇通路97号,114.499254,38.009013,0311,住宅区,3,1,小区
B2094753DA6FA2FB4493,朗润园,中山西路联合大学城内,114.437714,38.042244,0311,住宅区,0,0,小区
B2094753DA6FA2FB4598,华府园,中华南大街585号,114.478455,38.00796777,0311,住宅区,1,0,小区
B2094753DA6FA2FB459C,国际商住城,槐北路416号,114.530883,38.006646,0311,住宅区,2,2,小区
B2094753DA6FA2FB479F,省盐业宿舍,体育南大街381号,114.531655,38.016942,0311,住宅区,0,0,小区
B2094753DA6FA2F4419E,十二中宿舍,中山路东尚对面,114.489364,38.043445,0311,住宅区,0,0,小区
B2094753DA6FA2F4429E,维多利亚时代二期,石家庄体育南大街与塔南路交叉口,114.53543722524,38.006994088917,0311,住宅区,3,3,小区
B2094753DA6FA2F44398,冀达商办楼,桥东胜利北街185号,114.489364,38.043445,0311,住宅区,0,0,小区
B2094753DA6FA2F4469F,红龙湾,东二环与槐安路交叉口南行200米路东,114.489364,38.043445,0311,住宅区,13,4,小区
B2094752D56CA6FA479D,鼎和国际,石家庄市裕华区槐安路北，兴苑街东(万达洲际酒店西邻，河北美术馆北邻),114.53747,38.022655,0311,住宅区,0,0,小区
B2094753DA6FA2F4439D,瑞星花园,经济技术开发区,114.489364,38.043445,0311,住宅区,0,0,小区
B2094753DA6FA2F4449A,玻璃厂宿舍,建设大街与石栾路交叉口西行100米,114.489364,38.043445,0311,住宅区,0,0,小区
B2094753DA6FA2F4449B,风机厂宿舍,石铜路与槐安路交叉口,114.489364,38.043445,0311,住宅区,0,0,小区
B2094753DA6FA2F44498,红星街钢厂宿舍,红星街与联盟路交叉口南行300米,114.489364,38.043445,0311,住宅区,3,3,小区
B2094753DA6FA2F4449E,东风路邮电局宿舍,东风路与青园街交叉口,114.489364,38.043445,0311,住宅区,2,0,小区
B2094753DA6FA2F4449C,第二造纸厂宿舍,石栾路与体育大街交叉口,114.489364,38.043445,0311,住宅区,0,0,小区
B2094753DA6FA2F44492,车辆厂17号院,北荣街与车辆厂后街交叉口,114.489364,38.043445,0311,住宅区,0,0,小区
B2094753DA6FA2F44493,金地名苑,和平东路与体育大街交叉口,114.489364,38.043445,0311,住宅区,15,0,小区
B2094753DA6FA2F4459A,城角庄南区,裕华路城角庄,114.489364,38.043445,0311,住宅区,0,0,小区
B2094753DA6FA2F4459E,北空四站宿舍,翔翼路16号,114.489364,38.043445,0311,住宅区,0,0,小区
B2094753DA6FA2F4459C,农业资源生活区,槐中路294号,114.489364,38.043445,0311,住宅区,0,0,小区
B2094753DA6FA2F44592,国经小区,新华区水上公园附近,114.489364,38.043445,0311,住宅区,0,0,小区
B2094753DA6FA2F4469B,柳林铺,胜利北大街与北外环交叉口,114.489364,38.043445,0311,住宅区,0,0,小区
B2094753DA6FA2F44699,青橙时代,高新区长江大道与太行大街东北角,114.489364,38.043445,0311,住宅区,0,0,小区
B2094753DA69A0FA459C,志诚华府,苑东街与工农路交叉口,114.419582,38.031479,0311,住宅区,0,0,小区
B2094753DA69A0FA459D,领域,裕华仓丰路与建通街交口南行200米路东,114.502816,37.990751,0311,住宅区,0,0,小区
B2094753DA69A0FA469B,测绘局宿舍,中山东路495号,114.51509,38.04221,0311,住宅区,0,0,小区
B2094656D36AA7F9419F,华南新村,中华南大街与新石南路交口,114.48029,38.00862,0311,住宅区,2,1,小区
B2094656D36BA1F5499D,槐南小区,育才街256,114.52734,38.01956,0311,住宅区,3,2,小区
B2094656D365A3FE499F,馨华园,红军大街73号,114.47029,38.06586,0311,住宅区,1,1,小区
B2094656D365A2FA459D,北新小区(神兴),,114.48468,38.06403,0311,住宅区,1,1,小区
B2094656D365A5F5479B,九星阁,东平路5,114.49861,38.01805,0311,住宅区,0,0,小区
B2094656D06CA3F8499D,丰河苑东区,红旗大街,114.4597,38.02678,0311,住宅区,1,1,小区
B209475DD768ABFF439C,善水雅居,体育南大街和308国道交叉口西南角,114.53229901,37.99059039,0311,住宅区,0,0,小区
B2094750D569ABFB489E,中宏汇景国际,长安区中山东路与青园街交叉口东北(原棉二生活区),114.521929,38.043602,0311,住宅区,4,4,小区
B2094750D569ABFB489D,伽蓝美城,裕华路与休门街交口西南角,114.505866,38.03505,0311,住宅区,33,0,小区
B2094750D569ABF54198,现代城,建通街和石栾路交口,114.507957,38.010306,0311,住宅区,2,2,小区
B2094750D569AAFE479D,金隅广场,长安区中山路体育大街交叉口西北角,114.531608,38.043463,0311,住宅区,0,0,小区
B2094750D569AAFF409F,汇特虹,新华路以北、新合街以东、神兴集团和河北科技大学以西区域,114.45519,38.049421,0311,住宅区,0,0,小区
B2094750D569AAFF469C,石家庄紫金大厦,槐安路与红旗大街交叉口西南角,114.458754,38.024284,0311,住宅区,52,27,小区
B2094750D569AAFF4893,水木清华,富强大街南延与仓丰路交汇处,114.531908,37.996738,0311,住宅区,0,0,小区
B2094750D569AAF8449B,尚品雅筑,新华区友谊大街与钟旺路交叉口西行100路北,114.453602,38.068106,0311,住宅区,4,1,小区
B2094750D569AAF9419E,翰林福邸,桥西区西里商贸街6号(海天假日酒店西路口),114.45537,38.040205,0311,住宅区,4,2,小区
B2094750D569AAF94293,香堤小郡,桥西区红旗南大街与南三环交叉口东南角,114.458432,37.999574,0311,住宅区,0,0,小区
B2094750D569AAF9499C,翰林源,水产西街与中山路交叉口北行100米路东,114.458702,38.046118,0311,住宅区,0,0,小区
B2094750D569AAFA459D,瑞嘉名邸,滨河街与汇明路交口东南角民心河畔,114.472772,37.990208,0311,住宅区,0,0,小区
B2094750D569AAFA4998,卓达亿嘉盛世春天,长安区建设大街与光华路交叉口东南角,114.514025,38.060363,0311,住宅区,18,16,小区
B2094750D569AAFB499C,Koma国际花园,新石北路与友谊南大街交口西行100米路南,114.450245,38.017973,0311,住宅区,0,0,小区
B2094750D569AAF44092,晶彩,翟营南大街56路终点站,114.554379,37.987855,0311,住宅区,0,0,小区
B2094750D569AAF5409E,宫园2009,红旗大街法商学院(南校区)对面,114.458652,38.005183,0311,住宅区,0,0,小区
B2094750D56AA3FC4498,金海华府,新华区中华大街与新华路交叉口西行100米路北,114.475658,38.048516,0311,住宅区,0,0,小区
B2094750D56AA3FC499A,熙园,裕华路城角街交口的西北角,114.443456,38.035449,0311,住宅区,3,2,小区
B2094750D56AA3FC4993,西城盛世,和平路与西二环西行500米路北,114.430598,38.068205,0311,住宅区,0,0,小区
B2094750D56AA3FD4199,西引利,红旗大街与新石中路交口西行80米路南,114.457014,38.017886,0311,住宅区,0,0,小区
B2094753DA6EA3FB449F,林溪小镇,植物园北侧,114.51421,38.042802,0311,住宅区,1,0,小区
B2094753DA6EA3FB4492,燕赵财富主场,燕山大酒店西邻,114.480779,38.035079,0311,住宅区,0,0,小区
B2094753DA6EA3FB4793,电大街27号院,电大街27号院,114.458034,38.062892,0311,住宅区,0,0,小区
B2094753DA6EA3FB489E,城角街676号,城角街676号,114.443765,38.023501,0311,住宅区,0,0,小区
B2094753DA6EA3FB499B,省考试院宿舍,红旗大街297号,114.460244,38.02558,0311,住宅区,1,0,小区
B2094753DA6EA3FB499E,3302南区,建设大街与建胜路交叉口往西200米,114.509425,38.020306,0311,住宅区,0,0,小区
B2094753DA6EA3F4419F,观筑,中山西路与师范街交口,114.465544,38.042413,0311,住宅区,0,0,小区
B2094753DA6EA3F4429B,泽龙SOLO,建设大街与光华路交口东行800米,114.512805,38.059057,0311,住宅区,0,0,小区
B2094753DA6EA3F44393,宝曼小区,工农路和西二环南路交叉口,114.433358,38.031073,0311,住宅区,0,0,小区
B2094753DA6EA3F44498,东珠小区,槐安路与南长街交叉口,114.483558,38.026061,0311,住宅区,0,0,小区
B2094753DA6EA3F44593,西城山景,城角街与槐安路交口,114.443443,38.023653,0311,住宅区,0,0,小区
B2094753DA6EA3F4479B,上洋国际,正定107国道与晨光路交叉口北侧,114.463506,38.007026,0311,住宅区,0,0,小区
B2094753DA6EA3F4479F,轻工业研究院宿舍,师范街与工农路交口,114.46857,38.033448,0311,住宅区,0,0,小区
B2094753DA6EA3F44793,华城绿洲二期,槐安路与胜利大街交叉口,114.492828,38.019723,0311,住宅区,3,1,小区
B2094753DA6EA3F44899,康泰园,裕华西路118号,114.455277,38.034301,0311,住宅区,0,0,小区
B2094753DA6EA3F44892,房管局宿舍,胜利大街与煤市街交叉口,114.499919,38.040487,0311,住宅区,0,0,小区
B2094753DA6EA3F4499D,省公安厅宿舍,靶场街152号,114.453678,38.032391,0311,住宅区,0,0,小区
B2094753DA6EA3F5409A,人防宿舍,平安南大街85号,114.503438,38.028673,0311,住宅区,0,0,小区
B2094753DA6EA3F5409B,23中宿舍,栗康街与健康路交叉口,114.466778,38.051732,0311,住宅区,0,0,小区
B2094753DA6EA3F54099,富兴苑,中山西路陆军学院斜对过,114.468226,38.042177,0311,住宅区,0,0,小区
B2094753DA6EA3F54093,钟南小区,友谊大街钟久路交口,114.448711,38.065004,0311,住宅区,0,0,小区
B2094753DA6EA3F54199,六中宿舍,中华南大街与裕华路交口,114.472969,38.03687,0311,住宅区,0,0,小区
B2094753DA6EA3F54298,商贸局宿舍,新华路466号,114.445889,38.04848,0311,住宅区,0,0,小区
B2094753DA6EA3F5429F,卓达科苑公寓,新石中路与西二环交叉口,114.445653,38.014896,0311,住宅区,1,0,小区
B2094753DA6EA3F54599,省地方税务局宿舍,平安南大街32号,114.501271,38.032527,0311,住宅区,0,0,小区
B2094753DA6EA3F5469F,18中宿舍,新华路与虹光街交叉口,114.440224,38.051251,0311,住宅区,0,0,小区
B2094753DA6EA3F5479A,紫香兰亭,光华路与建设大街交口,114.513631,38.060037,0311,住宅区,0,0,小区
B2094753DA6EA3F5489A,西里乡政府宿舍,西里街交长青路西南角,114.457058,38.037022,0311,住宅区,1,0,小区
B2094753DA6EA3F5499B,棉四生活区,广安大街61号,114.523373,38.048074,0311,住宅区,2,2,小区
B2094753DA6EA2FC409E,市政公司宿舍,正东路81号,114.507666,38.046849,0311,住宅区,6,6,小区
B2094753DA6EA2FC4199,十中宿舍,槐安路与城角街交叉口,114.444516,38.024878,0311,住宅区,2,1,小区
B2094753DA6EA2FC429C,心岛怡岸,温塘镇,114.527514,38.044593,0311,住宅区,0,0,小区
B2094753DA6EA2FC439F,众美凤凰城二期,翟营大街与南二环交叉口,114.553403,38.000052,0311,住宅区,4,1,小区
B2094753DA6EA2FC4492,中心城,中山西路48号,114.482474,38.04221,0311,住宅区,0,0,小区
B2094753DA6EA2FC4493,蓝天花园,光华路105号,114.512783,38.059184,0311,住宅区,0,0,小区
B2094753DA6EA2FC4598,滨冠苑,新华西路武警医院对面,114.420183,38.052696,0311,住宅区,0,0,小区
B2094753DA6EA2FC469E,佳琳公寓,方盛路8号,114.551525,37.981805,0311,住宅区,0,0,小区
B2094753DA6EA2FC4999,37度七金苑,石铜路与南二环交叉口,114.44664,38.005099,0311,住宅区,65,26,小区
B2094753DA6EA2FC499C,西雅住宅小区,建国路666号,114.43162,38.029095,0311,住宅区,1,0,小区
B2094753DA6EA2FD4098,绿嘉风景,仓丰路49号,114.507151,38.008641,0311,住宅区,0,0,小区
B2094753DA6EA2FD4598,850厂宿舍,东岗路42号,114.535625,38.016198,0311,住宅区,2,1,小区
B2094753DA6EA2FD479B,筑凯家园,友谊大街合作路交口,114.452391,38.053785,0311,住宅区,0,0,小区
B2094753DA6EA2FD489C,阜康路33号,阜康路33号,114.499222,38.048649,0311,住宅区,0,0,小区
B2094753DA6EA2FD4893,太行宿舍,中华北大街与和平路交叉口,114.479363,38.063112,0311,住宅区,0,0,小区
B2094753DA6EA2FD4998,24中宿舍,自强路174号,114.472518,38.039946,0311,住宅区,0,0,小区
B2094750D56AA3FE4393,温莎公爵,红旗大街与南二环交叉口南行300米路东,114.461,38.003115,0311,住宅区,0,0,小区
B2094750D56AA3FE4493,新大院,桥西区友谊大街与育新路交口西行200米路南,114.448223,38.011139,0311,住宅区,1,0,小区
B2094750D56AA3FE479E,良城逸景,石铜路与南二环交叉口西南角(规划市政公园西邻),114.443185,38.003645,0311,住宅区,32,19,小区
B2094750D56AA0FA4392,弘石湾,北二环与东三庄街交口南行50米路西,114.46018,38.079582,0311,住宅区,0,0,小区
B2094750D56AABF9419D,云顶,槐安路与城角庄街交口东南,114.444451,38.024244,0311,住宅区,0,0,小区
B2094750D56BAAFA479F,北杜花园二期,工农路时光街交口南行100米,114.428315,38.031935,0311,住宅区,1,0,小区
B2094750DB6EAAFC4998,紫晶天域,平安北大街与和平东路交叉口西北角,114.49991,38.055453,0311,住宅区,9,5,小区
B2094753DA6EA5F9419B,棉二生活区,光华路与外贸街交叉口,114.519306,38.047331,0311,住宅区,0,0,小区
B2094753DA6EA5F9429F,防疫站宿舍,槐岭路34号,114.531548,38.025377,0311,住宅区,0,0,小区
B2094753DA6EA5F94799,税校宿舍,桥西新石南路,114.456382,38.011701,0311,住宅区,0,0,小区
B2094753DA6EA5F94899,东五里新村东区,红旗大街汇新路东行,114.465094,37.999857,0311,住宅区,1,1,小区
B2094753DA6EA5FA409A,信达花园,永泰街88号,114.474428,38.05458,0311,住宅区,0,0,小区
B2094753DA6EA5FA4293,红人公馆,宁安路168号,114.475737,38.053785,0311,住宅区,2,0,小区
B2094753DA6EA5FA4499,无线电四厂,槐中路与青园街交叉口,114.506636,38.033253,0311,住宅区,0,0,小区
B2094750D56AA3FE449E,众美凤凰台意风,建华大街与南二环交叉口南行200米路西,114.545871,38.00154,0311,住宅区,15,13,小区
B2094753DA6EA3FB429E,天滋嘉园,大经街与煤市路交叉口,114.497205,38.041357,0311,住宅区,0,0,小区
B2094753DA6EA3FB4398,龚尚苑,裕华东路,114.502623,38.035281,0311,住宅区,0,0,小区
B2094753DA6EA3FB4498,唯C时尚广场,中华北大街,114.477003,38.065494,0311,住宅区,0,0,小区
B2094753DA6EA2FE4099,先天下小区,育才街88号,114.527664,38.041467,0311,住宅区,0,0,小区
B2094753DA6EA2FE4198,玉成东区,城角街与新石南路交叉口,114.443378,38.013645,0311,住宅区,0,0,小区
B2094753DA6EA2FE419F,军械小区,储煤路泰华街交口,114.466166,38.070393,0311,住宅区,0,0,小区
B2094753DA6EA2FE429D,保险公司宿舍,友谊南大街32号,114.449601,38.03425,0311,住宅区,0,0,小区
B2094753DA6EA2FE439C,华平嘉园,和平东路138号,114.508052,38.050271,0311,住宅区,0,0,小区
B2094753DA6EA2FE459D,迎宾苑,体育大街与槐北路交口,114.531806,38.031479,0311,住宅区,0,0,小区
B2094753DA6EA2FE469A,电大街78号院,电大街78号院,114.457755,38.067521,0311,住宅区,0,0,小区
B2094753DA6EA2FE4699,中华家园,中华南大街与新石中路交口,114.478612,38.012851,0311,住宅区,0,0,小区
B2094753DA6EA2FF4093,天河观月,青园街与东岗路交口,114.520862,38.010788,0311,住宅区,0,0,小区
B2094753DA6EA2FF4298,如意商务公寓,中山路166号,114.506571,38.04303,0311,住宅区,1,1,小区
B2094753DA6EA2FF4292,御景江山,光华路7号,114.502194,38.060662,0311,住宅区,0,0,小区
B2094753DA6EA2FF439C,长征鞋厂宿舍,工农路与师范街交叉口,114.46666,38.031529,0311,住宅区,0,0,小区
B2094753DA6EA2FF4492,香榭里二期香情苑,东风路与休门街交口往西200米路南,114.50479,38.024464,0311,住宅区,0,0,小区
B2094753DA6EA2FF469A,广安苑,广安街与谈南路交叉口,114.522761,38.047753,0311,住宅区,1,0,小区
B2094753DA6EA2FF4699,lcgi,桥西区槐安路与红旗大街交叉口西南角,114.459665,38.023636,0311,住宅区,0,0,小区
B2094753DA6EA2FF4693,卓泰博茗苑,建华大街与南二环口南侧,114.548264,37.999139,0311,住宅区,0,0,小区
B2094753DA6EA2FF499C,颐和新新家园,距友谊大街两分钟路程,114.451286,38.031369,0311,住宅区,0,0,小区
B2094753DA6EA2FF4993,万信缘溪堂,新华北城路35号,114.458139,38.074058,0311,住宅区,0,0,小区
B2094753DA6EA2F8409F,水庭世家,水上公园附近,114.457562,38.074599,0311,住宅区,0,0,小区
B2094753DA6EA2F8419E,平安万和园,东平路8号,114.497538,38.017255,0311,住宅区,5,2,小区
B2094753DA6EA2F8429C,省供销社宿舍,长青路40号,114.51052,38.025884,0311,住宅区,0,0,小区
B2094753DA6EA2F8439C,喜竹园,槐安西路与红旗大街交口,114.459504,38.025639,0311,住宅区,0,0,小区
B2094753DA6EA2F84392,品汇商务公寓,中山西路81号,114.486605,38.04461,0311,住宅区,0,0,小区
B2094753DA6EA2F8449F,东简良新村,和平西路与开泰街交叉口,114.429431,38.062284,0311,住宅区,0,0,小区
B2094753DA6EA2F8469E,石药宿舍,中山路与长兴街交叉口,114.46975,38.032865,0311,住宅区,0,0,小区
B2094753DA6EA2FB4699,庄伙小区,胜利北街与北二环交叉口,114.495671,38.053228,0311,住宅区,0,0,小区
B2094753DA6EA2FB4799,棉七宿舍,平安南大街与裕华西路交叉口,114.495671,38.035814,0311,住宅区,1,0,小区
B2094753DA6EA2FB489E,医药外贸宿舍,电大街28中对面,114.459622,38.06818,0311,住宅区,0,0,小区
B2094753DA6EA2FB4999,农业局宿舍,建设南大街30号,114.519811,38.027676,0311,住宅区,0,0,小区
B2094753DA6EA2F4409C,3502宿舍,新华西路武警医院附近,114.423809,38.025242,0311,住宅区,0,0,小区
B2094753DA6EA2F44192,城角庄北区,西二环与裕华路交口东行200米,114.440675,38.024954,0311,住宅区,1,0,小区
B2094753DA6EA2F4429D,兴邦商住公寓,站前街18号,114.489384,38.048057,0311,住宅区,0,0,小区
B2094753DA6EA2F44492,烟草公司宿舍,工农路与城角街交叉口,114.458957,38.031073,0311,住宅区,0,0,小区
B2094753DA6EA2F4479B,荣盛阿尔卡迪亚,和平东路与平安大街交叉口,114.501883,38.055399,0311,住宅区,24,13,小区
B2094753DA6EA2F54098,西环新村,新华路与西二环交叉口,114.435428,38.048995,0311,住宅区,0,0,小区
B2094753DA6EA2F54092,香榭里,槐安路与建设大街交叉口,114.497827,38.021388,0311,住宅区,0,0,小区
B2094753DA6EA2F54299,省外贸宿舍,和平西路555号,114.451168,38.062385,0311,住宅区,0,0,小区
B2094753DA6EA2F5429C,38中宿舍,高柱路与高东街交口,114.474353,38.075334,0311,住宅区,0,0,小区
B2094753DA6EA2F54293,建胜路6号院,桥东区建胜路6号,114.507354,38.019925,0311,住宅区,0,0,小区
B2094753DA6EA2F5469F,河纺宿舍,中山东路436号,114.473827,38.043495,0311,住宅区,0,0,小区
B2094753DA6EA2F5479E,东平家园,平安南大街与东平路交叉口,114.500821,38.016545,0311,住宅区,1,1,小区
B2094753DA6EA2F54899,九德旺星阁,体育大街南二环,114.535196,38.001303,0311,住宅区,0,0,小区
B2094753DA6EA2F54998,颐康小区,友谊南大街66号,114.452155,38.032087,0311,住宅区,0,0,小区
B2094753DA6EA1FC409E,水产局宿舍,体育南大街与槐安路交叉口,114.532653,38.022613,0311,住宅区,0,0,小区
B2094753DA6EA1FC419B,电力研究院宿舍,体育大街槐中路,114.532664,38.027067,0311,住宅区,1,1,小区
B2094753DA6EA1FC419E,青南小区,青园街与东岗路交叉口,114.520047,38.010754,0311,住宅区,0,0,小区
B2094753DA6EA1FC429A,省电大宿舍,和平西路481号,114.457659,38.060882,0311,住宅区,0,0,小区
B2094753DA6EA1FC449D,尹泰花园三期,红旗大街二印宿舍北面,114.461832,37.986321,0311,住宅区,1,1,小区
B2094753DA6EA1FC4599,颐源百丽,友谊南大街23号,114.45208,38.040343,0311,住宅区,0,0,小区
B2094753DA6EA1FF489F,东五里老年公寓,汇新路与汇宁街,114.465179,37.996349,0311,住宅区,0,0,小区
B2094753DA6EA1FF499B,电大街24号院,电大街24号,114.458013,38.060831,0311,住宅区,0,0,小区
B2094753DA6EA1FF499D,66号住宅,南长街66号,114.483891,38.032577,0311,住宅区,0,0,小区
B2094753DA6EA1F8409C,柴油机厂宿舍,平安南大街阳光大厦对过,114.503825,38.033355,0311,住宅区,1,1,小区
B2094753DA6EA1F8459F,天滋国际,中山东路和广安大街交口,114.523201,38.044154,0311,住宅区,0,0,小区
B2094753DA6EA1F8469B,范东小区,东风路平安大街交口,114.50125,38.023754,0311,住宅区,0,0,小区
B2094753DA6EA1F8479D,玉成西区,新石中路与城角街交叉口,114.443293,38.033169,0311,住宅区,0,0,小区
B2094753DA69A7FC4492,水勘院宿舍,兴苑街54号,114.518738,38.028943,0311,住宅区,0,0,小区
B2094753DA69A7FC459A,神州嘉园,胜利北街178号,114.501936,38.061287,0311,住宅区,0,0,小区
B2094753DA69A7FC459E,翰墨儒林,育才街和东岗路交叉口,114.52775,38.016823,0311,住宅区,1,0,小区
B2094753DA6EA1FC4698,电台宿舍,中山西路与泰华街交叉口,114.438915,38.061101,0311,住宅区,0,0,小区
B2094753DA6EA1FC489A,英商家园,友谊大街朝阳路交叉口,114.453442,38.0697,0311,住宅区,7,3,小区
B2094753DA6EA1FC4893,铁路南环宿舍,中华大街与南二环交叉口,114.47903,38.000584,0311,住宅区,1,1,小区
B2094753DA6EA1FC4993,滨江尚城国际,休门街与中山路交口西南角,114.506614,38.042362,0311,住宅区,0,0,小区
B2094753DA6EA1FD419D,省物资局宿舍,自强路培英里10号,114.459214,38.034445,0311,住宅区,0,0,小区
B2094753DA6EA1FD4293,鼎盛时代,阜康路12号,114.509007,38.045599,0311,住宅区,0,0,小区
B2094753DA6EA1FD449B,五金公司宿舍,友谊大街26号,114.449172,38.036025,0311,住宅区,0,0,小区
B2094753DA6EA1FD449E,电视机厂宿舍,东马路小学对过,114.500177,38.037985,0311,住宅区,0,0,小区
B2094753DA6EA1FD4599,威远宿舍,工农路与中华大街交叉口,114.47549,38.032146,0311,住宅区,0,0,小区
B2094753DA6EA1FD479B,维明街256号,维明街256号,114.468259,38.040039,0311,住宅区,0,0,小区
B2094753DA6EA1FD489B,冀达住宅楼,北宋路21号,114.505563,38.064286,0311,住宅区,0,0,小区
B2094753DA6EA1FE419A,君晓小区,槐按路与西二环交叉口,114.438164,38.02509,0311,住宅区,1,0,小区
B2094753DA6EA1FE419C,省图书馆宿舍,东大街48号,114.50979,38.045742,0311,住宅区,0,0,小区
B2094753DA6EA1FE439E,电建生活区,新华西路183号,114.437714,38.050828,0311,住宅区,1,1,小区
B2094753DA6EA1FE489F,28中宿舍,泰华街与合作路交叉口,114.463463,38.057883,0311,住宅区,0,0,小区
B2094753DA6EA1FE4893,谈阁街宿舍,青园街与谈阁街交叉口东行50米路南3栋,114.517322,38.04875,0311,住宅区,0,0,小区
B2094753DA6EA1FF409B,万福家园,翟营大街与南二环交叉口,114.554358,38.001193,0311,住宅区,0,0,小区
B2094753DA6EA1FF4199,消防队宿舍,槐安路与中华大街交叉口,114.469728,38.033084,0311,住宅区,0,0,小区
B2094753DA6EA1FF419C,振头乡政府宿舍,友谊大街与新石路交叉口,114.452895,38.0087,0311,住宅区,0,0,小区
B2094753DA6EA1FF4298,科大宿舍,新合街45号,114.457594,38.053447,0311,住宅区,0,0,小区
B2094753DA6EA1FF4499,运管处宿舍,电大街北焦3号院,114.457734,38.062571,0311,住宅区,0,0,小区
B2094753DA6EA1FF469B,龙城国际,桥西区槐安路与红旗大街交叉口西南角,114.459332,38.033456,0311,住宅区,0,0,小区
B2094753DA6EA1FF469E,浙商大厦,圆明路与正东路交汇处,114.499061,38.047288,0311,住宅区,0,0,小区
B2094753DA6EA1FF469D,诗语雅居,青园街333号,114.516656,38.027912,0311,住宅区,0,0,小区
B2094753DA6EA1FF479C,鑫源名居,兴凯路与清真寺街交叉口,114.480532,38.050592,0311,住宅区,0,0,小区
B2094753DA6EA2F8479E,东简良小区,西二环与和平路交叉口西南角,114.424796,38.062419,0311,住宅区,0,0,小区
B2094753DA6EA2F8489C,方村新村,翟营南大街与方兴路交叉口,114.534048,38.035324,0311,住宅区,2,0,小区
B2094753DA6EA2F84998,粮食局宿舍,体育大街225号,114.523544,38.032341,0311,住宅区,0,0,小区
B2094753DA6EA2F94092,杰岛名城,槐安路与黄山大街交口,114.541794,38.022689,0311,住宅区,0,0,小区
B2094753DA6EA2F9429F,建国名都,中山东路128号,114.504833,38.043157,0311,住宅区,0,0,小区
B2094753DA6EA2F9449E,盛世华庭小区,中华大街与仓安路交叉口,114.47329,38.013054,0311,住宅区,0,0,小区
B2094753DA6EA2F9459F,向阳街单位宿舍,平安大街交向阳路西行200米路北,114.500102,38.050144,0311,住宅区,0,0,小区
B2094753DA6EA2F94593,瑶晨绿岛,工农路与西二环交叉口,114.428025,38.029696,0311,住宅区,0,0,小区
B2094753DA6EA2F9479F,东铁大厦,平安北大街18号,114.50243,38.044999,0311,住宅区,0,0,小区
B2094753DA6EA2F94899,西雅小区,建国路与西二环交叉口西行500米路南,114.4331,38.027202,0311,住宅区,1,1,小区
B2094753DA6EA2FA409A,中浩商务楼,建设北大街261号,114.513266,38.056818,0311,住宅区,0,0,小区
B2094753DA6EA2FA419D,世达园,槐中路73号,114.536762,38.028994,0311,住宅区,0,0,小区
B2094753DA6EA2FA429F,天维花园,东岗路和体育大街交口,114.542159,38.015978,0311,住宅区,0,0,小区
B2094753DA6EA2FA439B,地理所宿舍,青园街与东岗路交口北行100米路西,114.517847,38.015716,0311,住宅区,0,0,小区
B2094753DA6EA2FA469B,光彩公寓,平安北大街于阜康路交口,114.500617,38.049122,0311,住宅区,0,0,小区
B2094753DA6EA2FA4799,憩园大厦,清真寺街1号,114.481176,38.048725,0311,住宅区,0,0,小区
B2094753DA6EA2FA4893,土产公司宿舍,长征街97号,114.504404,38.058398,0311,住宅区,0,0,小区
B2094753DA6EA2FB419B,棉一东区,健康路与建设大街交叉口,114.504597,38.048311,0311,住宅区,1,0,小区
B2094753DA6EA2FB419E,三鹿宿舍,和平路与西三庄街交叉口,114.445117,38.062875,0311,住宅区,0,0,小区
B2094753DA6EA2FB429B,民惠城,中华北大街128号,114.476981,38.060662,0311,住宅区,1,0,小区
B2094753DA6EA2FB439C,盛世华庭三期,新石中路与维明大街交叉口,114.472035,38.01231,0311,住宅区,0,0,小区
B2094753DA6EA2FB4493,随园,育才街与东岗路交叉口,114.518352,38.013409,0311,住宅区,0,0,小区
B209475DD768ABFE499F,善水怡园,体育南大街和308国道交叉口东南角,114.53577513,37.99159371,0311,住宅区,0,0,小区
B2094752D56CA6F94093,城南春天,桥西区城角街与育新路交口东南角,114.44428,38.011752,0311,住宅区,0,0,小区
B2094752D56CA6F9419B,翰林天润,桥西区石铜路428号,114.429924,37.993136,0311,住宅区,0,0,小区
B2094752D56CA6FA4298,嘉悦中心,桥东区槐安路2号,114.494066,38.021895,0311,住宅区,0,0,小区
B2094752D56CA5FC459A,阆苑福园,和平西路与友谊大街交口西侧300米路北,114.452004,38.061574,0311,住宅区,0,0,小区
B2094752D56CA5F44498,君廷上院,维明大街与支农路交口西行100米路南,114.469213,38.030583,0311,住宅区,0,0,小区
B2094752D56CA4FA419A,塔坛国际商贸城,胜利南大街与南二环交口西南角,114.487667,37.999815,0311,住宅区,1,1,小区
B2094752D56CA4F5459A,龙强印象,南二环与石铜路交叉口南行3000米路西,114.434452,37.998057,0311,住宅区,0,0,小区
B2094752D56CABF5439D,国赫金茂府,槐中路与青园街交叉口(亚太大酒店南侧),114.518566,38.027811,0311,住宅区,0,0,小区
B2094752D56CAAFF419D,新合国际,仓丰路与仓兴街交叉口西南角(新平安医院东行300米路南),114.508307,37.992138,0311,住宅区,1,0,小区
B2094752D56DA3FD429A,翡翠家园,胜利大街与华新路交叉口北行50米路西,114.503417,38.064683,0311,住宅区,0,0,小区
B2094752D56CA6FC4899,福邸,桥西区裕华西口与城角街交口西行300米路北北行100米路西,114.43943,38.03687,0311,住宅区,0,0,小区
B2094750D569ABFB4598,志诚华府,石铜路与新石南路交叉口西北角,114.449072,38.009031,0311,住宅区,3,3,小区
B2094750D569AAF8469F,金世界,桥西区自强路与南小街交叉口(金谷大厦对面),114.483333,38.037647,0311,住宅区,7,5,小区
B2094750D569AAFA409B,金海雲庭,中华大街新华路交口西100米路北紧邻儿童活动中心,114.476113,38.048508,0311,住宅区,0,0,小区
B2094750D569AAFA429C,37度,石铜路与南二环交叉口东南角,114.444781,38.004384,0311,住宅区,5,2,小区
B2094750D569AAF4469F,阳光印象,石铜路过南二环南行800米路东,114.445005,38.001803,0311,住宅区,0,0,小区
B2094750D56AA3FC4898,宏基花园广场,石家庄联盟西路368号(高柱家具市场对面),114.464883,38.07875,0311,住宅区,5,3,小区
B2094750D56AAAFB479A,柏悦国际,中华南大街与新石南路交口北国超市东行50米路南,114.476595,38.008066,0311,住宅区,0,0,小区
B2094750D56AAAF54893,滨河悦秀,正定新区正定县南外环与成德街交口西北角,114.490585,38.044576,0311,住宅区,0,0,小区
B2094750D56BA2FB499F,尚水苑,新华西二环与翔翼路交叉口东北角(省边防总队东侧),114.437695,38.071699,0311,住宅区,4,3,小区
B2094750D56BA1FC4999,金水湾,桥西区红旗大街与南三环交口南行1500米路西,114.459085,38.003772,0311,住宅区,0,0,小区
B2094750D56BA1FF419C,佳地佳座,中山路与平安大街交口北行500米路东,114.501625,38.045252,0311,住宅区,0,0,小区
B2094750D56BA0FD4893,水岸名都,谈固大街南沿线与308国道交口东北角,114.548264,37.987504,0311,住宅区,0,0,小区
B2094750D56BA7FE4798,怀特翰墨儒林,育才街槐安路交口南行100米路西,114.52775,38.016823,0311,住宅区,58,43,小区
B2094750D56BA7F84793,华飞捷座,桥西中山路与西里街交叉口东南角,114.457071,38.042134,0311,住宅区,1,0,小区
B2094750D56BA6FB4293,华基君程,槐安路与平安大街交口西北角(东风路两侧),114.501239,38.023585,0311,住宅区,87,23,小区
B2094750D56BA5F8419A,乐橙商务广场,桥西槐安路与西二环交口西行100米路南,114.434701,38.02301,0311,住宅区,2,1,小区
B2094750D56BA5F8449A,万信缘溪豪庭,石家庄北城路35号(水上公园南临),114.458139,38.074058,0311,住宅区,4,2,小区
B2094750D56BA5F8459D,海龙湾,桥西红旗南大街与学院路西行200米,114.456723,38.003298,0311,住宅区,0,0,小区
B2094750D56BA4FB4298,玫瑰湾,建设大街与塔南路交叉口东行100米路北,114.515577,38.00613,0311,住宅区,1,1,小区
B2094750D56BAAFE429B,世纪公馆,裕华路与时光街交口东南角,114.428583,38.034098,0311,住宅区,0,0,小区
B2094750D564A3FD459B,军蔷苑,桥西西二环与槐安路交汇处东北角,114.437761,38.024692,0311,住宅区,0,0,小区
B2094750D564A3FE4793,纯棉时代,新石中路与石铜路交汇处路北,114.455566,38.014457,0311,住宅区,7,5,小区
B2094750D564A3F8419C,闻璟,苑东街与建国路交汇处东行100米路南,114.418831,38.036194,0311,住宅区,0,0,小区
B2094750D564A3F8429C,圣和城,新华集贸批发市场新华路地下双首层商铺西起中华大街至公里街,114.481788,38.047821,0311,住宅区,0,0,小区
B2094750D564A3F4489D,栗水清苑,建设大街与南二环交叉口南行500米路东,114.547749,37.996974,0311,住宅区,3,2,小区
B2094750D564A1F94299,福安门,桥西区新石北路与时光街交叉口西南角,114.427993,38.018429,0311,住宅区,194,0,小区
B2094750D564A0FD479E,良城御景,石家庄市南二环与石铜路交叉口南行200米路西,114.444934,38.003518,0311,住宅区,0,0,小区
B2094750D564A7FF479E,时代星城,桥西石铜路与南三环交口东南角,114.43133,37.993423,0311,住宅区,0,0,小区
B2094750D564A7FB429C,清华公馆,育才街与东岗路交口东北角,114.529188,38.015944,0311,住宅区,0,0,小区
B2094750D564A7F5499F,大乘公馆,桥东区裕华路与大径街交叉口东北角,114.497139,38.036577,0311,住宅区,0,0,小区
B2094750D564A6FF479D,旭东商务大厦,向阳路与大经街交口东南角,114.497309,38.049655,0311,住宅区,0,0,小区
B2094750D564A6F94698,水上丽景,新华友谊北大街319号,114.454433,38.072365,0311,住宅区,0,0,小区
B2094750D564A6FA409E,水岸江城,鹿泉中山路西三环新修迎宾翠屏路，南水北调西岸,114.489555,38.044847,0311,住宅区,0,0,小区
B2094750D564A5FC459D,元隆国际中心,桥东区光华路15号,114.509404,38.058716,0311,住宅区,0,0,小区
B2094750D564A5FF489E,金正君庭,桥东东风路123号(东风路与建设大街交口西行50米路北),114.511185,38.025647,0311,住宅区,1,0,小区
B2094750D564A5FB4799,万和上院,桥西新石南路与石铜路交叉口南行80米路东,114.449475,38.008201,0311,住宅区,0,0,小区
B2094656D365A3FF4792,供电局宿舍,胜利北街171号,114.50515,38.06443,0311,住宅区,1,1,小区
B2094656D365A3F84893,自来水公司宿舍,,114.48315,38.05173,0311,住宅区,1,0,小区
B2094656D365A2FD4993,邮电园西区,,114.50671,38.02362,0311,住宅区,0,0,小区
B2094656D365A2FE479B,孙村淳德园,,114.51232,38.01352,0311,住宅区,1,0,小区
B2094656D365A1FD4699,友谊公寓,,114.45083,38.0478,0311,住宅区,0,0,小区
B209475DD768ABFE4592,钟秀花园,新华区和平西路与友谊北大街交叉口北行200米路西,114.45324896,38.06138819,0311,住宅区,11,8,小区
B209475DD768A4FB469C,华贸中心,中华南大街与新石北路交口(国客酒店对面),114.47678816,38.01802192,0311,住宅区,0,0,小区
B209475DD768A4F94899,一中官邸,中山路与长征街交口北行30米路西,114.50527324,38.04416355,0311,住宅区,0,0,小区
B209475DD768A4FE4299,燕港美域,桥西区槐安路与时光街交口西行200米路北,114.42425965,38.02510635,0311,住宅区,1,1,小区
B209475DD768A5F54692,时光城,建通街与仓丰路交口南行500米路西,114.50007,37.990819,0311,住宅区,0,0,小区
B209475DD768A5FB4298,天水丽城二期,石家庄市桥西区时光街与新石北路交口,114.42830588,38.019027,0311,住宅区,0,0,小区
B209475DD768A5F94298,中大国际,和平路与新胜利大街交叉口北行500米路东,114.49942588,38.05581269,0311,住宅区,0,0,小区
B209475DD768A5FC449C,肯彤国际,建设大街与光华路交叉口北行100米路西,114.511034,38.059522,0311,住宅区,0,0,小区
B2094656D365A1FA4393,一建生活区(和平庄园东南),和平西路557,114.44841,38.06322,0311,住宅区,43,18,小区
B209475DD768A6F5439E,朝外中心,青园街与石栾路交叉口西南角,114.517622,38.001979,0311,住宅区,0,0,小区
B2094656D365A0FC4299,河北省机械供销公司家属院,友谊北大街130,114.45239,38.0525,0311,住宅区,0,0,小区
B2094656D365A2FA4092,石家庄市粮食机械厂宿舍,,114.50183,38.0101,0311,住宅区,0,0,小区
B2094656D365A2FF4699,河北省劳动保护教育中心宿舍,国泰街21,114.43965,38.05519,0311,住宅区,3,1,小区
B2094656D365A7FF4492,河北省物资学校宿舍,国泰街29,114.43957,38.05601,0311,住宅区,3,0,小区
B2094656D365A7F44998,包装公司宿舍,西三庄街8,114.44524,38.06671,0311,住宅区,0,0,小区
B2094656D365A6FD489E,铁路二十二宿舍,,114.47894,38.04451,0311,住宅区,0,0,小区
B2094656D365A7F5459B,蓝天小区,新石南路336,114.45001,38.00716,0311,住宅区,3,1,小区
B2094656D365A6F94998,殡管处宿舍,,114.45053,38.01169,0311,住宅区,12,6,小区
B2094656D365A6FB409A,体院宿舍,华清街65,114.53902,38.03091,0311,住宅区,0,0,小区
B2094656D365A6FB4999,市电信局小区,中华北大街74,114.47642,38.04927,0311,住宅区,0,0,小区
B2094656D365A5FE409F,小区(国客大酒店西南),,114.47663,38.01849,0311,住宅区,1,0,小区
B2094656D365A5F94792,以岭宿舍(河北省公路工程质量监督站东),振岗路118,114.44009,38.02132,0311,住宅区,50,3,小区
B2094656D365A5FB409B,橡胶三厂宿舍,仓兴街3,114.50845,38.00965,0311,住宅区,0,0,小区
B2094656D365A4FC4399,河北省五交化公司宿舍,石栾路16,114.5095,38.00906,0311,住宅区,0,0,小区
B2094656D365A5F4409D,轴承厂宿舍,市庄路23,114.48149,38.06378,0311,住宅区,0,0,小区
B2094656D365A4FA429D,东二教新村,,114.49446,38.01802,0311,住宅区,0,0,小区
B2094656D365A4FA4293,石家庄市燃料公司宿舍,,114.51156,38.03141,0311,住宅区,0,0,小区
B2094656D365A4FA499E,北焦宿舍楼六号院(北门),朝阳路66,114.45498,38.06884,0311,住宅区,0,0,小区
B2094656D365A4FB409D,建华商场宿舍(南门),塔南路19,114.49514,38.01182,0311,住宅区,1,0,小区
B2094656D365A4F4479E,桥东粮站宿舍(北门),光明路12,114.49266,38.03681,0311,住宅区,0,0,小区
B2094656D365A4F44999,河北科技出版社小区(东门),市庄路65,114.47929,38.06403,0311,住宅区,5,4,小区
B2094656D365A4F5409F,柏林庄园第一生活区(南门),,114.48304,38.07181,0311,住宅区,20,8,小区
B2094656D365A4F5409D,石家庄市化炭局家属院,,114.44796,38.04957,0311,住宅区,1,1,小区
B2094656D365A4F5479C,河北省外贸住宅小区(和平西路),,114.4457,38.05639,0311,住宅区,8,5,小区
B2094656D365A4F5499B,御景园(南门),,114.50396,38.0597,0311,住宅区,1,1,小区
B2094656D365ABFC439C,石家庄乳业集团公司宿舍(西三庄街),西三庄街15,114.44673,38.06555,0311,住宅区,41,10,小区
B2094656D365ABFC4993,栗新小区(南门),栗胜路65,114.49836,38.05116,0311,住宅区,0,0,小区
B2094656D365ABFD439A,体院宿舍(东门),华清街65,114.53959,38.03084,0311,住宅区,1,1,小区
B2094656D365ABFD4399,华夏家园B区(东门),,114.49552,38.02384,0311,住宅区,0,0,小区
B2094656D365ABFD439E,信通花园(南门),,114.48394,38.06682,0311,住宅区,1,0,小区
B2094656D365ABFD469A,元南小区(北门),建胜路28,114.49761,38.01981,0311,住宅区,2,0,小区
B2094656D365ABFD4799,国泰小区(西门),,114.48834,38.0218,0311,住宅区,0,0,小区
B2094656D365ABFD479C,世纪康居(东门),平安南大街46,114.50168,38.0311,0311,住宅区,2,1,小区
B2094656D365ABFE419A,胜利小区温馨园(南门),塔南路27,114.49627,38.01183,0311,住宅区,2,1,小区
B2094656D365ABFE449A,怀特嘉园(西门),,114.52885,38.02611,0311,住宅区,3,1,小区
B2094656D365ABFE449E,新华服装厂宿舍(西门),,114.47763,38.06179,0311,住宅区,0,0,小区
B2094656D365ABFE4698,邮电园西区(东门),,114.5068,38.02367,0311,住宅区,0,0,小区
B2094656D365ABFE4798,市有线广播电视台宿舍(北门),,114.50936,38.01979,0311,住宅区,0,0,小区
B2094656D365ABFF4099,石家庄市燃料公司宿舍(东门),,114.51169,38.03142,0311,住宅区,0,0,小区
B2094656D365ABF8439C,新华服装厂宿舍,中华北大街173,114.47845,38.06166,0311,住宅区,8,0,小区
B2094656D365ABF8459D,石家庄铁路地区第九单身职工宿舍,,114.48491,38.05535,0311,住宅区,0,0,小区
B2094656D368AAFB489B,北焦宿舍楼二号院,电大街69,114.45903,38.0656,0311,住宅区,1,0,小区
B2094656D369A0FA4992,世纪康居,平安南大街46,114.50096,38.03119,0311,住宅区,0,0,小区
B2094656D369A6F9489F,制镜厂宿舍,南长街49,114.48491,38.03242,0311,住宅区,1,1,小区
B2094656D369A6F9489C,宝仓苑,南长街49,114.48491,38.03241,0311,住宅区,3,1,小区
B2094656D369A6FA449A,二印生活小区,槐安西路23,114.48365,38.02541,0311,住宅区,1,0,小区
B2094656D36AA7F54499,铁路五十四宿舍,,114.50276,38.01266,0311,住宅区,177,118,小区
B2094656D36AABF84393,科技厅生活区,青园街225,114.51871,38.02592,0311,住宅区,154,123,小区
B2094656D36AAAF8419E,石家庄建设集团有限公司宿舍(石家庄市直机关幼儿园南),休门街62,114.50616,38.02708,0311,住宅区,0,0,小区
B209475DD768A6F84498,凌透花园2期,石丰路与天山大街北延线西北角,114.500885,38.043765,0311,住宅区,0,0,小区
B209475DD768A6FE4499,鑫界9号院,石家庄市桥西区时光街和振岗路交口,114.42889448,38.02155649,0311,住宅区,2,1,小区
B209475DD768A6FD409B,旺角国际,红旗大街与新石北路交口西行40米路南,114.47822571,38.02916266,0311,住宅区,0,0,小区
B2094656D36BA0F54693,二毛宿舍,,114.52011,38.01077,0311,住宅区,20,10,小区
B2094656D36BA7F44099,石家庄市城建职工中等专业学校宿舍,,114.50726,38.01944,0311,住宅区,0,0,小区
B2094656D364A2FC4698,东风小区(休门街),,114.50576,38.02653,0311,住宅区,225,8,小区
B2094656D36BABFD449F,石家庄市石棉制品厂宿舍,兴苑街29,114.53767,38.02615,0311,住宅区,2,2,小区
B2094656D36BABFD459B,石家庄市无线电三厂宿舍,兴苑街39,114.53785,38.02456,0311,住宅区,2,0,小区
B2094656D364A4FB409D,元南小区市土地局宿舍,建胜路26,114.49845,38.01931,0311,住宅区,2,1,小区
B2094656D364A4FB4093,胜利小区明珠园(南门),,114.49279,38.01174,0311,住宅区,1,0,小区
B2094656D364AAFE489D,食品二厂宿舍(西门),中华北大街193,114.4777,38.0659,0311,住宅区,0,0,小区
B2094656D364AAF94799,东风小区(东门),,114.5066,38.02665,0311,住宅区,0,0,小区
B2094656D364AAFF4198,商标印刷厂工艺美术总公司宿舍(东门),,114.50148,38.01695,0311,住宅区,0,0,小区
B2094656D364ABF8449A,河北省植保站宿舍,,114.53767,38.02809,0311,住宅区,0,0,小区
B2094656D06CA2F54198,西美小区,七星桥,114.56313,38.02286,0311,住宅区,665,326,小区
B2094757D16AA7F44093,国瑞园,建设北大街与胜利北大街南200米路西,114.51090765,38.069503293,0311,住宅区,757,311,小区
B2094656D06CA2FB499D,银龙小区,东二环与跃进路交叉口,114.57755,38.0505,0311,住宅区,850,337,小区
B2094656D36BA5FF469C,国际城(槐北路),槐北路416,114.56443,38.03152,0311,住宅区,419,199,小区
B2094656D36BA7FA4993,雅清苑,塔南路200号,114.56912,38.00547,0311,住宅区,1202,357,小区
B2094656D365A1FD449F,建明小区(谈固南大街),,114.56247,38.03801,0311,住宅区,410,159,小区
B2094757D56FA1FA459A,北城国际(南区),中国河北省石家庄市区丰收路,114.51907091,38.07170058,0311,住宅区,2912,1641,小区
B2094656D365ABFF499E,尚东绿洲,谈固大街东岗路,114.56639,38.01489,0311,住宅区,1069,473,小区
B2094656D36BA7FB419A,卓达书香园(塔南路),,114.55963,38.00658,0311,住宅区,1455,630,小区
B2094656D06CA2F9419D,安苑小区,方兴路77号,114.56726,37.99019,0311,住宅区,476,192,小区
B2094656D365A4F4489C,瑞国花园(北门),,114.55711,38.05422,0311,住宅区,138,43,小区
B2094656D365A0FB419E,银通小区(谈固东街),谈固东街132,114.57037,38.02864,0311,住宅区,200,88,小区
B2094656D364A3FE469C,华宸怡园,中山东路666,114.58406,38.04321,0311,住宅区,932,343,小区
B2094656D364ABFE489C,金马小区(谈固南大街),谈固南大街224号,114.56314,38.02765,0311,住宅区,590,166,小区
B2094656D365A2FA4393,国际名邸,石家庄胜利北大街和光华路交汇处,114.56191,38.03607,0311,住宅区,645,272,小区
B2094656D364ABFF419B,谈固新村(中山东路),中山东路600,114.57508,38.04382,0311,住宅区,503,161,小区
B2094656D365A5F84098,国大全城(希望绿洲公园东北),,114.57604,38.01495,0311,住宅区,672,212,小区
B2094757D16BA1F44392,石府小区,石家庄槐中路462号,114.551164,38.028956,0311,住宅区,277,68,小区
B2094656D06CA2F44292,亚龙花园,石家庄胜利北大街和光华路交汇处,114.55358,38.07148,0311,住宅区,851,318,小区
B2094757D16DABFA459E,冀兴尊园,长安区和平路和广安大街交叉口北侧,114.542876657,38.0510821625,0311,住宅区,379,154,小区
B2094656D36BA7F94992,东方观邸,谈固南大街161号,114.57334,38.01599,0311,住宅区,329,177,小区
B2094656D364ABFD4998,神兴小区(东岗路),东岗路132,114.5579,38.01511,0311,住宅区,266,61,小区
B2094757D16CA2FA4398,空中花园,桥东区石市翟营南大街与塔南路交叉口(六路终点站南行200米),114.55449906,38.00919818,0311,住宅区,8252,4093,小区
B2094656D36BA6FB4299,国际城(槐中路),裕华东路与谈固大街交汇处,114.571283,38.031583,0311,住宅区,2304,1005,小区
B2094757D56FA0F9409C,西美第五大道,中国河北省石家庄市区,114.56465603,38.02374756,0311,住宅区,4237,2383,小区
B2094656D36BAAFC4298,金谈固家园(中山东路),中山东路600号,114.57373,38.04444,0311,住宅区,2966,1319,小区
B2094656D365ABFF439B,中景.盛世长安,长安区和平东路与翟营大街交叉口西北角(紧邻和平世家),114.55053,38.05399,0311,住宅区,2444,1051,小区
B2094656D06CA1FC479E,书香华苑,和平路与建华大街交叉口,114.54471,38.05414,0311,住宅区,776,373,小区
B2094656D36BA7F94492,新天地自然康城,长安区塔北路99号,114.56038,38.01145,0311,住宅区,1816,1385,小区
B2094656D364A3FF4898,亚龙花园北翟营新村,石家庄胜利北大街和光华路交汇处,114.55737,38.06901,0311,住宅区,297,83,小区
B2094656D36BA7FA4093,小马新村,东岗路293,114.56079,38.01681,0311,住宅区,594,253,小区
B2094656D365ABFE469F,路劲蓝郡,长安区和平路和广安大街交叉口北侧,114.57597,38.0165,0311,住宅区,386,162,小区
B2094656D365A0F44792,新浩城,建设北大街261号,114.51309,38.06516,0311,住宅区,536,205,小区
B2094656D365ABF84193,水木青城(十里大街),,114.57524,38.07096,0311,住宅区,164,45,小区
B2094656D06CA1FD439A,石门小区,翟营大街326号,114.55287,38.02905,0311,住宅区,374,122,小区
B2094656D36BA6FB479B,美景东方,石家庄胜利北大街和光华路交汇处,114.57577,38.02602,0311,住宅区,404,179,小区
B2094757D064A6F54893,国际城一期,石家庄槐北路416号,114.563029,38.032518,0311,住宅区,188,88,小区
B2094656D365A4F9429E,金马国际,石家庄胜利北大街和光华路交汇处,114.55503,38.02228,0311,住宅区,76,22,小区
B2094656D365A0FF419C,依水苑,和平东路273号,114.54209,38.05871,0311,住宅区,233,116,小区
B2094656D365A2F94999,清木苑,跃进路与谈固北大街交叉口,114.56269,38.051567,0311,住宅区,343,110,小区
B2094656D364ABF9439B,白佛小区(中山东路),中山东路789号,114.58338,38.04481,0311,住宅区,127,47,小区
B2094656D365A2FA409B,和坊小区(建华北大街),,114.54316,38.04364,0311,住宅区,52,9,小区
B2094656D365A4F5499A,东方花园(石安高速入口),,114.58458,38.03656,0311,住宅区,109,73,小区
B2094757D168ABFC4099,华药一区,石家庄长安区谈南路与谈北路之间,114.530468,38.051125,0311,住宅区,202,52,小区
B2094656D36BA6F5419E,鑫科·摩卡小镇,石家庄鑫科·摩卡小镇,114.56999,38.02556,0311,住宅区,163,70,小区
B2094656D36AA5FE459B,润丰盛世家园,,114.59519,38.04074,0311,住宅区,70,20,小区
B2094656D36BAAF8449A,煤矿机一生活区,建华北大街15,114.54659,38.04844,0311,住宅区,242,93,小区
B2094656D36BA7FB489F,卓达卓东小区,,114.56512,38.00434,0311,住宅区,152,34,小区
B2094656D365A2F9469F,惠民·金桥水岸住宅小区,河北省石家庄市长安区华清北街,114.54248,38.06147,0311,住宅区,124,57,小区
B2094656D36BA2F44093,宏丰苑小区,丰收路62,114.52313,38.07056,0311,住宅区,188,69,小区
B2094656D36BA1F8449A,欧华园,光华路151,114.51866,38.05922,0311,住宅区,137,75,小区
B2094656D364A3FA489F,桐兴园,长安区石家庄市丰收路146号,114.53841,38.06914,0311,住宅区,174,67,小区
B2094656D364A3F4419F,金华小区,华清街15,114.53878,38.06142,0311,住宅区,90,49,小区
B2094757D56FA1FB449F,芝兰明仕,中国河北省石家庄市区,114.57254422,38.02495009,0311,住宅区,119,51,小区
B2094656D365ABFE479B,依水苑(北门),,114.54217,38.05901,0311,住宅区,27,8,小区
B2094656D364AAF5419E,卓达花园(塔南路),,114.5613,38.00606,0311,住宅区,111,40,小区
B2094656D364A5F9429F,谈固小区,中铁大厦东,114.55664,38.04049,0311,住宅区,163,97,小区
B2094750D569ABF4479E,冠城,和平路和育才街(谈北路)交叉口,114.527076,38.051105,0311,住宅区,336,185,小区
B2094656D365ABFE4592,金谈固家园(北门),,114.57369,38.04978,0311,住宅区,112,64,小区
B2094656D364ABFE4999,国际城(南侧门),槐中路433,114.56399,38.02978,0311,住宅区,91,24,小区
B2094656D365A0FE419C,豪景丽园,煤机街116,114.54964,38.03004,0311,住宅区,140,39,小区
B2094656D369A5F8449A,瑞特家园(槐安西路),,114.48036,38.02519,0311,住宅区,66,7,小区
B2094656D365AAF4469F,丽日青城,长安区和平路和广安大街交叉口北侧,114.55567,37.99331,0311,住宅区,86,33,小区
B2094656D36BA5FD479F,龚尚嘉苑,石家庄裕华东路191号,114.57246,38.0376,0311,住宅区,108,60,小区
B2094656D365A4F4469C,宏丰苑(北门),丰收路62,114.52318,38.07161,0311,住宅区,47,2,小区
B2094656D365A0F9469D,恒泰德钰名邸,建华南大街199,114.54701,38.03189,0311,住宅区,89,54,小区
B2094656D06CA1FD489F,盛世花园,仓兴街与仓盛路交叉口,114.50463,37.97476,0311,住宅区,60,19,小区
B2094656D364AAF5479D,二十里铺社区(金铺苑),,114.5809,38.02725,0311,住宅区,98,40,小区
B2094656D365A4FC489D,华北制药集团一生活区,,114.53163,38.04826,0311,住宅区,17,0,小区
B2094656D365ABFF4898,翼凌花苑,长安区西部丰收路32号,114.5173,38.07207,0311,住宅区,92,17,小区
B2094656D365ABFE419C,同馨苑(东门),建设北大街246,114.51135,38.06811,0311,住宅区,53,2,小区
B2094750D66FABFB4798,中山华府,石家庄，大经街,114.49501,38.036605,0311,住宅区,202,77,小区
B2094656D364A4FB429C,东平小区(平安南大街),,114.50172,38.01605,0311,住宅区,324,133,小区
B2094656D36BA5F4419C,省直东苑小区,槐北路392,114.55235,38.03188,0311,住宅区,317,151,小区
B2094656D36BA7FA499D,石家庄市位同,,114.57741,38.00839,0311,住宅区,18,2,小区
B2094656D36AA6FC4499,国储河北一三五处生活区,,114.49917,38.01694,0311,住宅区,125,43,小区
B2094656D06CA3FC489B,亲亲蜜糖,长安区建华北大街398号(月季花园东郊),114.54494,38.0751,0311,住宅区,22,9,小区
B2094656D365A4FB4192,热电厂宿舍(和平东路),,114.53023,38.05283,0311,住宅区,27,6,小区
B2094656D365A5FA4992,恒都·彩虹源,槐岭路189,114.57218,38.02779,0311,住宅区,69,26,小区
B2094656D36BA4FF409F,尖岭新村,东明商68号,114.54828,38.0285,0311,住宅区,61,29,小区
B2094656D36BA5FB479A,江山花园,裕华东路406号,114.55155,38.0357,0311,住宅区,40,14,小区
B2094656D364A3F54899,十里华庭,,114.572,38.07127,0311,住宅区,62,27,小区
B2094656D06CA3F8489C,蓝湾·新街坊,富强大街168号(富强公寓对面),114.5233,38.02305,0311,住宅区,6,0,小区
B2094656D365ABFE499D,平安生活小区南区(东门),,114.50762,38.01686,0311,住宅区,102,26,小区
B2094656D365ABFD479B,金裕花园(东门),,114.48416,38.03747,0311,住宅区,6,0,小区
B2094656D365ABFD439D,石府二区(东门),,114.50008,38.05865,0311,住宅区,45,20,小区
B2094656D365ABFC4498,惠民·水岸金桥住宅小区(西门),,114.54117,38.06143,0311,住宅区,20,9,小区
B2094656D365A4FB449A,清馨苑(东岗路),东岗路12,114.52175,38.01469,0311,住宅区,106,46,小区
B2094656D36BA7FB4793,书香园二区,,114.5574,38.00785,0311,住宅区,30,8,小区
B2094656D36BA0F4449B,中国邮政培训中心公寓,,114.53167,38.01878,0311,住宅区,36,15,小区
B2094656D365ABF8479B,卓东花园,翟营南大街389号,114.56624,38.00414,0311,住宅区,38,7,小区
B2094656D364A3F94098,众诚百合园,建华北大街与光华路交叉口,114.54801,38.05974,0311,住宅区,97,23,小区
B2094656D364A4FE429E,华夏家园B区,,114.49507,38.02389,0311,住宅区,17,6,小区
B2094656D365A5FE449A,省粮油所宿舍,槐北路与谈固南大街交叉口东兴200米路北,114.565451,38.033811,0311,住宅区,31,4,小区
B2094750D26AABFB459B,冠城苑,,114.526245,38.051841,0311,住宅区,11,1,小区
B2094757D56FA5FD449A,芝兰明仕(西门),中国河北省石家庄市区谈固东街,114.57110677,38.02486654,0311,住宅区,14,6,小区
B2094656D365ABFE4799,滨江国际(北门),,114.50707,38.04176,0311,住宅区,9,1,小区
B2094656D365ABFD4293,谈后小区(南门),谈北路19,114.5203,38.051,0311,住宅区,23,14,小区
B2094656D365ABFD4098,北后小区颐和居(西门),北大街53,114.48751,38.05031,0311,住宅区,56,15,小区
B2094656D365ABFC4392,河北省财政厅裕西小区(西门),,114.48093,38.03272,0311,住宅区,13,5,小区
B2094656D365A4F5459E,河北电视台生活小区(北门),,114.54393,38.03553,0311,住宅区,12,1,小区
B2094656D365A4F54492,东三教新村(西门),,114.48923,38.01801,0311,住宅区,47,15,小区
B2094757D56EAAFA4392,银龙小区南区(北门),中国河北省石家庄市区,114.57931044,38.04987088,0311,住宅区,10,2,小区
B2094656D365A1FC419C,园东苑,谈北路2,114.51807,38.05033,0311,住宅区,16,6,小区
B2094656D365ABFE4993,金谈固家园(南门),,114.57373,38.04402,0311,住宅区,11,1,小区
B2094656D06CA3FC4999,汇翠花园,,114.50845,38.0411,0311,住宅区,28,15,小区
B2094656D36AA7F4439C,东丹庭苑,平安大街南头佳农市场,114.49612,38.00722,0311,住宅区,76,38,小区
B2094656D36BAAFA499F,钢西小区,翟营大街与跃进路交叉口,114.55565,38.04703,0311,住宅区,6,2,小区
B2094656D36AA4FC429D,八家庄公寓,建设北大街228,114.51106,38.06414,0311,住宅区,41,15,小区
B2094656D06CA1FE489A,瑞国花园,和平东路与翟营大街交叉口,114.56157,38.05734,0311,住宅区,17,2,小区
B2094656D365A3F9479E,华北制药集团二生活区(广天大厦西南),,114.53899,38.04901,0311,住宅区,5,2,小区
B2094656D365A1FE499C,石家庄北公寓,大桥路6号,114.49086,38.04594,0311,住宅区,4,0,小区
B2094656D365A6F4459F,水泵厂宿舍(煤机街),,114.54991,38.04043,0311,住宅区,27,9,小区
B2094656D365ABFC459E,君泽苑(北门),,114.49451,38.03343,0311,住宅区,9,4,小区
B2094656D36BA4FD429A,石铁五十九宿舍,,114.55009,38.03996,0311,住宅区,13,9,小区
B2094656D365A4F5449B,瑞特家园(南门),,114.48133,38.02512,0311,住宅区,8,1,小区
B2094750D569AAF9469B,金域蓝湾,裕华区槐安路与翟营南大街交叉口东南角,114.555599,38.02245,0311,住宅区,277,142,小区
B2094656D36BA5F84792,裕东小区(谈固西街),谈固西街143号,114.55762,38.03384,0311,住宅区,105,36,小区
B2094656D36BA7F9499F,顺驰蓝郡,谈固东街与东二环交叉口,114.57595,38.01696,0311,住宅区,25,11,小区
B2094656D36AA4F8439E,博文家园,学苑路19-18,114.58442,38.02077,0311,住宅区,18,4,小区
B2094656D365A1FD4598,荣国花园(谈固南大街),谈固南大街12,114.56169,38.0419,0311,住宅区,67,29,小区
B2094656D365ABF84699,常青园,体育大街与光华路交叉口东北角,114.53309,38.05962,0311,住宅区,26,13,小区
B2094656D06CA2FA4493,东兴小区,建明中路37号,114.56387,38.04017,0311,住宅区,57,32,小区
B2094656D364AAFA4193,河北行政学院西家属院,,114.55511,38.02829,0311,住宅区,21,7,小区
B2094656D364AAF8479B,水泵厂宿舍(西门),,114.55071,38.04231,0311,住宅区,1,0,小区
B2094656D364AAFD499C,中南小区(南门),,114.47936,38.00473,0311,住宅区,28,12,小区
B2094656D364A4FF4199,石家庄电业局职工宿舍(中华南大街),中华南大街319,114.47815,38.0296,0311,住宅区,50,18,小区
B2094656D36BA4FE429C,儿童医院生活区,长安区裕华东路120号,114.54852,38.0355,0311,住宅区,6,0,小区
B2094656D36BA0FA449C,国防小区,,114.51342,38.01745,0311,住宅区,2,1,小区
B2094656D36AABFB459C,省医科院宿舍,槐北路165,114.52659,38.03264,0311,住宅区,10,2,小区
B2094656D36AABFE409E,省水勘院宿舍,槐中路135,114.51578,38.02908,0311,住宅区,72,20,小区
B2094656D36AA7F9459F,中南社区,,114.48036,38.00643,0311,住宅区,45,20,小区
B2094656D364ABFF4699,石门小区紫景园(侧门),,114.55122,38.02727,0311,住宅区,6,1,小区
B2094656D364AAFF409D,河北师大学生公寓(北门),,114.52468,38.02841,0311,住宅区,6,1,小区
B2094656D364AAF4409F,一印宿舍(谈北路),,114.52402,38.05106,0311,住宅区,61,33,小区
B2094750D564A1FE449F,石家庄观天下,东二环与北二环交叉口北行100米路东,114.580793,38.070976,0311,住宅区,1,0,小区
B2094750D569ABFB4699,中城星月湖,槐中路与东二环交口西北处,114.576496,38.029965,0311,住宅区,61,16,小区
B2094656D06CA3F9429C,亲亲荷院,建华大街398号,114.53812,38.07798,0311,住宅区,5,0,小区
B2094656D365A0F94399,大明公寓,建明中路35,114.56692,38.04153,0311,住宅区,91,56,小区
B2094656D365A2FE4693,阳光361,槐岭路191,114.57588,38.02717,0311,住宅区,34,14,小区
B2094656D365A3FB489E,阀门二厂宿舍,跃进路和翟营大街交叉口,114.55619,38.05002,0311,住宅区,3,1,小区
B2094656D36AA5F84192,建北生活小区,华新路73号,114.50893,38.06433,0311,住宅区,25,8,小区
B2094656D36AA5FE409D,颐馨园,河北省 石家庄市 胜利北街185号,114.50618,38.06597,0311,住宅区,77,38,小区
B2094757D06BA5FB409F,墙's 宿舍,石家庄同邮电xxx宿舍…,114.55642674,38.018347736,0311,住宅区,16,6,小区
B2094656D369A6F94698,博士专家楼,裕华西路38,114.48258,38.03479,0311,住宅区,38,17,小区
B2094656D365A3FA449A,河北城建学校家属院,,114.55551,38.01819,0311,住宅区,12,5,小区
B2094750D564A4F94699,盛邦大都会,建设大街与东岗路交叉口东南角,114.510756,38.006714,0311,住宅区,193,49,小区
B2094750D569AAFB4592,中城香槟郡,槐北路与谈固东街交叉口西北角,114.570964,38.033226,0311,住宅区,241,106,小区
B2094750D569ABFB479B,公园首府,塔北路与谈固东街(希望绿洲公园东临),114.571006,38.012179,0311,住宅区,190,109,小区
B2094656D365A4F5469A,平安小区碧海园(西门),,114.50424,38.01873,0311,住宅区,1,0,小区
B2094656D365ABF8439E,富强小区(青园街),东岗路10,114.52069,38.01432,0311,住宅区,57,18,小区
B2094656D365A4FA499A,河北税校宿舍(晨光路),新石南路179,114.46249,38.00845,0311,住宅区,10,3,小区
B2094656D36AA0FF489B,河北经贸大学教工宿舍,新石南路203,114.45793,38.0089,0311,住宅区,22,17,小区
B2094656D365A2FD469B,圣雪良园,翟营大街339号,114.5559,38.01347,0311,住宅区,29,7,小区
B2094656D364ABFF4899,河北省水利工程局宿舍,,114.54653,38.04156,0311,住宅区,28,10,小区
B2094656D36BA4FD449F,石家庄市税务局宿舍,建明南路15,114.54817,38.03895,0311,住宅区,5,1,小区
B2094656D364A3F4419C,秀水苑小区,光华路民心河交叉口,114.54003,38.06235,0311,住宅区,24,16,小区
B2094656D36BA4FB439B,长安区政府宿舍,建明南路5,114.54435,38.03912,0311,住宅区,7,2,小区
B2094656D36BA0FE489B,家乐园,富强大街与槐安路交叉口,114.52468,38.01646,0311,住宅区,6,5,小区
B2094656D36AAAFC4193,怀特嘉园,育才街235,114.52922,38.02612,0311,住宅区,8,4,小区
B2094656D36AA4FC419E,同馨苑,建设北大街246,114.51002,38.06779,0311,住宅区,5,2,小区
B2094750D569AAFD409D,石家庄凯旋城,仓丰路与胜利南大街交叉口南行200米路东,114.50962,37.993827,0311,住宅区,5,2,小区
B2094750D569ABF54299,北京城建和平时光,长安区建华北大街与和平东路交口东北处,114.548164,38.055748,0311,住宅区,164,79,小区
B2094656D365A6F44998,荣兴小区,翟营大街与槐中路东北角,114.55524,38.030926,0311,住宅区,4,2,小区
B2094656D365A7F9469C,化建小区,丰收路126,114.53668,38.069832,0311,住宅区,3,0,小区
B2094750D564A5F54192,恒大名都,裕华塔南路188号(塔南路和翟营南大街交汇口西南角),114.554229,38.005344,0311,住宅区,63,37,小区
B2094656D365A0FF4893,建国商住楼,北宋路与煤机街交叉口,114.5489,38.04673,0311,住宅区,1,0,小区
B2094656D364A4F4499E,槐底村(东门),,114.52826,38.02555,0311,住宅区,9,3,小区
B2094750DB6FABF9459F,建华家园,石家庄市建华大街,114.542892,38.063602,0311,住宅区,194,64,小区
B2094656D36AA5F8479C,华新园,华新路19,114.50759,38.06381,0311,住宅区,0,0,小区
B2094656D36AAAF5489C,栗康园,栗康街100,114.50736,38.05171,0311,住宅区,1,0,小区
B2094750D569ABFB449A,简筑,长安区翟营大街与跃进路交叉口西北角,114.552718,38.050309,0311,住宅区,224,153,小区
B2094656D365A1F84298,交通局宿舍,栗康街102号,114.5074,38.05257,0311,住宅区,2,0,小区
B2094656D365A3FD429B,化肥厂第一生活区(育才街),和平东路372,114.5285,38.05313,0311,住宅区,6,3,小区
B2094656D365A2FF4698,河北省建设勘察研究院2、7号楼家属院,北宋路17,114.5486,38.04674,0311,住宅区,0,0,小区
B2094656D365A5FE439A,河北省盐务局宿舍(体育南大街),体育南大街381号,114.53411,38.01197,0311,住宅区,2,1,小区
B2094656D369AAFD449F,北后小区颐和居,北大街53,114.48792,38.05024,0311,住宅区,10,5,小区
B2094656D36BA0F8499A,青南社区,石家庄青园街369号,114.51955,38.0081,0311,住宅区,72,13,小区
B2094656D36BA0FF499C,青园街418号院宿舍,青园街418号,114.51762,38.01581,0311,住宅区,7,0,小区
B2094656D06CA2FA4792,卓达小区,,114.55943,38.01098,0311,住宅区,90,57,小区
B2094656D36BA4FD4598,无线电一厂宿舍,建明南路13,114.54724,38.03896,0311,住宅区,3,0,小区
B2094656D36BABFB4092,化工厂宿舍(谈固北大街),,114.56098,38.05305,0311,住宅区,0,0,小区
B2094656D365A7FE4192,正三街宿舍,新石中路176,114.46176,38.01257,0311,住宅区,26,3,小区
B2094656D365A4F44799,百可园(北门),,114.49269,38.01146,0311,住宅区,3,1,小区
B2094656D365ABFC4192,省话剧院生活区(北门),,114.52175,38.03171,0311,住宅区,1,0,小区
B2094656D365ABFD409E,常青园(南门),,114.53298,38.05922,0311,住宅区,10,6,小区
B2094656D365ABFD429B,金恒花园(北门),健康路8号,114.50573,38.05034,0311,住宅区,0,0,小区
B2094656D365ABFD4292,泰和居(南门),槐北路29,114.51372,38.03195,0311,住宅区,0,0,小区
B2094656D06CA2F94993,博闻小区,,114.58472,38.02343,0311,住宅区,1,0,小区
B2094656D364ABFD469A,电业小区(四十三中学东南),东岗路32,114.52999,38.01536,0311,住宅区,43,19,小区
B2094656D364ABFF449C,河北省测绘局宿舍(北门),,114.55323,38.04313,0311,住宅区,1,0,小区
B2094656D365ABFE4099,十二化建第二生活区(西门),,114.5335,38.02947,0311,住宅区,1,0,小区
B2094656D365ABFE469A,新浩城(北门),,114.51315,38.06538,0311,住宅区,48,9,小区
B2094656D36AAAF54593,河北省石家庄市总工会宿舍院,华平胡同2,114.50695,38.05376,0311,住宅区,4,4,小区
B2094656D06CA2FA409A,博雅小区,,114.50683,38.05859,0311,住宅区,0,0,小区
B2094656D06CA2FB499F,银龙小区西,,114.57625,38.05007,0311,住宅区,0,0,小区
B2094757DA6BA3FB4399,财富主场,中山东路39号(中山路与长征街东北角),114.480795,38.035104,0311,住宅区,0,0,小区
B2094753D16FA5F84299,泽美毓秀(万达店),长安区建华大街(近槐中路),114.5484,38.02861,0311,住宅区,0,0,小区
B209475DD768A6FD469F,慧谷国际,开发区黄河大道与祁连街交口东南角,114.500885,38.043765,0311,住宅区,0,0,小区
B2094656D06CA2F4479E,祥龙花园,东风路206,114.51473,38.02432,0311,住宅区,11,10,小区
B2094656D36AABF4439B,方佳苑,,114.53147,38.03227,0311,住宅区,0,0,小区
B2094454D26CAAFE469A,坚果社区,谈固大街北二环交口东南角,114.55650329,38.04713165,0311,住宅区,0,0,小区
B209475DD46EABF94693,石家庄石铁家园社区,,114.48303,38.02107,0311,住宅区,3,3,小区
B209475DD46EABFA419E,石家庄东方官邸社区,,114.57255,38.01523,0311,住宅区,0,0,小区
B209475DD46EA4F9419D,石家庄嘉实泊岸社区,,114.4735,38.0253,0311,住宅区,0,0,小区
B209475DD46EA4FB4993,石家庄沁雅苑社区,,114.51831,38.01512,0311,住宅区,0,0,小区
B209475DD46EA4FD479D,石家庄银海花园社区,,114.48728,38.05174,0311,住宅区,0,0,小区
B209475DD768A2F9439F,怀特芙蓉郡,裕华区槐安路与育才街交叉口南行100米路西,114.529939,38.017162,0311,住宅区,0,0,小区
B209475DD768A5FB4499,光华里,光华路转电厂街北行100米(华药玻璃分厂改造),114.539273,38.060713,0311,住宅区,0,0,小区
B2094750D564A6F44299,汇龙国际公馆,中华大街与新石南路交口西南角,114.476767,38.007796,0311,住宅区,0,0,小区
B2094750D569AAFE499D,康华家园,翟营南大街和方兴路交叉口东北角离南二环1公里处,114.556484,37.990494,0311,住宅区,0,0,小区
B2094753DA6FA2FB419B,秀水城,和平东路183号,114.556675,38.055086,0311,住宅区,0,0,小区
B2094753DA6FA2FB4298,福郡,新华东路199号,114.48005,38.043714,0311,住宅区,0,0,小区
B2094753DA6FA2FB429C,卓达新城,塔南路翟营大街交口,114.560387,38.006206,0311,住宅区,0,0,小区
B2094753DA6FA2FB439C,地矿局宿舍,谊联街9号,114.537556,38.027439,0311,住宅区,0,0,小区
B2094753DA6FA2FB4498,三教堂新村,东二环南二环交叉口,114.531291,38.006747,0311,住宅区,2,2,小区
B2094753DA6FA2FB449E,红番区,煤市街与胜利大街交口,114.492795,38.040943,0311,住宅区,0,0,小区
B2094753DA6FA2FB459A,维西小区,支农路40号,114.469879,38.031242,0311,住宅区,0,0,小区
B2094753DA6FA2FB459F,梅园小区,西兆通镇政府对面,114.563842,38.039997,0311,住宅区,0,0,小区
B2094753DA6FA2FB459D,仓安路275号,仓安路275号,114.470104,38.025115,0311,住宅区,0,0,小区
B2094753DA6FA2FB4693,城南印象,红旗大街南头西行,114.458302,38.003763,0311,住宅区,0,0,小区
B2094753DA6FA2F44299,盛世长安,和平路与翟营大街交叉口西北角,114.489364,38.043445,0311,住宅区,0,0,小区
B2094753DA6FA2F4439B,兴达小区,和平路161号,114.489364,38.043445,0311,住宅区,0,0,小区
B2094750D56AA3FE489C,领世郡,裕华路和东二环交口西北角,114.575086,38.03785,0311,住宅区,4,1,小区
B2094750D56AA3FF409B,富沁园,青园街347号，东岗路和青园街交口东南(邻近民心河),114.518952,38.014457,0311,住宅区,1,1,小区
B2094750D56AA4F5409B,源璟,裕华东路与东二环交口东200米路北,114.578913,38.037402,0311,住宅区,0,0,小区
B2094750D56BA3FF4998,SOHO前程,建设大街与塔南路交叉口东南角,114.513309,38.00515,0311,住宅区,0,0,小区
B2094750D56BA6FE499F,国际丽都,裕华东路与谈固南大街交口东行100米路南,114.563541,38.03611,0311,住宅区,1,1,小区
B2094750D564A3FF4799,上上东,和平路与东二环交叉口西北角,114.5775,38.05534,0311,住宅区,0,0,小区
B2094750D564A6FE449B,源筑,裕华青园街和东岗路东南角,114.519339,38.014761,0311,住宅区,0,0,小区
B2094750D564A6F8439C,龙鼎天悦,长安谈固东街与跃进路交叉口西行200米,114.566803,38.051606,0311,住宅区,0,0,小区
B2094750D564A6F84798,天洲沁园,长安区北二环以南，建华大街以东,114.55204,38.072349,0311,住宅区,5,1,小区
B2094750D564ABFF419C,御景阁,北二环高营大街19号,114.564228,38.076677,0311,住宅区,1,0,小区
B2094750DB6EAAFD4092,摩卡小镇,谈固东街与槐安路交叉口北行100米,114.571141,38.023511,0311,住宅区,1,1,小区
B2094753DA6EA5F94299,化肥四区,胜利北街柳辛庄,114.528179,38.053076,0311,住宅区,1,0,小区
B2094753DA6EA5F9449D,第七医院宿舍,建明中路,114.551589,38.04025,0311,住宅区,0,0,小区
B2094753DA6EA5F9499E,温馨家园,东二环北二环交叉口,114.553971,38.050474,0311,住宅区,0,0,小区
B2094753DA6EA3FB419E,尹泰花园二期,红旗大街与南二环交叉口,114.467797,37.99136,0311,住宅区,1,1,小区
B2094753DA6EA3FB4392,怡情雅居相和园,建华北大街与丰收路交口鼎坚五金市场西北角,114.54571,38.070325,0311,住宅区,0,0,小区
B2094753DA6EA2F8429E,纺织局宿舍,合作路288号,114.501175,38.043123,0311,住宅区,0,0,小区
B2094753DA6EA2F8439A,冀达颐园,胜利北街185号,114.505734,38.066372,0311,住宅区,0,0,小区
B2094753DA6EA2F8449D,谈固国瑞城,中山东路与谈固南大街交叉口,114.563842,38.044914,0311,住宅区,109,49,小区
B2094753DA6EA2F8469A,铁路61宿舍,中华大街与南二环交叉口,114.479256,38.005902,0311,住宅区,1,0,小区
B2094753DA6EA2F84692,优盘,中华大街与工农路交叉口,114.474792,38.030127,0311,住宅区,0,0,小区
B2094753DA6EA2F8499A,宝仓小区,槐安路与南长街交叉口,114.482024,38.023551,0311,住宅区,0,0,小区
B2094753DA6EA2F94498,建胜小区,建设大街交槐安路,114.510015,38.019858,0311,住宅区,0,0,小区
B2094753DA6EA2F94598,行政学院宿舍,翟营大街287号,114.55734,38.028191,0311,住宅区,0,0,小区
B2094753DA6EA2FA429D,水岸长安,石黄高速北紧邻规划中太行大街和三环路,114.540657,38.06198,0311,住宅区,0,0,小区
B2094753DA6EA2FA439F,东货场宿舍,光华路电厂街,114.524714,38.059614,0311,住宅区,0,0,小区
B2094753DA6EA2FA449F,东塑小区,支农路9号,114.468334,38.030769,0311,住宅区,1,0,小区
B2094753DA6EA2FA459B,亚太宿舍,青园街与槐中路交叉口,114.517332,38.028715,0311,住宅区,1,0,小区
B2094753DA6EA2FC469B,邮电宿舍,东风路和建设大街交叉口,114.529188,38.039794,0311,住宅区,0,0,小区
B2094753DA6EA2FC479A,铁路26宿舍,裕华路中华大街交口东行200米,114.461178,38.00427,0311,住宅区,0,0,小区
B2094753DA6EA2FD419B,怀特小区,体育大街槐中路交叉口,114.528641,38.02618,0311,住宅区,1,0,小区
B2094753DA6EA2FD4293,卓达书香园三期,翟营南大街与塔南路交叉口,114.559937,38.005057,0311,住宅区,1,1,小区
B2094753DA6EA2FD459F,卓达太阳城阳光美墅,体育南大街与三环交叉口,114.538779,37.983006,0311,住宅区,2,2,小区
B2094753DA6EA2FD479C,易居世家,建明中路35号,114.564078,38.042599,0311,住宅区,0,0,小区
B2094753DA6EA2FE4598,华宸美地,中山东路666号,114.577307,38.044652,0311,住宅区,0,0,小区
B2094753DA6EA2FE4693,二机厂宿舍,翟营大街南二环外,114.558413,37.98999,0311,住宅区,0,0,小区
B2094753DA6EA2FE499C,人大宿舍,槐北路355号,114.544981,38.033338,0311,住宅区,0,0,小区
B2094753DA6EA2FF4098,焦化厂宿舍,北宋路262号,114.555559,38.046215,0311,住宅区,0,0,小区
B2094753DA6EA2FF479F,碧水青园II期,青园街与东岗路交叉口,114.517944,38.013958,0311,住宅区,1,0,小区
B2094753DA6EA1F84198,安联洋房,华药东街和光华路交口,114.532449,38.059488,0311,住宅区,0,0,小区
B2094753DA6EA1F84293,核四院生活区,槐安路与体育大街交叉口,114.534252,38.022926,0311,住宅区,2,1,小区
B2094753DA6EA1F8479E,亲亲家园,建华大街与北二环交叉口,114.54467,38.078182,0311,住宅区,3,2,小区
B2094753DA69A7FC449D,腾跃园,槐安路356号,114.561675,38.025732,0311,住宅区,0,0,小区
B2094753DA69A7FC4493,颐和居,新华区福源街12号,114.487356,38.050119,0311,住宅区,0,0,小区
B2094753DA6EA2FA4998,河纺南院,中山路与建华大街交叉口,114.548864,38.046536,0311,住宅区,0,0,小区
B2094753DA6EA2FB4099,永壁新村,石铜路交南二环,114.456425,37.987843,0311,住宅区,0,0,小区
B2094753DA6EA2FB4593,翟营大街47号,翟营大街47号,114.555495,38.056996,0311,住宅区,0,0,小区
B2094753DA6EA2FB469C,27中宿舍,谈固西街槐中路附近,114.557179,38.028132,0311,住宅区,0,0,小区
B2094753DA6EA2FB4693,外贸局宿舍新浩城附近,外贸街7号,114.517257,38.061895,0311,住宅区,0,0,小区
B2094753DA6EA2FB4993,阳光华苑,槐中路99号,114.50994,38.028419,0311,住宅区,0,0,小区
B2094753DA6EA2F44198,二十里铺粮站宿舍,裕华路与东二环交口,114.575418,38.037859,0311,住宅区,0,0,小区
B2094753DA6EA2F4439C,棉五生活区,和平路59号,114.506764,38.054748,0311,住宅区,0,0,小区
B2094753DA6EA2F4449F,Mini工社,南花园步行街,114.483397,38.042058,0311,住宅区,0,0,小区
B2094753DA6EA2F4469F,省工商局宿舍,体育大街槐岭路西行50米路北,114.525508,38.028462,0311,住宅区,0,0,小区
B2094753DA6EA2F4479F,冶建宿舍,翟营大街与槐安路交叉口,114.555269,38.023163,0311,住宅区,0,0,小区
B2094753DA6EA2F4479D,温塘华域城,温塘镇东入口处石闫公路南侧,114.484373,38.033338,0311,住宅区,0,0,小区
B2094753DA6EA2F54398,新源国际财富中心,中山东路北侧,114.49757,38.044171,0311,住宅区,0,0,小区
B2094753DA6EA2F5449E,卓希小区卓达书香园二期,裕华区翟营大街389号,114.558821,38.01067,0311,住宅区,0,0,小区
B2094753DA6EA2F5459C,国大公寓,建设北大街与光华路交叉口,114.513395,38.059378,0311,住宅区,0,0,小区
B2094753DA6EA2F5479D,银通东华园,槐中路614号,114.572318,38.029231,0311,住宅区,0,0,小区
B2094753DA6EA2F5499F,钢西东区,翟营大街跃进路交叉口,114.570107,38.049772,0311,住宅区,0,0,小区
B2094753DA6EA1FC4398,学府园,体育南大街409号,114.536591,38.062115,0311,住宅区,0,0,小区
B2094753DA6EA1FC449E,金世界中央新城,自强路与南小街交叉口,114.482732,38.039506,0311,住宅区,0,0,小区
B2094753DA6EA1FC459A,东塑宿舍,支农路民心河,114.463044,38.025208,0311,住宅区,0,0,小区
B2094753DA6EA1FC479B,上京心港湾,建华北大街与和平东路交口东北处,114.546568,38.054596,0311,住宅区,0,0,小区
B2094753DA6EA1FC479D,广电小区,青园街150号,114.544187,38.03545,0311,住宅区,5,0,小区
B2094753DA6EA1FD429C,税务学校宿舍,新石南路176号,114.462433,38.008709,0311,住宅区,2,1,小区
B2094753DA6EA1FD459A,开博公寓,中山路与体育大街交口,114.536591,38.042548,0311,住宅区,0,0,小区
B2094753DA6EA1FD4593,圣雪小区,翟营大街339号,114.555205,38.013366,0311,住宅区,0,0,小区
B2094753DA6EA1FD469F,省中医院宿舍,槐中路与建华大街交叉口,114.54777,38.027118,0311,住宅区,1,0,小区
B2094753DA6EA1FD4792,香榭里三期,槐安路与平安大街交叉口,114.503825,38.0475,0311,住宅区,1,1,小区
B2094753DA6EA1FE439B,金茂商城,阜康路12号,114.508395,38.045556,0311,住宅区,0,0,小区
B2094753DA6EA1FE469B,金马北区,谈固南大街与槐中路交叉口,114.561074,38.028521,0311,住宅区,0,0,小区
B2094753DA6EA1FE479A,华清家园,和平路与民心河交叉口,114.552587,38.054884,0311,住宅区,1,0,小区
B2094753DA6EA1FF409E,华药六区,槐北路翟营大街交叉口,114.554948,38.035873,0311,住宅区,0,0,小区
B2094753DA6EA1FF439B,22中宿舍,翟营大街与建明南路交叉口,114.556224,38.00657,0311,住宅区,4,4,小区
B2094753DA6EA1FF4592,东方热电宿舍,建华大街与槐中路交叉口,114.545517,38.03322,0311,住宅区,0,0,小区
B2094753DA6FA2F44399,京元大厦,中山路与休门街交口东行100米路南,114.489364,38.043445,0311,住宅区,0,0,小区
B2094753DA6FA2F4439C,铁路52宿舍,南环大桥东行100米,114.489364,38.043445,0311,住宅区,0,0,小区
B2094753DA6FA2F44392,逸格,平山县柏坡东路与蒲胜大街交叉口,114.489364,38.043445,0311,住宅区,0,0,小区
B2094753DA6FA2F44499,动物检疫站宿舍,建设北大街与北二环交叉口,114.489364,38.043445,0311,住宅区,0,0,小区
B2094753DA6FA2F4449D,军械研究所宿舍,联盟路与文苑街交叉口,114.489364,38.043445,0311,住宅区,0,0,小区
B2094753DA6FA2F4459B,北环小区,中华大街与北二环交叉口,114.489364,38.043445,0311,住宅区,2,2,小区
B2094753DA6FA2F44599,华能宿舍,三庄街与北二环交叉口,114.489364,38.043445,0311,住宅区,0,0,小区
B2094753DA6FA2F4459F,中山路电话厂宿舍,中山路长兴街,114.489364,38.043445,0311,住宅区,0,0,小区
B2094753DA6FA2F4459D,省药监局宿舍,合作路173号,114.489364,38.043445,0311,住宅区,0,0,小区
B2094753DA6FA2F44593,海天尚东绿洲三期,东岗路和谈固南大街交叉口,114.55764,38.014099,0311,住宅区,3,0,小区
B2094753DA69A0FB4699,滨河小区珍兴苑,新石中路与红旗大街东行100米,114.463795,38.014313,0311,住宅区,0,0,小区
B2094656D365A1F9479C,西宝嘉园,师范街101,114.46626,38.02938,0311,住宅区,0,0,小区
B2094753DA6EA3FB459B,尚座,仓兴街与仓丰路交口,114.460416,37.994133,0311,住宅区,0,0,小区
B2094753DA6EA3FB469A,东岗怡园二期,槐安路与建设大街交叉口,114.513266,38.020509,0311,住宅区,0,0,小区
B2094753DA6EA3FB4799,东海大厦,建设北大街230号,114.511549,38.063129,0311,住宅区,0,0,小区
B2094753DA6EA3F44192,众鑫大厦ME码,建设大街与范西路交叉口,114.512258,38.038974,0311,住宅区,0,0,小区
B2094753DA6EA3F4429C,国富华庭商务新,桥东区槐南路与建设大街交叉口西南角,114.509661,38.021557,0311,住宅区,0,0,小区
B2094753DA6EA3F4459F,华药四区,建华大街与中山路交叉口,114.551439,38.041365,0311,住宅区,0,0,小区
B2094753DA6EA3F4469B,富强花园,红旗大街南三环附近,114.5226,38.028724,0311,住宅区,0,0,小区
B2094753DA6EA3F4469D,一品门第,广安大街24号,114.521667,38.051158,0311,住宅区,0,0,小区
B2094753DA6EA3F4479D,棉一西区,和平路与长征街交叉口,114.50876,38.053228,0311,住宅区,0,0,小区
B2094753DA6EA3F4489B,海龙花园,仓安路48号,114.482582,38.021506,0311,住宅区,6,3,小区
B2094753DA6EA3F4499F,4511宿舍,青园街与东岗路交叉口,114.518394,38.00296,0311,住宅区,0,0,小区
B2094753DA6EA3F5409D,自来水公司宿舍建华大街,建华大街与槐北路交口东行100米,114.546654,38.032552,0311,住宅区,0,0,小区
B2094753DA6EA3F5419B,电业局宿舍,中华南大街319号,114.477603,38.029636,0311,住宅区,0,0,小区
B2094753DA6EA3F54892,团校宿舍,谈固西街114号,114.558113,38.028952,0311,住宅区,0,0,小区
B2094753DA6EA3F54992,沁舒园,青园街347号,114.51951,38.017331,0311,住宅区,0,0,小区
B2094753DA6EA2FC419A,百合园小区,光华路343号,114.547598,38.059293,0311,住宅区,0,0,小区
B2094750D569A6FD449B,中城蓝溪谷,裕华东二环与槐中路交口东北角,114.577714,38.030017,0311,住宅区,46,26,小区
B2094750D569ABFE4092,水木青城三期,北二环与东二环交叉口西行100米路北，民心河北岸,114.57736,38.065004,0311,住宅区,0,0,小区
B2094750D569ABF4469F,东方名邸,长安区中山东路与建华大街交口西行100米路南,114.544339,38.042849,0311,住宅区,12,10,小区
B2094750D569ABF54293,巴克公寓,长安区体育北大街与光华路交叉口东北角,114.533351,38.059502,0311,住宅区,1,0,小区
B2094750D569AAFD4199,银龙康城,长安区中山路与东二环交叉口东北角银龙南区内,114.577492,38.044375,0311,住宅区,0,0,小区
B2094750D569AAFE459B,花园怡都,长安区建设大街华新路交叉口新浩城东侧,114.512298,38.062487,0311,住宅区,5,4,小区
B2094750D569AAFE499F,在水一方,红旗大街与新石中路交口东行200米路北,114.462072,38.013802,0311,住宅区,2,2,小区
B2094750D569AAF9429B,新天地书香华苑,长安区和平路与建华大街岔口西南角,114.545032,38.05386,0311,住宅区,1,0,小区
B2094750D569AAF9439A,尚达家园,长安区中山东路561号(中山东路与谈固西街交叉口西北角),114.557488,38.043932,0311,住宅区,6,1,小区
B2094750D569AAFA409F,普田大厦,胜利大街与和平路交叉口东南角(自由港东临),114.498605,38.053846,0311,住宅区,0,0,小区
B2094750D569AAFA419B,康馨雅苑,长安区北二环与东二环交叉口(土贤庄),114.570181,38.060802,0311,住宅区,0,0,小区
B2094750D569AAFA489B,紫荆家园,座临107国道，胜利南大街交口东行500米,114.506992,37.99409,0311,住宅区,0,0,小区
B2094750D569AAFA499D,翰玉门庭,谈固大街与北二环交汇处,114.563799,38.071541,0311,住宅区,2,2,小区
B2094750D569AAFB449E,紫玉名苑,长安区裕华路与谈固西街交叉口西北角,114.557362,38.03714,0311,住宅区,69,46,小区
B2094750D569AAFB449D,领秀城,长安区中山东路与谈固西街交汇处,114.557801,38.044043,0311,住宅区,0,0,小区
B2094750D569AAF54299,智品,翟营大街与南二环交口海天阳光园南邻,114.556248,38.001039,0311,住宅区,0,0,小区
B2094752D56CA6F44793,泰达国际,建设大街与槐北路交口西行80米,114.511163,38.031901,0311,住宅区,1,0,小区
B2094752D56CA6F5479E,华庭国际广场,平安大街与和平路交汇处西南角,114.500499,38.053904,0311,住宅区,1,1,小区
B2094752D56CA6F5479F,星河盛世,建华大街与中山路交口北行200米路西,114.54483,38.044576,0311,住宅区,3,3,小区
B2094752D56CA4F9489A,美树湾,开发区天山大街与学苑路交口处东行300米路南,114.612551,38.012912,0311,住宅区,0,0,小区
B2094752D56CAAFD4193,新源燕府,中山路与建设大街交口北行500米路西(长安公园西门对面),114.510155,38.047179,0311,住宅区,1,1,小区
B2094752D56CAAFF4899,鑫利天域,胜利大街与光华路交叉口西南角,114.500542,38.060932,0311,住宅区,0,0,小区
B2094750D569ABFF479B,盛世龙城,红旗大街与南二环交叉口南行1800米路东,114.464364,37.980232,0311,住宅区,0,0,小区
B2094750D569AAFD449B,熙湾,裕华区东岗路和谈固南大街交叉口东行300米路南,114.565974,38.017724,0311,住宅区,0,0,小区
B2094750D569AAF84292,魏通怡园,塔北路与谈固南大街交叉口东南角,114.564015,38.010363,0311,住宅区,0,0,小区
B2094750D569AAF84692,凝瑞苑,石家庄炼油厂生活区南邻,114.557214,38.043334,0311,住宅区,0,0,小区
B2094750D56AA3FC4892,瑞城,长安中山东路与谈固南大街交口东北角,114.563842,38.044914,0311,住宅区,1252,670,小区
B2094750D56AAAFB4398,永邦天汇,北二环与东二环交口西南角,114.575429,38.065865,0311,住宅区,0,0,小区
B2094750D56AAAFB489F,同泰领域,谈固大街与金马路交口东南角,114.564743,38.025106,0311,住宅区,0,0,小区
B2094750D56AAAF44898,东方红,石家庄市长安区和平东路622号,114.579163,38.055661,0311,住宅区,1,1,小区
B2094750D56BA3FD479F,裕馨城二期,翟营大街与槐北路交口东南角,114.554594,38.032383,0311,住宅区,0,0,小区
B2094750D56BA1FF439A,公园城,桥东区建设北大街28号,114.511163,38.053633,0311,住宅区,1,0,小区
B2094750D56BA0F84792,乐城半岛,建华大街与跃进路交叉口，原拖拉机厂位置,114.54689,38.049713,0311,住宅区,1,0,小区
B2094750D56BA0F5409D,香槟郡二期,槐北路与谈固东街交口西北角,114.569743,38.033422,0311,住宅区,0,0,小区
B2094750D56BA7FB4793,翰林雅筑二期,仓丰路与建通街交口南行200米路东,114.502816,37.990751,0311,住宅区,0,0,小区
B2094750D56BA5FB459D,中基国际公馆,平安北大街19号，东靠长征街，北至和平路，南临近中山路,114.502258,38.053667,0311,住宅区,1,1,小区
B2094750D56BA4FE479D,美域高大厦,谈固北大街与北二环交叉口东南角,114.564271,38.070781,0311,住宅区,0,0,小区
B2094750D56BA4FF419D,宝鼎世嘉,东二环与槐安路交叉口西南角,114.576137,38.021996,0311,住宅区,1,0,小区
B2094750D564A3FF499A,恒润龙盘,平安大街以西、东华路以东、中山路以南、东马路以北,114.499973,38.040825,0311,住宅区,0,0,小区
B2094750D564A3F5479D,新世纪花园,红旗大街与宫北路交叉口东南角,114.46436,37.980587,0311,住宅区,0,0,小区
B2094750D564A1F84193,高新香江岸,天山大街与学苑路交汇处南行500米路东,114.611435,38.008337,0311,住宅区,0,0,小区
B2094750D564A1FB4092,珍集嘉苑,桥西槐安路与维明大街交口东北角,114.47107,38.02509,0311,住宅区,12,9,小区
B2094750D564A1FB449E,华庭欢乐颂,位于裕华区翟营大街与方兴路交口东行700米路北,114.564992,37.990022,0311,住宅区,0,0,小区
B2094750D564A7FA409F,蓝莓公馆,谈固大街与北二环交叉口南行100米,114.564314,38.070433,0311,住宅区,0,0,小区
B2094750D564A6F44298,平和商务大厦,建华大街光华路交口西南角,114.546204,38.055188,0311,住宅区,0,0,小区
B2094750D564A5FF4593,东郡,裕华槐安路和谈固东街东南角(九里庭院东临),114.571446,38.020847,0311,住宅区,17,10,小区
B2094750D564A5FB409D,亚龙湾,建华北大街和丰收路交口东行300米路南亚龙花园对面,114.546176,38.06992,0311,住宅区,1,0,小区
B2094750D564A4FE459D,建投十号院,裕华区东岗路与谈固东街交口东北角,114.571781,38.016908,0311,住宅区,4,2,小区
B2094750D564A4F44493,蜂鸟7080,体育大街与光华路交叉口西行500米路北(名门华都正北侧),114.523351,38.059724,0311,住宅区,0,0,小区
B2094656D365A2F44392,二轻机修宿舍,师范南街125,114.46647,38.0255,0311,住宅区,0,0,小区
B2094656D365A1FE4898,石家庄市第三棉纺厂宿舍,仓兴街1,114.50844,38.00979,0311,住宅区,5,2,小区
B2094656D365A1FF4298,河北师大学生公寓,槐中路190号河北农机大厦,114.52471,38.02823,0311,住宅区,8,3,小区
B2094656D365A7F54898,制药小区(体育北大街),,114.53205,38.04893,0311,住宅区,0,0,小区
B2094656D365A5F94592,长运公司宿舍,,114.57421,38.03055,0311,住宅区,0,0,小区
B2094656D365A5F9499C,平安小区市丝绸厂,,114.50466,38.01728,0311,住宅区,0,0,小区
B2094656D365A5FA429A,电建小区,槐北路256,114.53432,38.03136,0311,住宅区,1,0,小区
B2094656D365A4FF419F,石家庄市金属材料总公司宿舍(槐北路),槐北路300,114.53803,38.03172,0311,住宅区,0,0,小区
B2094656D365A4FB489C,石家庄链轮总厂单身宿舍,,114.56345,38.0664,0311,住宅区,2,0,小区
B2094656D365A4FB4993,南翟营村(南门),,114.55297,38.05924,0311,住宅区,17,14,小区
B2094656D365A4F44299,东旭苑(东门),,114.5736,38.02854,0311,住宅区,4,1,小区
B209475DD768AAFC4193,瑞府,和平路与谈固东街交叉口东南角,114.56439971,38.05606237,0311,住宅区,0,0,小区
B2094656D365A0F94492,省直师范街宿舍,师范街75,114.46675,38.03365,0311,住宅区,0,0,小区
B2094656D365A4F54893,石家庄市二建公司宿舍(北门),和平西路36,114.48797,38.05527,0311,住宅区,11,4,小区
B2094656D365ABFE459B,裕祥园(南门),,114.56027,38.03519,0311,住宅区,0,0,小区
B2094656D365ABFE459D,秀水苑小区(东门),,114.54026,38.06241,0311,住宅区,0,0,小区
B2094656D365ABFE4693,石铁三十三宿舍(北门),,114.51654,38.03162,0311,住宅区,0,0,小区
B2094656D365ABFE4892,煤矿机一生活区(西门),建华北大街15,114.54604,38.0483,0311,住宅区,2,2,小区
B2094656D365ABFE4999,石家庄市第九十六中学(东门),,114.55007,38.04732,0311,住宅区,0,0,小区
B2094656D365ABFE499F,惠园(东门),,114.55754,38.04841,0311,住宅区,1,0,小区
B2094656D365ABFF4293,康居花园,市体育北大街75号,114.53308,38.0488,0311,住宅区,1,1,小区
B2094656D365ABF84099,石家庄建工集团宿舍,,114.47894,38.01407,0311,住宅区,12,2,小区
B2094656D365ABFD409B,农业资源中心生活区(北门),槐中路294,114.53608,38.02861,0311,住宅区,1,1,小区
B2094656D365ABFD4498,石家庄建工集团宿舍(南门),,114.47895,38.01359,0311,住宅区,1,0,小区
B2094656D365ABFD459F,雅景园(东门),工人街6,114.49729,38.05761,0311,住宅区,0,0,小区
B2094656D365ABFD499E,河北二建生活区(西门),,114.55802,38.04869,0311,住宅区,0,0,小区
B2094656D365ABFD499C,雅园(东门),,114.5116,38.03132,0311,住宅区,0,0,小区
B2094656D365ABFD499D,隆园居(南门),,114.56087,38.03515,0311,住宅区,2,0,小区
B2094656D365ABFD4992,河北省冶金研究院宿舍(西门),,114.55413,38.04571,0311,住宅区,0,0,小区
B2094656D365ABFE4092,范华小区(东门),,114.5193,38.0408,0311,住宅区,0,0,小区
B2094656D365ABFE429D,钢西小区(南门),,114.55546,38.0465,0311,住宅区,0,0,小区
B2094656D365ABFE439A,众诚百合园(南门),,114.54811,38.05915,0311,住宅区,0,0,小区
B2094656D365ABF84498,石家庄市有线广播电视台宿舍,,114.50941,38.01934,0311,住宅区,1,0,小区
B2094656D365ABF8469E,裕祥园,谈固西街133,114.56027,38.03556,0311,住宅区,12,7,小区
B2094656D365ABF8469F,东旭苑,,114.57328,38.0285,0311,住宅区,0,0,小区
B2094656D36BA2FB469D,棉三单身公寓,,114.52744,38.054,0311,住宅区,0,0,小区
B2094656D36BA0FF4698,河北省化工学院宿舍,青园街277,114.51825,38.01911,0311,住宅区,0,0,小区
B2094656D36BA4FE439C,东瑞小区(北门),,114.54946,38.03214,0311,住宅区,0,0,小区
B209475DD768ABF54498,冀中江南,北二环与谈固大街交口东北角,114.56506489,38.07290957,0311,住宅区,0,0,小区
B209475DD768ABF44098,石家庄兰亭,谈固北大街与北二环交口西南角,114.55822,38.068771,0311,住宅区,1,1,小区
B2094656D36BABFE4298,公交宿舍,,114.55464,38.0453,0311,住宅区,2,2,小区
B2094656D36BABFE439F,混合小区(跃进路小学东南),北宋路262,114.55554,38.04587,0311,住宅区,0,0,小区
B2094656D36BABFF4192,石家庄药材站宿舍,,114.55412,38.05369,0311,住宅区,0,0,小区
B2094656D36BABF9499C,拖拉机厂第三生活区,,114.54795,38.04529,0311,住宅区,0,0,小区
B2094656D36BAAF84093,银行宿舍,建华北大街23,114.54628,38.05066,0311,住宅区,25,8,小区
B2094656D364ABFE4998,小马村金马新区,槐中路429,114.55965,38.02982,0311,住宅区,0,0,小区
B2094656D364ABFF439C,建明小区(边门),,114.56404,38.0399,0311,住宅区,0,0,小区
B2094656D364AAF8419D,裕东小区(东门),,114.56223,38.03173,0311,住宅区,1,0,小区
B2094656D364AAF8469F,谈固小区(东侧门),,114.56182,38.03986,0311,住宅区,3,0,小区
B2094656D364AAFB4793,宏业小区,,114.52106,38.07015,0311,住宅区,0,0,小区
B2094656D368A7FA439B,燕都金地城,中华北大街345,114.48474,38.09242,0311,住宅区,1352,574,小区
B2094656D365ABFD4593,银都花园(北门),石纺路12号,114.50473,38.07742,0311,住宅区,910,562,小区
B2094656D368A7FC4893,新苑小区,河北省石家庄市新华区誉宏路誉兴街5,114.47146,38.09228,0311,住宅区,368,108,小区
B2094656D365ABFC4598,盛典苏州(东门),,114.47712,38.08659,0311,住宅区,317,115,小区
B2094656D06CA3F94293,锦绣乾城,石家庄胜利北大街和光华路交汇处,114.47755,38.08853,0311,住宅区,502,231,小区
B2094656D368A7FD439E,党家庄小区,中华北大街与北二环交叉口,114.47369,38.09058,0311,住宅区,1009,425,小区
B2094656D365A1F5489C,棉六生活区,胜利北大街与石纺路交叉口,114.50866,38.07835,0311,住宅区,475,116,小区
B2094656D364A3F44798,桃园,,114.52595,38.08087,0311,住宅区,427,131,小区
B2094656D368A5FF479B,西古城新区,,114.52448,38.08734,0311,住宅区,141,37,小区
B2094757D56FAAFE4098,亲亲小镇ABCD区(北门),中国河北省石家庄市区,114.54609348,38.08155463,0311,住宅区,290,150,小区
B2094656D365A4F94993,赵一街小区,,114.47118,38.0958,0311,住宅区,113,27,小区
B2094656D36AA6F44692,联强生活小区,,114.46915,38.07983,0311,住宅区,437,153,小区
B2094757D56EAAFD4899,中阳信和水岸,石家庄市新华区友谊北大街375号,114.45551134,38.09007948,0311,住宅区,203,87,小区
B2094656D06CA2F5499B,天苑小区,友谊大街北二环交叉口,114.44846,38.0884,0311,住宅区,609,269,小区
B2094656D368A6F5429A,柳阳佳园,柳阳街18,114.51404,38.09167,0311,住宅区,236,100,小区
B2094656D368A5FE419C,庄窠小区,胜利北街,114.52174,38.08473,0311,住宅区,251,109,小区
B2094656D365A4FA429E,柏林北区,友谊大街与联盟路交叉口,114.47917,38.07751,0311,住宅区,462,177,小区
B2094656D365ABF84398,义堂小区,义东街12,114.50735,38.07519,0311,住宅区,572,133,小区
B2094656D365ABFD449C,义西小区(南门),,114.49485,38.07226,0311,住宅区,175,65,小区
B2094656D365A6FD459C,柏林小区,石家庄市新华区柏林南路,114.48397,38.08303,0311,住宅区,119,26,小区
B2094656D365ABFD469E,鑫城小区(南门),赵佗路55,114.48456,38.09531,0311,住宅区,113,14,小区
B2094656D36BA2F4499E,沿西小区,丰收路9号,114.51461,38.07523,0311,住宅区,106,28,小区
B2094656D365A1FB429A,众馨家园,北二环东路25,114.52158,38.08029,0311,住宅区,42,13,小区
B2094656D06CA2FE4192,红星花园,红星街56号,114.49383,38.08605,0311,住宅区,173,82,小区
B2094656D368A6F54392,荣昌花园,石家庄市桥东区柳阳街,114.5144,38.09384,0311,住宅区,381,103,小区
B2094656D364AAFE489C,明珠花苑(东门),,114.49304,38.08173,0311,住宅区,41,12,小区
B2094656D365A5F4429F,西三庄别墅,友谊北大街398,114.45355,38.08185,0311,住宅区,235,128,小区
B2094656D365A4FB4299,肖家营小区(东门),,114.49474,38.10014,0311,住宅区,236,67,小区
B2094656D365A4F5459C,鸿锐花园(东门),,114.46096,38.08515,0311,住宅区,193,52,小区
B2094656D365A4FB4293,柏林小区(南门),柏林小区75,114.48468,38.07884,0311,住宅区,29,8,小区
B2094656D368A7FA4399,华瑞苑,中华大街与新苑路交叉口附近,114.48151,38.092003,0311,住宅区,19,4,小区
B2094656D06CA1FE459D,山水家园,胜利北大街313号,114.54749,38.10256,0311,住宅区,161,74,小区
B2094656D368AAFE489B,高柱小区(高东街),,114.47218,38.07842,0311,住宅区,131,45,小区
B2094656D06CA2FB4992,银都花园,河北省石家庄市桥东区石纺路,114.50439,38.07772,0311,住宅区,236,162,小区
B2094656D365ABF8459A,柏林庄第二生活区,红星街6,114.49246,38.07545,0311,住宅区,164,48,小区
B2094656D365ABFC4693,赵二街小区(西门),,114.47982,38.09762,0311,住宅区,41,9,小区
B2094656D368A4F94298,四方怡园,石家庄胜利北大街和光华路交汇处,114.49443,38.07419,0311,住宅区,96,31,小区
B2094656D365ABFD439B,吴兴花园(东门),农机街13号,114.49655,38.07278,0311,住宅区,89,49,小区
B2094656D368A4F84492,石家庄卷烟厂金石小区,农机街35,114.49716,38.07735,0311,住宅区,87,41,小区
B2094656D36AA7FD429F,玉泉花苑(西区),育新路9,114.44688,38.01357,0311,住宅区,28,10,小区
B2094656D365A4F5479B,柏林北区第二社区(南门),,114.48284,38.07892,0311,住宅区,30,14,小区
B2094656D06CA3F9429D,联强小区(西区),联盟路729号,114.45564,38.08148,0311,住宅区,22,5,小区
B2094656D368A4F8439E,陶然新居,农机街45号,114.4983,38.08041,0311,住宅区,33,5,小区
B2094656D365A3FF499B,石家庄市中级人民法院宿舍,北二环西路191-1,114.45683,38.08753,0311,住宅区,60,31,小区
B2094656D365ABFF409D,柏林南区(南门),,114.4905,38.07191,0311,住宅区,18,7,小区
B2094656D365A4F5429B,天苑小区(南门),北二环路西路199,114.45233,38.08628,0311,住宅区,24,3,小区
B2094656D365A4F94992,高柱小区(东侧门),,114.47761,38.07395,0311,住宅区,188,51,小区
B2094656D06CA3F8489F,锦麟,石家庄胜利北大街和光华路交汇处,114.47778,38.09271,0311,住宅区,8,0,小区
B2094656D365A2F4439F,东古城村,,114.54022,38.10248,0311,住宅区,37,15,小区
B2094656D368ABFB469A,东诚小区,农机街与联盟路交叉口,114.49658,38.07133,0311,住宅区,65,28,小区
B2094656D368A7F8409A,天河花园,友谊北大街373,114.45581,38.08815,0311,住宅区,78,49,小区
B2094656D365A5FB449A,振新花园,,114.4421,38.02407,0311,住宅区,17,2,小区
B2094656D365ABFC409F,草场街坊,,114.46371,38.0319,0311,住宅区,16,2,小区
B2094656D365ABFF4092,宝为小区(东门),农机街37,114.49878,38.07896,0311,住宅区,67,24,小区
B2094656D365A0FA449B,同安路19号院(同安路),,114.44252,38.06518,0311,住宅区,60,25,小区
B2094656D365ABFD4698,众馨家园(南门),北二环东路25,114.52154,38.07962,0311,住宅区,5,1,小区
B2094656D36AA5FB409D,义堂村,,114.50966,38.07332,0311,住宅区,8,0,小区
B2094656D365A5FB499A,赵二街小区,河北省,114.48122,38.09746,0311,住宅区,134,46,小区
B2094656D36AA5FA449F,石纺小区,胜利北大街318号,114.51279,38.07774,0311,住宅区,36,15,小区
B2094656D369A0F5429E,新绿苑小区,槐中路66,114.49922,38.02776,0311,住宅区,96,51,小区
B2094656D368A7FB419C,安康花园,赵佗路18,114.48748,38.09421,0311,住宅区,42,6,小区
B2094750D564A7FF4498,北郡帕提欧,中华北大街与赵陵路交叉口西北角,114.47505,38.098429,0311,住宅区,351,194,小区
B2094656D365ABFC4198,赵一街(南门),,114.47411,38.09545,0311,住宅区,6,2,小区
B2094656D365ABFC499C,金华小区(东门),华清街15,114.54008,38.06127,0311,住宅区,7,2,小区
B2094656D365ABFE419E,天河花园(西门),友谊北大街373,114.45491,38.08817,0311,住宅区,17,9,小区
B2094656D364AAFD4493,新苑小区(南区),誉兴街5,114.47455,38.09,0311,住宅区,6,1,小区
B2094750D569AAFE409B,海光苑,胜利北大街四水厂路南、北方大厦南侧,114.507462,38.06921,0311,住宅区,5,4,小区
B2094656D365A0FE479A,十三所生活区(革新南街),革新南街7号,114.47062,38.04873,0311,住宅区,2,0,小区
B2094656D365A3FA429B,无线电十厂宿舍,,114.47885,38.09732,0311,住宅区,4,0,小区
B2094656D365A6F4489C,河北省招待处宿舍,新石北路68,114.47492,38.01813,0311,住宅区,1,0,小区
B2094656D365A4F4499D,元南小区市土地局宿舍(北门),建胜路26,114.49843,38.01979,0311,住宅区,4,0,小区
B2094656D365ABFD4598,欣怡园小区(南门),槐中路69,114.49871,38.02852,0311,住宅区,10,4,小区
B2094656D36BA1FF4998,光华生活小区(光华路),,114.51359,38.05928,0311,住宅区,76,38,小区
B2094750D165A3FD459D,北郡小区,中华北大街赵一街北,114.476058,38.09576,0311,住宅区,12,6,小区
B2094750D165A1FA479F,北城国际,,114.510398,38.07611,0311,住宅区,21,15,小区
B2094751D364A4FA469B,北国东尚,中山路于青园街交口东侧,114.4993194056323,38.07704464625716,0311,住宅区,3,1,小区
B2094750D66FA7F5489A,明珠花苑,颐宏路,114.485023,38.088649,0311,住宅区,24,7,小区
B2094656D06CA1FD4199,世纪康城,赵陵路8号,114.46433,38.09594,0311,住宅区,79,46,小区
B2094656D369A2FF4199,东方·绿水康城,新华路661,114.44985,38.04933,0311,住宅区,31,21,小区
B2094656D365A1F9409B,胜康园,胜利北街238号,114.50357,38.06687,0311,住宅区,10,7,小区
B2094656D365A7F9489E,吴兴花园(红星街),联盟路3,114.49475,38.07891,0311,住宅区,39,37,小区
B2094757D56FA3FE459F,华能上安电厂生活区(南门),中国河北省石家庄市区工农路,114.43135417,38.03216309,0311,住宅区,3,1,小区
B2094656D365A2FA449F,皮鞋厂宿舍,,114.45311,38.03899,0311,住宅区,4,0,小区
B2094656D365A1FC409F,信达花园E区,永泰街47,114.47311,38.05429,0311,住宅区,3,1,小区
B2094656D365A0FC4493,北焦宿舍楼一号院,电大街66-38,114.45515,38.06504,0311,住宅区,18,7,小区
B2094656D365A4FB439A,农馨园(南门),东平路1-1,114.5008,38.01792,0311,住宅区,68,17,小区
B2094656D365A4F4409F,兴华庄园(西门),,114.49748,38.07351,0311,住宅区,4,1,小区
B2094656D365A4F44598,一七七宿舍(合作路),合作路289,114.44239,38.05469,0311,住宅区,14,2,小区
B2094656D365A4F4499A,市第一塑料厂宿舍(西门),,114.47924,38.08584,0311,住宅区,3,0,小区
B2094656D365A4F54192,碧华园(东门),,114.4774,38.09411,0311,住宅区,53,9,小区
B2094656D365ABFC4299,轴承厂宿舍(西门),市庄路23,114.48129,38.06376,0311,住宅区,1,0,小区
B2094656D365A6FD4492,河北省经济信息中心宿舍,,114.43705,38.05253,0311,住宅区,11,1,小区
B2094656D365ABFD489E,鹏远公寓(西门),北新街60,114.48595,38.05842,0311,住宅区,10,3,小区
B2094656D365ABFE459F,怡然居小区(南门),东平路3号,114.50025,38.01792,0311,住宅区,1,0,小区
B2094656D365A0FB449F,东三教新村生活区A团,,114.49445,38.01797,0311,住宅区,10,5,小区
B2094656D365A7FF429A,储秀小区(河北省绿化委员会东南),城角街668,114.44376,38.02712,0311,住宅区,12,5,小区
B2094656D368A4F54898,柏林庄园第一生活区,,114.48293,38.07275,0311,住宅区,11,5,小区
B2094656D36AA0F54592,振岗小区(振岗路),振岗路42,114.45153,38.02078,0311,住宅区,1,0,小区
B2094656D368A5FC409F,荣昌东花园,,114.51704,38.09353,0311,住宅区,92,33,小区
B2094656D368A7FB479A,柳林第一工业小区,,114.52159,38.10834,0311,住宅区,2,0,小区
B2094656D364AAFE449E,交通局宿舍(西门),九中街65,114.48387,38.06105,0311,住宅区,36,14,小区
B2094656D364AAF44893,北焦宿舍楼六号院,朝阳路66,114.45501,38.06828,0311,住宅区,1,0,小区
B2094656D06CA2FF4599,和平家园,和平西路军械学院附近,114.48725,38.056671,0311,住宅区,0,0,小区
B2094656D06CA2FA459C,鑫源雅居,石家庄胜利北大街和光华路交汇处,114.48497,38.05183,0311,住宅区,0,0,小区
B2094656D06CA2F5469E,万信花园,北城路与泰华街交叉口西行200米路北,114.45656,38.07284,0311,住宅区,1,1,小区
B2094751DB6AAAFF4993,铁锅一居,新华区西三庄街1-6号(和平西路口北侧),114.44553,38.06292,0311,住宅区,0,0,小区
B2094757DA6BABFB4498,北焦村城中村改造,东至泰华街，南至和平西路，西至电大街，北至石太铁路,114.469557,38.061608,0311,住宅区,1,1,小区
B2094757D064AAFB419A,四建小区,石家庄石风路六号,114.46076,38.021403,0311,住宅区,29,9,小区
B209475DD768A7FA479A,唐城一品,柏林南路与北新街交口东北角,114.487345,38.072014,0311,住宅区,0,0,小区
B209475DD768A7F94093,麒麟国际,中山西路与泰华街交口西行100路北,114.462047,38.042988,0311,住宅区,0,0,小区
B209475DD768A0F54198,天下锦程,西三庄街与北二环交叉口西行100米路北,114.44629669,38.08708018,0311,住宅区,0,0,小区
B209475DD768A0FA409E,荣鼎天下,石家庄新华区中华北大街226号,114.47780708,38.07834842,0311,住宅区,4,4,小区
B209475DD768A1F44198,中阳润庭,友谊北大街与石清路交口东南角,114.454794,38.091438,0311,住宅区,0,0,小区
B209475DD768A1F84999,国赫澜山,体育大街与丰收路交汇处西行200米路南,114.530153,38.070393,0311,住宅区,0,0,小区
B209475DD768A1FF489C,住总尚清湾,天津武清区天鹅湖度假村西侧,114.534531,38.048632,0311,住宅区,0,0,小区
B209475DD768A2FB429F,鑫界王府,时光街和新石北路交口西南角,114.428058,38.017601,0311,住宅区,3,2,小区
B209475DD768A2FA4199,锐拓欧景城,桥东区胜利北大街与北二环交叉口西行1000米路北,114.51268674,38.08072974,0311,住宅区,0,0,小区
B209475DD768A2F84992,明瀚花香城,红星街与北二环交汇处北行500米路东,114.49511712,38.08404788,0311,住宅区,0,0,小区
B209475DD768A2FE419A,拉斐小镇,西二环与新石北路交口西行50米路北,114.436641,38.01919,0311,住宅区,0,0,小区
B209475DD768A3FE409F,橡嵘湾,红星街68号,114.49421075,38.0902383,0311,住宅区,0,0,小区
B209475DD768A3FE409B,云溪湾,新华路车管所西行300米路北,114.438143,38.043157,0311,住宅区,0,0,小区
B209475DD46EA4F84992,石家庄鲁府花园社区,,114.4725,38.012,0311,住宅区,1,0,小区
B209475DD46EA4F8499F,石家庄金御花园社区,,114.45131,38.03594,0311,住宅区,0,0,小区
B209475DD46EA4FD489B,石家庄翡翠里社区,,114.45131,38.04867,0311,住宅区,0,0,小区
B209475DD46EA4FD479C,石家庄水榭华庭社区,,114.46063,38.07333,0311,住宅区,0,0,小区
B209475DD46EA4FD4799,石家庄天林花园社区,,114.46254,38.04865,0311,住宅区,0,0,小区
B209475DD46EA4FD469E,石家庄雅兰庭院社区,,114.4839,38.0638,0311,住宅区,0,0,小区
B209475DD46EA4FD459D,石家庄上城花园社区,,114.4423,38.0942,0311,住宅区,0,0,小区
B209475DD46EA4FB4892,石家庄海源小区社区,,114.5132,38.0786,0311,住宅区,0,0,小区
B209475DD46EA4FB489E,石家庄润龙花园社区,,114.5046,38.0434,0311,住宅区,0,0,小区
B209475DD46EA4FB489A,石家庄荟萃家园社区,,114.50584,38.04377,0311,住宅区,0,0,小区
B209475DD46EA4F94593,石家庄水晶城社区,,114.49039,38.01153,0311,住宅区,0,0,小区
B2094454D26CAAFD4899,天鸿红星里,北二环红星街交口北行500米路西(红星街62号),114.49382493,38.09013747,0311,住宅区,0,0,小区
B2094656D36AA2F44498,省财政厅宿舍,新华兴凯路革新街,114.471188,38.050837,0311,住宅区,0,0,小区
B2094750D56BAAF5429F,海棠湾,桥西区友谊南大街和新石北路交口西行,114.452133,38.025276,0311,住宅区,0,0,小区
B2094753DA6FA2FB429E,沿丰小区,丰收路与建设大街交口,114.512386,38.07307,0311,住宅区,0,0,小区
B2094753DA6FA2FB4492,华诚园,义南路29号,114.502151,38.070967,0311,住宅区,0,0,小区
B2094753DA6FA2FB469A,义兴园,石纺路与胜利北街交叉口,114.505713,38.070274,0311,住宅区,0,0,小区
B2094656D369AAFD4798,兴凯·颐园,北大街69,114.48775,38.05142,0311,住宅区,14,4,小区
B2094656D36AAAFF489D,锦府苑,休门街123,114.5077,38.02584,0311,住宅区,0,0,小区
B2094753DA6FA2FB479E,恒立苑,桃园路9号,114.519403,38.084362,0311,住宅区,1,1,小区
B209475DD46EA4F9449D,石家庄盈瑞家园社区,,114.48039,38.01716,0311,住宅区,0,0,小区
B209475DD46EA4F94499,石家庄福青怡苑社区,,114.4603,38.0432,0311,住宅区,0,0,小区
B209475DD46EA4F9449B,石家庄紫藤花园社区,,114.47837,38.07227,0311,住宅区,0,0,小区
B2094750D569ABF54193,环岛豪庭,五七路西行500米(省委党校北临),114.525193,38.121376,0311,住宅区,0,0,小区
B209475DD46EA4F94393,石家庄天林花园社区,,114.46252,38.04861,0311,住宅区,0,0,小区
B209475DD46EA4F9439A,石家庄滨华苑社区,,114.4658,38.0719,0311,住宅区,0,0,小区
B209475DD46EA4F94292,石家庄东塑小区社区,,114.4686,38.035,0311,住宅区,0,0,小区
B209475DD46EA4F9409F,石家庄红枫苑社区,,114.47801,38.03591,0311,住宅区,0,0,小区
B209475DD46EABFF4599,石家庄石铁家园社区,,114.48301,38.0211,0311,住宅区,0,0,小区
B209475DD46EABFF4392,石家庄金泰家园社区,,114.51831,38.04023,0311,住宅区,0,0,小区
B2094750D569AAFF499F,幸福里,新华区友谊大街与和平路交叉口桥北钟旺路西行200米路北,114.452154,38.06813,0311,住宅区,198,130,小区
B209475DD46EABFF439F,石家庄依馨园社区,,114.50247,38.01789,0311,住宅区,0,0,小区
B209475DD46EABFF4293,石家庄碧海园社区,,114.50466,38.01997,0311,住宅区,0,0,小区
B2094750D569AAF8439C,明珠北苑,北二环中华大街交叉口东行100米,114.479942,38.086473,0311,住宅区,0,0,小区
B2094753DA6EA3F54692,戒毒所宿舍,槐安路268号,114.427092,38.023602,0311,住宅区,0,0,小区
B2094753DA6EA3F54799,留营供销社宿舍,新华西路,114.431233,38.056607,0311,住宅区,0,0,小区
B2094753DA6EA3F5489E,银行学校宿舍,国泰街合作路北行200米路西,114.439623,38.05289,0311,住宅区,1,0,小区
B2094753DA6EA2FC4292,神兴医药宿舍,友谊大街与谊北路交口,114.451886,38.045185,0311,住宅区,0,0,小区
B2094753DA6EA2FC439B,雅馨苑,裕华路和西二环交叉口,114.436061,38.034445,0311,住宅区,0,0,小区
B2094753DA6EA2FC4399,西焦东区,新华路519号,114.463077,38.050947,0311,住宅区,0,0,小区
B2094753DA6EA2FC4993,宝力小区,农机街37号,114.498965,38.079151,0311,住宅区,5,1,小区
B2094753DA6EA2FD4398,金冠苑,石获南路69号,114.431287,38.049164,0311,住宅区,1,0,小区
B2094753DA6EA2FD439F,义堂翠园,义南路10号,114.506185,38.070477,0311,住宅区,1,0,小区
B2094753DA6EA2FD4493,柳董庄小区,红星街与北二环交叉口,114.505466,38.091776,0311,住宅区,1,1,小区
B2094753DA6EA2FD479E,桃李园,中山路与西三环交叉口,114.458807,38.00717,0311,住宅区,1,0,小区
B2094753DA6EA2FD4898,柳阳小区,桥东胜利北街,114.515433,38.083838,0311,住宅区,0,0,小区
B2094753DA6EA2FD499E,天山观澜豪庭,裕华西路南侧,114.452766,38.033177,0311,住宅区,1,0,小区
B2094753DA6EA2FE4093,电子厂宿舍,友谊大街与裕华路交口北行300米,114.451994,38.034724,0311,住宅区,0,0,小区
B2094753DA6EA2FE429E,25中宿舍,煤机街与槐北路交叉口,114.466649,38.051732,0311,住宅区,0,0,小区
B2094750D56AAAF8459B,锦融尚御,建华北大街与体育北大街交汇处，北高营旧村改造,114.554958,38.096605,0311,住宅区,4,2,小区
B2094750D56AAAF9469C,香格里,新华区北二环与泰华街交叉口东南角,114.465061,38.084936,0311,住宅区,1,0,小区
B2094750D56BA0FF429F,信通花园二期,北新街188号，北新街与和平路交叉口北行1000米路西,114.485457,38.056996,0311,住宅区,0,0,小区
B2094750D56BABFC419C,国赫红珊湾,体育大街与丰收路交口西行200米路南,114.524585,38.071601,0311,住宅区,8,6,小区
B2094750D564A2FB469F,御园官邸,石家庄市大谈村,114.411707,38.039726,0311,住宅区,0,0,小区
B2094750D564A6FE4193,上城浩林园,新华北二环西三庄大街交口西南角,114.447541,38.085297,0311,住宅区,1,1,小区
B2094753DA6EA5F94199,北杜花园,时光街与工农路交叉口,114.428852,38.035265,0311,住宅区,1,0,小区
B2094753DA6EA5F94393,都市怡景,胜利北街260医院附近,114.510841,38.088466,0311,住宅区,0,0,小区
B2094753DA6EA5F9459D,联红小区,联盟路与红星街交叉口,114.493214,38.080502,0311,住宅区,3,3,小区
B2094753DA6EA5F9479D,雅庭,石纺路18号,114.504941,38.078011,0311,住宅区,0,0,小区
B2094753DA6EA5F9499A,赵一街新区,中华北大与新苑路交叉口西行1200米。,114.463506,38.090425,0311,住宅区,9,3,小区
B2094753DA6EA5FA439D,财政厅宿舍,革新东街44号,114.471102,38.050634,0311,住宅区,0,0,小区
B2094753DA6EA5FA4493,西部枫景,西二环与新石南路交叉口,114.442756,38.011769,0311,住宅区,0,0,小区
B2094750D56AA3FD4992,万通金水湾,新华区友谊北大街和石闫公路交叉口东行300米路南,114.456253,38.08904,0311,住宅区,0,0,小区
B2094750D569AAF8479F,联邦名都二期,裕华路和中华大街交叉口,114.480856,38.034185,0311,住宅区,1,0,小区
B2094750D569AAF9419A,建华旺角,长安区建华大街与光华路交叉口东北角,114.545639,38.059433,0311,住宅区,0,0,小区
B2094750D569AAF9469D,金玉城,育新路以北，新石中路以南，西二环以东，城角街以西,114.442238,38.013569,0311,住宅区,1,0,小区
B2094750D569AAF4449E,中央时区,和平路和工人街交叉口西北角,114.497692,38.054362,0311,住宅区,2,1,小区
B2094750D569AAF44893,御江南,新华区石清路，南水北调与石津灌渠交汇处,114.439513,38.099326,0311,住宅区,0,0,小区
B2094750D569AAF5499A,裕鼎国际,裕华路与南小街交叉口(省艺术中心东门),114.483901,38.036469,0311,住宅区,0,0,小区
B2094750D56AA3FC489F,晟地丽江,石铜路与南二环交叉口南行1200米路西,114.445016,38.003383,0311,住宅区,0,0,小区
B2094750D56AA3FD4098,东湖苑,新华区联盟路与泰华街交口北行200米路东水上公园北,114.463426,38.080001,0311,住宅区,0,0,小区
B2094750D56AA3FD469A,上城尔湾,新华区西三庄街和北二环交叉口西南角,114.439869,38.08554,0311,住宅区,0,0,小区
B2094750D56AA3FD469F,柏林春天,新华区二环内中华大街与柏林南路交口,114.478935,38.075099,0311,住宅区,0,0,小区
B2094750D56AA3FE469E,魔方青年墅,中华大街和北二环交叉口东行150米路南,114.480028,38.083433,0311,住宅区,0,0,小区
B2094750D56AA3F8439E,泊悦湾,友谊南大街与新石北路交口西北角,114.451983,38.019063,0311,住宅区,0,0,小区
B209475DD46EABFF4298,石家庄瑞合园社区,,114.54549,38.05409,0311,住宅区,0,0,小区
B2094750D56AA4F5479A,燕西台,南二环与汇文街交叉口(河北女子职业技术学院西邻),114.463377,38.004448,0311,住宅区,0,0,小区
B2094750D56AABF5469C,星河御城,中华北大街与北二环交口西行200米路北,114.468699,38.086507,0311,住宅区,0,0,小区
B2094753DA6EA3F44093,世纪方舟住宅新,长安区广安街89号广安大街与和平路交叉口,114.507709,38.04232,0311,住宅区,1,1,小区
B2094753DA6EA3F4449B,怡清雅居,丰收路与华清街交口,114.541193,38.070342,0311,住宅区,0,0,小区
B2094753DA6EA3F44499,美丽星城,联盟路8号,114.492656,38.07883,0311,住宅区,0,0,小区
B2094753DA6EA3F44799,留营小区,西二环与合作路交叉口,114.435461,38.054292,0311,住宅区,0,0,小区
B2094753DA6EA3F5439B,市委党校宿舍,水源路与迎春巷交口,114.465737,38.055543,0311,住宅区,0,0,小区
B2094753DA6EA3F5439D,友谊医院宿舍,城角街与建国路交叉口,114.4437,38.028335,0311,住宅区,0,0,小区
B2094753DA6EA2FE4798,宝石集团宿舍,中山路于华清街6号院,114.539187,38.045168,0311,住宅区,1,2,小区
B2094753DA6EA2FE4999,雅园小区,胜利南大街与塔南路交叉口,114.490092,38.015437,0311,住宅区,0,0,小区
B2094753DA6EA2FE4993,塔南小区,塔南路27号,114.492742,38.012234,0311,住宅区,1,0,小区
B2094753DA6EA2FF419C,丽江半岛花园,新华西路车管所西行300米,114.433894,38.048294,0311,住宅区,4,3,小区
B2094753DA6EA2FF439B,金峰庄园,石正路83号,114.526699,38.103866,0311,住宅区,0,0,小区
B2094753DA6EA2FF4498,银海小区,中华北大街与兴凯路交叉口,114.487517,38.05289,0311,住宅区,1,1,小区
B2094753DA6EA2FF459F,开达16号,工农路与民心河交汇处东南角,114.471531,38.030819,0311,住宅区,0,0,小区
B2094753DA6EA2FF489D,瀛台,桥东区五七路西行,114.529295,38.123838,0311,住宅区,0,0,小区
B2094753DA6EA2F84398,3302小区,建设大街123号,114.512558,38.026374,0311,住宅区,0,0,小区
B2094753DA6EA2F84499,盈通花园,体育大街与丰收路交叉口,114.524585,38.071601,0311,住宅区,0,0,小区
B2094753DA6EA2F84493,好景园,红旗大街618号,114.459944,38.003298,0311,住宅区,1,0,小区
B2094753DA6EA2F8459D,铁道学院宿舍,桥东胜利北街与北二环交叉口,114.511549,38.084362,0311,住宅区,0,0,小区
B2094753DA6EA2F84898,糖烟酒宿舍,青园街与中山路交叉口,114.517665,38.039794,0311,住宅区,0,0,小区
B2094753DA6EA2FB489B,桥东宝藏,中山东路80号,114.521613,38.04336,0311,住宅区,0,0,小区
B2094753DA6EA2FB489D,名人山庄,南邻九龙花园东邻西山别墅,114.525304,38.04412,0311,住宅区,8,7,小区
B2094753DA6EA2F44399,上林华苑,新华区中华北大街338号,114.477561,38.092797,0311,住宅区,4,3,小区
B2094753DA6EA2F4449B,开元公寓,红旗大街599号,114.458549,38.017736,0311,住宅区,2,1,小区
B2094753DA6EA2F4459C,西舒园,联盟路与友谊大街交口,114.455266,38.079751,0311,住宅区,0,0,小区
B2094753DA6EA2F5409F,四中宿舍,休门街与裕华路交叉口,114.507591,38.03796,0311,住宅区,0,0,小区
B2094753DA6EA2F54392,省粮农中心宿舍,新石北路与城角街交口,114.444602,38.019985,0311,住宅区,0,0,小区
B2094753DA6EA1FC4299,龙海南苑,新华路海山大街交叉口,114.489362,38.048083,0311,住宅区,0,0,小区
B2094753DA6EA1FC429C,中储宿舍,中华北大街197号,114.481337,38.064886,0311,住宅区,2,2,小区
B2094753DA6EA1FC459C,小安新区,小安舍村东口路南,114.431673,38.093355,0311,住宅区,0,0,小区
B2094753DA6EA1FC4593,军转办宿舍,城角街与振岗路交叉口,114.443743,38.02274,0311,住宅区,0,0,小区
B2094753DA6EA1FC4692,省民政厅宿舍,滨华路泰华街交口,114.469235,38.069396,0311,住宅区,1,1,小区
B2094753DA6EA1FC489C,草场街小学宿舍,草场街附近,114.46592,38.032324,0311,住宅区,0,0,小区
B2094753DA6EA1FD429A,德馨楼,裕华西路和城角街交叉口东北角,114.454944,38.035332,0311,住宅区,0,0,小区
B2094753DA6EA1FD439F,四十中宿舍,建设大街与裕华路交叉口附近,114.513502,38.03278,0311,住宅区,0,0,小区
B2094753DA6EA1FD449D,41中宿舍,友谊大街与工农路交叉口,114.469836,38.033,0311,住宅区,1,0,小区
B2094753DA6EA1FD469B,66455部队干休所,西二环与槐安路交口,114.438057,38.024954,0311,住宅区,1,0,小区
B2094753DA6EA1FE4292,西古城新村,正定大街四水厂路,114.521377,38.088618,0311,住宅区,0,0,小区
B2094753DA6EA1FE4792,铁城柏林园,中华北大街与柏林路交口,114.479814,38.075207,0311,住宅区,0,0,小区
B2094753DA6EA1FE499B,枫丹华庭,丰收路68号,114.524724,38.070089,0311,住宅区,10,7,小区
B2094753DA6EA1FE499E,国瑞城,建设北大街与胜利北大街交叉口,114.511099,38.072918,0311,住宅区,1,0,小区
B2094753DA6EA1FF4292,元北小区,大经街与元北路交叉口,114.499522,38.026966,0311,住宅区,0,0,小区
B2094753DA6EA2F9419A,42中宿舍,文苑街联盟路交口,114.465458,38.080747,0311,住宅区,0,0,小区
B2094753DA6EA2F9439B,54所宿舍,新华路与虹光街交叉口,114.441018,38.046705,0311,住宅区,1,1,小区
B2094753DA6EA2F9449C,明珠苑,北二环红星街口路北,114.490371,38.085628,0311,住宅区,0,0,小区
B2094753DA6EA2F94792,庄北小区,胜利北大街北方大厦南侧,114.52112,38.087807,0311,住宅区,0,0,小区
B2094753DA6EA2FA4299,体育大街住宅,体育大街与光华路交口,114.53629,38.058601,0311,住宅区,0,0,小区
B2094753DA6EA2FA4393,飞机制造厂宿舍,北二环与红星街交叉口,114.492742,38.078864,0311,住宅区,0,0,小区
B2094753DA6EA2FA4499,种子机械厂宿舍,胜利大街7420对面,114.453989,38.067825,0311,住宅区,0,0,小区
B2094753DA6EA2FA469F,司法厅宿舍,工农路与城角街交叉口,114.445953,38.030093,0311,住宅区,0,0,小区
B2094753DA6EA2FA479D,都市桃园,北二环与胜利北街交叉口,114.513159,38.087655,0311,住宅区,0,0,小区
B2094753DA6EA2FB449F,碧水绣城,中华大街与北二环交叉口,114.478483,38.082453,0311,住宅区,0,0,小区
B2094753DA6EA1FF479A,天河小区,友谊北大街与北二环交叉口,114.455802,38.088212,0311,住宅区,0,0,小区
B2094753DA6EA1F84093,天朗家园,北二环与红星街交口,114.49213,38.083686,0311,住宅区,0,0,小区
B2094753DA6EA1F8439C,滨东小区,师范街166号,114.466091,38.026738,0311,住宅区,0,0,小区
B2094753DA6EA1F84598,理想城,胜利北大街北侧,114.520798,38.091961,0311,住宅区,0,0,小区
B2094753DA6EA1F84592,8130厂宿舍,裕华西路与城角街交叉口西北角,114.443829,38.035028,0311,住宅区,0,0,小区
B209475DD46EABFA4698,石家庄福清怡园社区,,114.46603,38.03849,0311,住宅区,0,0,小区
B2094752D56CA6FF489F,东胜紫御府,桥西区工农路与苑东街交口路西,114.417994,38.031648,0311,住宅区,4,2,小区
B2094752D56CA6FA449D,西溪诚园,桥西区西二环与玉村南路西行500米,114.436255,38.007931,0311,住宅区,4,3,小区
B2094752D56CA5FC459C,翠堤春晓,桥西区槐安西路与时光街交叉口西北角,114.427886,38.024971,0311,住宅区,0,0,小区
B2094752D56CA5FA489D,澜庭,胜利北大街与五七路北行300米路东滹沱河小区内,114.526291,38.098091,0311,住宅区,0,0,小区
B2094752D56CAAFF489A,熙悦,联盟路与农机街交口南行200米路西,114.497538,38.076744,0311,住宅区,0,0,小区
B2094750D564A0F4439F,财富天下,胜利北大街289号，260医院北行100米路西,114.516163,38.083939,0311,住宅区,0,0,小区
B2094750D564A7FF4098,雨荷水岸,新华区中华北大街与古城西路交口东行200米路南,114.478655,38.102144,0311,住宅区,0,0,小区
B2094750D564A7FA4199,乐福嘉园,友谊南大街与振岗路交叉口西行100米,114.448357,38.019849,0311,住宅区,0,0,小区
B2094750D564A6FC489D,乾门,中华北大街与誉宏路交叉口西北角,114.477346,38.088601,0311,住宅区,1,0,小区
B2094750D564A6FD479D,万佳壹街区,新华维明北大街与永泰街交叉口东北角,114.469428,38.054149,0311,住宅区,0,0,小区
B2094750D564A6FB479B,古运码头二期,胜利北大街329号，省胸科医院对面,114.520669,38.086878,0311,住宅区,0,0,小区
B2094750D564A5FD4093,柏林世贸中心,新华区中华北大街与柏林北路交叉口,114.478376,38.076499,0311,住宅区,0,0,小区
B2094750D564A4F9409E,爱琴海,长安区丰收路(近建设大街),114.530282,38.078822,0311,住宅区,0,0,小区
B2094750D564A4F54592,格调春天,石家庄市新石南路88号(维明大街与新石南路交叉口东北角),114.468289,38.008592,0311,住宅区,3,3,小区
B2094750D564ABF5449D,桃园丽景城,北二环与体育大街交叉口西北角,114.530067,38.079447,0311,住宅区,1,1,小区
B2094750D56AAAFB449E,乐活时尚广场,裕华路与友谊大街交口西南角，益友百货西邻,114.452133,38.035112,0311,住宅区,6,3,小区
B2094750D56BA2FB499C,丽景国际商务中心,新华区新华路与靶场街交口东北角(华业建材市场对过),114.449172,38.049071,0311,住宅区,0,0,小区
B2094750D56BA1F84599,坤景园,友谊大街与振岗路交口西行200米路南(以岭医院正北),114.45223,38.021219,0311,住宅区,0,0,小区
B2094750D56BA0FB449C,康桥郡,南二环与石铜路交叉口东南,114.446391,38.005293,0311,住宅区,0,0,小区
B2094750D56BA7FE4692,金玉小区,桥西区城角街与育新路交叉口西行100米路北,114.443829,38.012005,0311,住宅区,1,0,小区
B2094750D56BA7FF449D,卓达上院,西二环与新石北路交口东南角,114.438746,38.018041,0311,住宅区,7,3,小区
B2094750D56BA5FB4193,四季福园,桥西区中华大街和新石中路交口西行500米,114.461454,38.015573,0311,住宅区,0,0,小区
B2094750D56BA4F5459D,蓝山印象,西二环与振岗路交汇处西行100米路南,114.43634,38.021557,0311,住宅区,0,0,小区
B2094750D56BABF8479D,锦运名都,桥东胜利北大街客运站东侧,114.510155,38.072471,0311,住宅区,0,0,小区
B2094750D56BABF84899,阳光里,新华西三庄街与警安路交叉口西行200米路南,114.44796,38.095018,0311,住宅区,0,0,小区
B2094750D564A3F9499C,尚峰汇,槐安路与友谊大街交口南行500米,114.452348,38.024244,0311,住宅区,0,0,小区
B2094750D564A3FB4198,国际总部花园,胜利大街与翠屏路交口西北,114.52054,38.114368,0311,住宅区,0,0,小区
B2094750D564A3FB4999,信通公寓,中华北大街与聚新路交叉口东行300米路北(信通花园西南角),114.485221,38.065612,0311,住宅区,0,0,小区
B2094750D564A2FD4992,银都之星公馆,石家庄义西街与石纺路交叉口西南角,114.501686,38.077698,0311,住宅区,0,0,小区
B2094750D569ABFF4493,天润家园,吴家庄(工人街与义北路交口西北角),114.502248,38.072707,0311,住宅区,0,0,小区
B2094750D569AAFF4899,西城印象,槐安路与西二环交口附近,114.430368,38.029919,0311,住宅区,0,0,小区
B2094750D569AAF94998,柳阳河畔,胜利北大街与石津南路交叉口西行900米(胸科医院西临),114.519062,38.093252,0311,住宅区,0,0,小区
B2094750D569AAFA4298,西部枫景傲城,桥西育新路与城角街交口西行100米路南,114.442949,38.012022,0311,住宅区,1,1,小区
B2094750D569AAFA4892,盛景御花园,裕华西路与时光街交叉口南侧,114.427331,38.033543,0311,住宅区,0,0,小区
B2094656D365A3F84992,石家庄矿山机械研究所宿舍,裕华西路123,114.43997,38.03549,0311,住宅区,96,31,小区
B2094656D365A2FA469C,西三庄供销社宿舍,,114.4457,38.07776,0311,住宅区,1,0,小区
B209475DD46EABFA429D,石家庄九鼎星园社区,,114.50249,38.01813,0311,住宅区,0,0,小区
B209475DD46EABFA429E,石家庄静和园社区,,114.53348,38.06081,0311,住宅区,0,0,小区
B209475DD46EABF94792,石家庄天水丽城社区,,114.43106,38.02355,0311,住宅区,1,1,小区
B209475DD46EABF9479C,石家庄华基君程社区,,114.50163,38.02299,0311,住宅区,0,1,小区
B209475DD46EABF94799,石家庄怡静苑社区,,114.47651,38.0199,0311,住宅区,0,0,小区
B209475DD46EABF9469A,石家庄鑫润名居社区,,114.4808,38.0519,0311,住宅区,0,0,小区
B209475DD46EABF9459C,石家庄正元小区社区,,114.484,38.0662,0311,住宅区,0,0,小区
B2094656D365A0F84398,新华区教育局宿舍,北新街152,114.48519,38.06525,0311,住宅区,1,0,小区
B2094656D365A0F8459A,石家庄市郊区电力局生活区,,114.49188,38.07349,0311,住宅区,0,0,小区
B2094656D365A7FF409B,石家庄市土畜产总公司宿舍,西里大街46,114.45626,38.04005,0311,住宅区,3,0,小区
B2094656D365A7F5439E,第二制药厂宿舍,工农路262,114.46716,38.03153,0311,住宅区,0,0,小区
B2094656D365A5FD4992,新苑小区南区(西门),誉兴街5,114.47434,38.09001,0311,住宅区,9,0,小区
B2094656D365A5FE409B,汽车运输公司六队宿舍(北门),,114.49633,38.0719,0311,住宅区,1,1,小区
B2094656D365A5FF489C,供电局宿舍(西门),,114.50464,38.06454,0311,住宅区,0,0,小区
B2094656D365A4FE409F,滨湖四栋,滨华路37,114.46891,38.0694,0311,住宅区,3,1,小区
B2094656D365A4FF409B,农行西郊办事处宿舍,裕华西路148,114.44609,38.03412,0311,住宅区,0,0,小区
B2094656D365ABFC499D,九星阁(南门),东平路5,114.49853,38.01791,0311,住宅区,4,2,小区
B2094656D365ABFD429D,市电信局小区(东门),中华北大街74,114.47694,38.04941,0311,住宅区,0,0,小区
B2094656D365ABFD4492,人民商场宿舍(北门),,114.48256,38.0716,0311,住宅区,0,0,小区
B2094656D365ABFD4592,颐馨园(西门),胜利北街185,114.50566,38.06593,0311,住宅区,0,0,小区
B2094656D365ABFD479A,正元家具公司宿舍(东门),,114.4853,38.06245,0311,住宅区,1,1,小区
B2094656D365ABFE4198,市啤酒厂小区(东门),红星街20号,114.49288,38.07931,0311,住宅区,3,3,小区
B2094656D365ABFE419D,吴兴花园(南门),联盟路3,114.49478,38.07863,0311,住宅区,12,12,小区
B2094656D365ABFE4299,运河桥生活小区(南门),,114.51512,38.07658,0311,住宅区,1,0,小区
B2094656D365ABFE469B,省医科院宿舍(南门),,114.52656,38.03223,0311,住宅区,0,0,小区
B2094656D365A4F94999,雅园,,114.51149,38.03131,0311,住宅区,7,3,小区
B2094656D365A4FB4292,储运公司小区(西门),,114.47779,38.06653,0311,住宅区,1,0,小区
B2094656D365A4FB4692,石家庄市服务公司宿舍(西门),,114.48379,38.05771,0311,住宅区,0,0,小区
B2094656D365ABF84593,人民商场宿舍,,114.48249,38.07138,0311,住宅区,1,0,小区
B2094656D365A4F4419B,电子部十三所宿舍(南门),兴凯路229,114.4729,38.05109,0311,住宅区,4,1,小区
B2094656D365A4F4419D,石家庄市三建公司宿舍(北门),,114.48975,38.05485,0311,住宅区,0,0,小区
B2094656D365A4F54193,石家庄市糖酒公司小区(南门),,114.48438,38.05656,0311,住宅区,0,0,小区
B2094656D365A4F54592,石厂小区(南门),,114.48907,38.07187,0311,住宅区,1,0,小区
B2094656D06CA3FC4398,水印城,和平西路518号,114.45351,38.06097,0311,住宅区,9,3,小区
B2094656D06CA3FC459D,成功广懋,燕郊京哈高速出口处南侧,114.51956,38.08664,0311,住宅区,0,0,小区
B2094656D368A5FB4699,西五里小区,,114.45414,38.00363,0311,住宅区,7,2,小区
B2094656D36AA2FD429C,和谐祥瑞,育红胡同1号,114.46424,38.05244,0311,住宅区,1,0,小区
B2094656D364A3F54199,河北省休干所一号楼,桃园路6,114.51739,38.08152,0311,住宅区,6,4,小区
B2094656D364A4FF4893,河北省林产品公司宿舍,红旗大街59,114.46025,38.03126,0311,住宅区,0,0,小区
B2094656D364AAFF4298,造纸厂宿舍(北门),,114.49504,38.07203,0311,住宅区,21,10,小区
B2094757D56FABFE429C,华府名邸,正定恒州北街与晨光路交叉口西南角,114.5668367,38.14724778,0311,住宅区,164,94,小区
B2094656D06CA3FD489F,万佳·丽都,华安西路38号,114.56204,38.16106,0311,住宅区,133,51,小区
B2094656D36AA3FC439C,石铁运校宿舍,,114.47827,38.0561,0311,住宅区,104,41,小区
B2094656D36BA6F9469B,金马小区腾达园(谈固南大街),谈固南大街224,114.56242,38.02552,0311,住宅区,41,5,小区
B2094656D06CA3FE419E,正定国际小商品城,正定华安西路42号,114.56041,38.16142,0311,住宅区,35,2,小区
B2094656D368A7F44192,恒山西苑,,114.55938,38.14278,0311,住宅区,165,35,小区
B2094656D368A7F4419E,中银小区,正定承德街,114.55865,38.144421,0311,住宅区,40,9,小区
B2094656D365ABFD409A,柳阳佳园(东门),柳阳街18,114.51497,38.0918,0311,住宅区,9,1,小区
B2094656D36AA2FA4499,东袁小区,,114.47028,38.04984,0311,住宅区,38,15,小区
B2094656D364ABFD439D,清沁园(青园街),,114.51955,38.02155,0311,住宅区,17,4,小区
B2094656D365A4F84598,教场·庄园,,114.57281,38.17464,0311,住宅区,85,31,小区
B2094656D365ABF8409C,河北电视台生活小区,裕华东路118,114.54447,38.03474,0311,住宅区,40,16,小区
B2094757D56FA0F84392,金太阳公寓(南门),中国河北省正定县中山西路,114.56287191,38.14184082,0311,住宅区,11,2,小区
B2094656D365ABFE4098,都景园(东门),,114.51182,38.02871,0311,住宅区,17,1,小区
B2094656D365ABF8449E,清馨苑(北门),东岗路12,114.52173,38.01518,0311,住宅区,17,5,小区
B2094656D365A4FB439C,铁三宿舍(东门),,114.49652,38.03795,0311,住宅区,5,2,小区
B2094656D365A4F4459A,嘉实红人公馆(北门),,114.47563,38.05484,0311,住宅区,8,2,小区
B2094656D365A4F5409B,石家庄车辆厂小区(北门),,114.48646,38.05441,0311,住宅区,51,7,小区
B2094656D365ABFD449E,东诚小区(北门),,114.49671,38.07188,0311,住宅区,3,2,小区
B2094656D36BA2F54198,运河桥生活小区,,114.51514,38.07715,0311,住宅区,3,1,小区
B2094656D36BA7FB4692,卓达员工公寓,,114.55738,38.0056,0311,住宅区,13,3,小区
B2094656D36BAAFE439E,石市郊区谈固乡政府宿舍楼,,114.5752,38.05073,0311,住宅区,17,13,小区
B2094751D56FAAF84493,正华花园,河北省石家庄市正定县正华花园,114.562469,38.167191,0311,住宅区,25,12,小区
B2094750D26AA4FE419F,福门里小区,石家庄市正定县广惠路35号,114.580268,38.134845,0311,住宅区,63,17,小区
B2094750D66AA4F94599,正安花园,恒州南街,114.565147,38.133979,0311,住宅区,28,4,小区
B2094750D464ABFE429C,上洋花园,正定车站西街,114.561302,38.170482,0311,住宅区,0,0,小区
B2094656D364ABFF4799,东苑小区(东门),,114.55406,38.03144,0311,住宅区,14,3,小区
B2094656D364ABF84199,河北省博物馆宿舍,建华南大街82,114.54521,38.03756,0311,住宅区,5,4,小区
B2094656D368ABF8419B,金元小区,九中街49,114.48552,38.06024,0311,住宅区,1,0,小区
B2094750D56AA3FE4398,鼎泰中心商务,中山路和休门街交口东南角,114.506574,38.043011,0311,住宅区,3,3,小区
B2094656D365A5FF4592,河北省粮油所宿舍(南门),槐北路467,114.56562,38.03294,0311,住宅区,1,0,小区
B2094656D365A4F4409C,车辆厂小区(东门),北荣街20,114.48468,38.05308,0311,住宅区,1,0,小区
B2094656D365ABFE449D,雅澜庭院(西门),九中街39号,114.48379,38.05867,0311,住宅区,2,1,小区
B2094656D365ABFE449C,新绿苑小区(北门),槐中路66,114.49943,38.02807,0311,住宅区,2,0,小区
B2094656D365ABFE4293,单身公寓(北门),,114.56082,38.0542,0311,住宅区,3,1,小区
B2094656D365ABF8439B,翟营大街小区,北宋路262,114.55554,38.04587,0311,住宅区,7,1,小区
B2094656D365ABF84293,裕东小区(侧门),,114.55805,38.03403,0311,住宅区,1,0,小区
B2094656D365ABFF409B,锦府苑(西门),,114.50719,38.02584,0311,住宅区,1,0,小区
B2094656D365ABFE4998,石家庄市第二十二中学(东门),,114.55744,38.04887,0311,住宅区,2,0,小区
B2094656D365ABFE489A,柏林庄第二生活区(东门),,114.49275,38.07533,0311,住宅区,0,0,小区
B2094656D365ABFE4792,河冶小区(南门),,114.55893,38.05002,0311,住宅区,21,12,小区
B2094656D365ABFE469E,科技厅生活区(西门),青园街225,114.51813,38.02591,0311,住宅区,39,29,小区
B2094656D365ABFE4593,棉六生活区(南门),,114.50866,38.07739,0311,住宅区,1,1,小区
B2094656D365ABFE409C,东苑小区南院(东门),,114.55426,38.02974,0311,住宅区,2,0,小区
B2094656D365ABFD4998,省邮管局宿舍(东门),,114.51705,38.04153,0311,住宅区,0,0,小区
B2094656D365ABFD499A,建北生活小区(东门),,114.51014,38.06422,0311,住宅区,3,1,小区
B2094656D365ABFD4893,小马村金马新区(南门),,114.55967,38.02949,0311,住宅区,2,0,小区
B2094656D365ABFD4892,百汇大厦(南门),,114.50784,38.03845,0311,住宅区,0,0,小区
B2094656D365ABFD489A,石家庄铁路地区第九单身职工宿舍(东门),,114.48515,38.05524,0311,住宅区,11,5,小区
B2094656D36AA4FA449B,泰和居,槐北路29,114.51374,38.03287,0311,住宅区,4,0,小区
B2094656D36BA0F4449C,石家庄市第二制药厂宿舍,青园街356,114.5173,38.02021,0311,住宅区,1,0,小区
B2094656D36BA4FB439A,河北广播电视报宿舍,,114.54415,38.03796,0311,住宅区,2,1,小区
B2094656D36BABFE429E,河北省冶金研究院宿舍,翟营大街143号,114.55447,38.04575,0311,住宅区,2,1,小区
B2094656D364A4F54993,园东园(西门),,114.51722,38.05228,0311,住宅区,1,0,小区
B2094656D364ABFE489E,金马小区腾达园(东门),,114.56207,38.02647,0311,住宅区,3,0,小区
B2094656D365ABFD4599,新华区教育局宿舍(东门),北新街152,114.48583,38.06516,0311,住宅区,6,3,小区
B2094656D365ABFD4499,香晴苑(北门),,114.50523,38.02447,0311,住宅区,13,6,小区
B2094656D365ABFD439F,宝仓苑(南门),,114.48517,38.03184,0311,住宅区,2,1,小区
B2094656D365ABFD4398,祥龙花园(北门),,114.51464,38.02404,0311,住宅区,87,55,小区
B2094656D365ABFD429E,龙城公寓(南门),隆盛路1,114.48047,38.04954,0311,住宅区,3,0,小区
B2094656D365ABFD4192,建明社区(西门),谈固南大街25,114.56246,38.03881,0311,住宅区,0,0,小区
B2094656D365ABFD419C,华新园(南门),华新路19,114.50659,38.06289,0311,住宅区,5,3,小区
B2094656D365ABFD409C,大明公寓(南门),建明中路35,114.56686,38.0406,0311,住宅区,8,0,小区
B2094656D365ABFC4992,康华公寓(北门),华康路16号,114.47432,38.04685,0311,住宅区,2,1,小区
B2094656D365ABFC499E,江信金苑(东门),义东街16,114.50785,38.07583,0311,住宅区,4,1,小区
B2094656D365ABFC499B,环卫局宿舍(北门),正东路96号、100号,114.50986,38.04631,0311,住宅区,2,2,小区
B2094656D365ABFC489A,石铁运校宿舍(东门),,114.47834,38.05557,0311,住宅区,3,0,小区
B2094656D365ABFC479E,柏林北区(西门),,114.47864,38.07742,0311,住宅区,4,2,小区
B2094656D365ABFC479B,胜康园(南门),,114.50378,38.06625,0311,住宅区,2,0,小区
B2094656D365ABFC439A,苏秀苑(东门),,114.47746,38.08744,0311,住宅区,2,0,小区
B2094656D365A4F5479E,荣昌东花园(南门),,114.5174,38.09283,0311,住宅区,5,1,小区
B2094656D365A4F54392,荣昌花园(南门),,114.51434,38.09295,0311,住宅区,5,0,小区
B2094656D365A4F5439F,万信城市花园(南门),北城路35,114.4582,38.0729,0311,住宅区,5,1,小区
B2094656D365A4F5439E,陈章小区(北门),,114.50072,38.09394,0311,住宅区,56,8,小区
B2094757D76FAAFD4292,海天大洒楼,裕华区体育大街,114.53205,38.0607,0311,住宅区,0,0,小区
B2094656D368A7F5489E,时尚领秀,,114.57179,38.14226,0311,住宅区,0,0,小区
B2094656D36AA3F94193,草苑,,114.47323,38.0581,0311,住宅区,0,0,小区
B2094656D06CA2F9499F,滨南花园,,114.52839,38.0291,0311,住宅区,1,0,小区
B2094656D06CA2F5489E,铁路小区,,114.47123,38.0565,0311,住宅区,0,0,小区
B2094751DB6FA3FE499C,啤酒花园(月季公园店),长安区北二环月季公园(近体育大街),114.53852,38.07992,0311,住宅区,0,0,小区
B2094656D06CA3F84799,棉五宿舍,和平路建设大街交叉口,114.50912,38.05434,0311,住宅区,1,0,小区
B2094753D16FA5FF4899,泽美毓秀(西美店),长安区谈固东街(近槐岭路),114.57041,38.03286,0311,住宅区,0,0,小区
B209475DD768A6F9459D,奥北公元商铺,建华大街与丰收路交汇处,114.5480165,38.06914483,0311,住宅区,0,0,小区
B2094753D26DABFF419A,北郡小区,河北省 石家庄市 中华大街与赵佗路路西,114.474255,38.098403,0311,住宅区,63,37,小区
B209475DD46EA4F4419A,石家庄东润家园社区,,114.53356,38.01567,0311,住宅区,0,0,小区
B209475DD768A3F94099,第一公馆,燕赵北大街教场庄园西邻,114.574699,38.178291,0311,住宅区,0,0,小区
B2094656D36BABFA4793,河冶小区,谈固西街与跃进路交叉口,114.55898,38.050274,0311,住宅区,3,2,小区
B2094750D56BA2FB4593,紫鑫苑,长安区跃进路与谈固东街交口北行100米,114.568906,38.05191,0311,住宅区,92,51,小区
B2094750D569ABF5449F,汇隆公馆,石家庄平安北大街于阜康路交口,114.501035,38.049519,0311,住宅区,0,0,小区
B2094750D564A1FB4899,北部时光,胸科医院北行200米路西东柳路西头(铁道学院北面),114.509296,38.092688,0311,住宅区,1,0,小区
B2094750D569AAFA499E,锦城,中山东路与东二环交口东行200米路北,114.57812,38.044766,0311,住宅区,0,0,小区
B2094753DA6FA2FB419F,欣园小区,桥东平安大街与北人字街交叉口,114.504297,38.044914,0311,住宅区,1,1,小区
B2094753DA6FA2FB4299,风度柏林,西大望路59号,114.493761,38.075511,0311,住宅区,0,0,小区
B2094753DA6FA2FB4292,钢厂宿舍,谈固北大街与和平路交叉口,114.560827,38.054318,0311,住宅区,1,1,小区
B2094753DA6FA2FB439E,滹沱河小区,正定大桥北头,114.542727,38.131147,0311,住宅区,0,0,小区
B2094753DA6FA2FB4393,电力宿舍,体育大街与槐北路交口,114.532385,38.026983,0311,住宅区,0,0,小区
B2094753DA6FA2FB479B,棉六宿舍,胜利北街318号,114.50846,38.07731,0311,住宅区,0,0,小区
B2094753DA6FA2FB4799,四中路68号院,四中路68号院,114.510412,38.038087,0311,住宅区,1,1,小区
B2094753DA6FA2F4439F,驻景花园,广安大街中山路,114.489364,38.043445,0311,住宅区,0,0,小区
B2094753DA6FA2F44598,中建一局六公司宿舍,中山东路民心河建华商场附近,114.489364,38.043445,0311,住宅区,0,0,小区
B2094753DA6FA2F4469A,第一街区,开发区学苑路以南珠海大道以西,114.489364,38.043445,0311,住宅区,0,0,小区
B2094753DA6FA2F44698,乐城半岛,建华大街与跃进路交叉口,114.489364,38.043445,0311,住宅区,0,0,小区
B2094753DA69A0FA459F,福门里,体育大街与广惠路交叉口,114.53022301098,38.106104997488,0311,住宅区,151,0,小区
B2094656D36AA5F5439A,江信金苑,义东街16,114.50648,38.07567,0311,住宅区,0,0,小区
B2094656D365A7F4469B,兴华庄园,联盟路8号与农机街交口,114.49784,38.07334,0311,住宅区,5,4,小区
B2094750D569ABFB479E,安联大城小院,长安区光华路与民心河交叉口西行30米路南,114.540514,38.059306,0311,住宅区,0,0,小区
B2094750D569ABFB489F,高远丽都,休门街与裕华路交口西南角(阳光大厦东侧),114.505242,38.034749,0311,住宅区,3,2,小区
B2094750D569ABF4469B,滨江商务大厦,中山路与休门街交口西南角,114.505787,38.042913,0311,住宅区,39,14,小区
B2094750D569ABF4479A,汇龙湾,长安区建华大街与丰收路交口东南角,114.511946,38.072577,0311,住宅区,0,0,小区
B2094750D569ABF5429D,嘉悦畅园,中山东路与东二环交口东南角,114.593582,38.04291,0311,住宅区,0,0,小区
B2094750D569AAFC459F,龙盛华府,正定县常山路西(正定县政府西300米),114.563299,38.156921,0311,住宅区,0,0,小区
B2094750D569AAFD489B,柳源华庭,新华区红星街与北二环交口南行100米路南,114.490931,38.084915,0311,住宅区,0,0,小区
B2094750D569AAFE459A,中房新城,新华区高东街29号,114.47482,38.080612,0311,住宅区,1,1,小区
B2094750D569AAFE469B,桃源小镇,长安区侯帐村东,114.516832,38.080908,0311,住宅区,0,0,小区
B2094750D569AAF8419C,香林庭院,新华区中华北大街与柏林南路交叉口东南角,114.479157,38.071381,0311,住宅区,0,0,小区
B2094750D569AAFB409A,罗兰新城,长安区谈固北大街与和平东路交口东南角,114.562839,38.053927,0311,住宅区,0,0,小区
B2094750D569AAF5429D,瑞景华庭,中山东路与东二环交叉口(石家庄艺术学校东行100米),114.574662,38.042828,0311,住宅区,3,2,小区
B2094750D569AAF5439D,尚北新城永康园,长安区建华大街与北二环交叉口东北角北行2里地路东,114.548224,38.078738,0311,住宅区,0,0,小区
B2094750D56AA3FD409A,柏林怡园,联盟东路与北新街交叉口东北柏林公园正南紧临,114.490843,38.080055,0311,住宅区,974,555,小区
B2094753DA6EA3FB429D,英商花园,友谊北大街与朝阳路交叉口,114.455073,38.073248,0311,住宅区,0,0,小区
B2094753DA6EA3FB4699,银龙花城,中山路东二环东北角,114.578798,38.055272,0311,住宅区,0,0,小区
B2094753DA6EA3FB469D,卓达明郡,跃进路与谈固北街交口,114.557126,38.050186,0311,住宅区,0,0,小区
B2094753DA6EA3F4499E,圣雪宿舍,翟营大街与塔北路交叉口,114.555098,38.013933,0311,住宅区,0,0,小区
B2094753DA6EA3F5419E,正定大街住宅楼,胜利北街158号,114.500198,38.059124,0311,住宅区,0,0,小区
B2094753DA6EA3F54193,柳南小区,胜利北大街,114.519489,38.090898,0311,住宅区,0,0,小区
B2094753DA6EA3F54698,日报社集资房,民心河与和平路交口,114.541279,38.05463,0311,住宅区,0,0,小区
B2094753DA6EA2FF489B,十一中宿舍,中华南大街与裕华路交口,114.478376,38.034487,0311,住宅区,0,0,小区
B2094753DA6EA2F84092,雅铭苑,和平路口北行,114.546504,38.054917,0311,住宅区,0,0,小区
B2094753DA6EA2F8459F,茶叶公司宿舍,华新路15号,114.505252,38.063323,0311,住宅区,0,0,小区
B2094753DA6EA2F8469C,隆庭世家,正定大佛寺东临,114.587016,38.14205,0311,住宅区,1,0,小区
B2094753DA6EA2F94292,运输公司宿舍,建设大街与槐中路交叉口,114.510777,38.027625,0311,住宅区,0,0,小区
B2094753DA6EA2F9489A,军兴园,北荣街38号,114.485124,38.055416,0311,住宅区,0,0,小区
B2094753DA6EA2F94893,储煤厂宿舍,滨湖新村东临,114.465834,38.074523,0311,住宅区,0,0,小区
B2094753DA6EA2FA419B,紫金苑,跃进路与谈固东街交叉口北行100米路西,114.569206,38.051403,0311,住宅区,1,1,小区
B2094750D56AA3FD489C,水尚嘉苑,新华区联盟路与泰华街交叉口北行50米路西,114.462312,38.079756,0311,住宅区,2,1,小区
B2094750D56AA3FD499A,东方魅力,中山东路与谈固东街交叉口东北角,114.562611,38.04348,0311,住宅区,9,5,小区
B2094750D56AA6FA499E,金河花园,正定恒山板材市场以北107国道东侧,114.556653,38.157237,0311,住宅区,4,0,小区
B2094750D56AA4F9439C,水木大兴,平安大街与裕华路交口西南角,114.500885,38.035197,0311,住宅区,0,0,小区
B2094750D56AA4F4489D,盛华园,正定晨光路与站前街交汇处东北角正定火车站广场西北角,114.553413,38.143198,0311,住宅区,0,0,小区
B2094750D564A7F5499C,西美70后院,槐安东路145号,114.567833,38.022267,0311,住宅区,4,3,小区
B2094750D564A5F8439E,中城花溪畔,裕华东二环与槐中路东南角,114.577553,38.029332,0311,住宅区,2,0,小区
B2094750DB6EAAFD409F,裕 馨城,翟营大街与槐北路交叉口南行100米路东,114.554794,38.032143,0311,住宅区,0,0,小区
B2094753DA6EA2F5419D,七中宿舍,燕赵北大街北头,114.571116,38.177928,0311,住宅区,0,0,小区
B2094753DA6EA2F5459A,卓达别墅区,塔南路与翟营大街交叉口东行300米处,114.562404,38.006105,0311,住宅区,0,0,小区
B2094753DA6EA2F5479B,田园阁,新华联盟西路51号,114.459053,38.080561,0311,住宅区,1,0,小区
B2094753DA6EA1FC409D,银海住宅组团,新华东路以北附近,114.487334,38.052763,0311,住宅区,0,0,小区
B2094753DA6EA1FC499F,市三建宿舍,建明北路与煤机街交叉口,114.551053,38.041382,0311,住宅区,0,0,小区
B2094753DA6EA1FD4299,和瑞家园,胜利大街与裕华路交口,114.492645,38.038611,0311,住宅区,0,0,小区
B2094753DA6EA1FD459C,牧工商宿舍,联盟路与红星街交叉口,114.494319,38.079278,0311,住宅区,0,0,小区
B2094753DA6EA2FC449F,桐雅园,丰收路146号,114.538532,38.070258,0311,住宅区,0,0,小区
B2094753DA6EA2FC489A,河纺北院,建华大街与北宋路交叉口,114.474074,38.043368,0311,住宅区,0,0,小区
B2094753DA6EA2FD429C,质检站宿舍,中山路与建华大街交叉口,114.547781,38.042303,0311,住宅区,0,0,小区
B2094753DA6EA2FD4793,腾飞园,谈固南大街75号,114.563262,38.023129,0311,住宅区,0,0,小区
B2094753DA6EA2FE4492,天鹭家园,车站西街29号,114.550345,38.161556,0311,住宅区,0,0,小区
B2094753DA6EA2FF4393,南铝厂家属院,正定县正无路,114.565108,38.159008,0311,住宅区,0,0,小区
B2094753DA6EA2FA469D,建明东区,谈固东街与建明中路交叉口,114.570429,38.038492,0311,住宅区,0,0,小区
B2094753DA6EA2FB409C,新华小区,中华北大街与新北路交口,114.478204,38.09061,0311,住宅区,0,0,小区
B2094753DA6EA1FF4193,东垣小区,高营镇东古城村西,114.539616,38.094748,0311,住宅区,6,4,小区
B2094753DA6EA1FF439E,康居花园,育北大街75号,114.563971,38.003603,0311,住宅区,0,0,小区
B2094753DA6EA1FF4793,位同新村,谈固大街与塔北路交叉口,114.564357,38.007272,0311,住宅区,5,2,小区
B2094753DA6EA1FF4892,市科委宿舍,裕华槐北路247号,114.536054,38.032679,0311,住宅区,0,0,小区
B2094753DA6EA1F8409A,晨光小区,晨光路与恒洲北街交叉口,114.584012,38.137156,0311,住宅区,2,2,小区
B2094753DA6EA1F8449A,槐北东路372号,槐北东路372号,114.556074,38.032881,0311,住宅区,0,0,小区
B2094753DA6EA2F44093,海天尚东绿洲二期,东岗路与谈固南大街交叉口,114.555806,38.015539,0311,住宅区,1,1,小区
B2094753DA6EA2F4459A,润联磬城,新华区和平路与北新街交叉路口北行300米路西,114.485586,38.055222,0311,住宅区,0,0,小区
B2094753DA6EA2F44692,恒山小区,正定恒山西路,114.558048,38.152664,0311,住宅区,11,1,小区
B2094752D56CA6F94492,中基碧域,红星街与赵佗路交口东行500米,114.49551,38.094283,0311,住宅区,6,3,小区
B2094752D56CA5FA449D,拉美首郡,体育北大街3号,114.560966,38.110789,0311,住宅区,1,0,小区
B2094752D56CA4FD4093,博雅盛世,东二环与北二环交汇处北侧,114.577446,38.071339,0311,住宅区,1,0,小区
B2094752D56CA4FE4399,墅洋居礼,石家庄正定燕赵大街广惠路东行800米路北,114.573112,38.132835,0311,住宅区,0,0,小区
B2094752D56CABFE4792,观逸园,槐安路与东二环交口东行1000米路南,114.584656,38.020914,0311,住宅区,0,0,小区
B2094752D56CAAFB409B,第一街区,开发区学苑路与京港澳高速交口东南角,114.58899,38.011752,0311,住宅区,0,0,小区
B2094752D56CAAFB4592,安联新青年广场,长安区和平路与东二环交叉口东北角,114.581394,38.056877,0311,住宅区,2,2,小区
B2094750D564A0FC419C,璟和金街,谈固东街与建明中路交叉口西南角,114.56955,38.039946,0311,住宅区,0,0,小区
B2094750D564A0F8499B,上洋国际,正定新区107国道晨光路北侧(正定火车站北行300米路东),114.557808,38.173706,0311,住宅区,13,5,小区
B2094750D564A0F5409D,北宁湾,新华友谊大街与北二环交汇处北行1500米路东,114.454837,38.096892,0311,住宅区,2,2,小区
B2094750D564A7FF499B,瀚唐,北二环与体育大街交口北行800米路西,114.538693,38.089411,0311,住宅区,2,1,小区
B2094750D564A6F4429F,铂领国际,新华区柏林南路120号,114.479516,38.071761,0311,住宅区,0,0,小区
B2094750D564A4FD489A,广嘉国际,桥西裕华路与南小街交叉口东北角,114.484341,38.03523,0311,住宅区,0,0,小区
B2094750D564A4FA4192,金指数国际广场,中华北大街与新华路交口东行500米路南,114.478415,38.047722,0311,住宅区,4,3,小区
B2094750D569ABF4409F,学苑路69号Ⅱ期,天山大街与学苑路交口东行500米路北,114.622269,38.014462,0311,住宅区,0,0,小区
B2094750D569AAFF439F,芝兰明仕二期,槐安东路与谈固东街西北角,114.571062,38.023298,0311,住宅区,0,0,小区
B2094750D569AAF84392,北岸杰座,新华区泰华街与联盟路交口东北侧,114.463681,38.079957,0311,住宅区,0,0,小区
B2094750D569AAF5489D,文景苑,长江大道与珠峰大街交口，石家庄信息工程职业学院院内,114.599226,38.03289,0311,住宅区,0,0,小区
B2094750D56AA5FF459C,紫晶悦城,建华大街与光华路交口东北角,114.547663,38.059817,0311,住宅区,857,551,小区
B2094750D56BA0FD4698,清馨园,正定新区中华大街北延线,114.478125,38.095679,0311,住宅区,1,0,小区
B2094750D56BA6FB409E,银佛家园,中山路白佛客运站南侧,114.587205,38.043765,0311,住宅区,0,0,小区
B2094750D56BA6F4409E,东方名都,槐安路东延线紧临东三环,114.590235,38.022706,0311,住宅区,0,0,小区
B2094750D56BA5F9419F,幸福公馆,胜利北大街与古城西路交叉口北行100米，太平河南岸,114.523177,38.097333,0311,住宅区,1,0,小区
B2094750D56BABFF4398,阳光青年城,体育大街北二环交口西北角北行1000米路西,114.530067,38.078771,0311,住宅区,0,0,小区
B2094750D56BAAF9409F,碧水春天,中华北大街与赵佗路交叉口北行150米路东,114.478226,38.096538,0311,住宅区,0,0,小区
B2094750D564A3F54693,盛华公馆,正定县人民医院北行300米,114.563348,38.148598,0311,住宅区,1,1,小区
B2094656D365A3FB409F,省二建公司宿舍(边门),,114.55802,38.04788,0311,住宅区,1,0,小区
B2094656D365A1FD429D,拖拉机厂第一生活区,,114.54542,38.04852,0311,住宅区,0,0,小区
B2094656D365A1FA429D,河北省交通设计院宿舍,,114.53816,38.03018,0311,住宅区,0,0,小区
B2094656D365A0FE4892,沿明小区,,114.5208,38.07471,0311,住宅区,0,0,小区
B2094656D365A6F94992,建国冀达生活区,北宋路21,114.5493,38.04667,0311,住宅区,4,4,小区
B2094656D365A6F54199,化工厂宿舍(边门),,114.56147,38.0524,0311,住宅区,0,0,小区
B2094656D365A5F94499,东瑞小区,,114.54946,38.03169,0311,住宅区,0,0,小区
B2094656D365A5F8419E,建明小区西区(谈固东街),,114.5699,38.03855,0311,住宅区,1,1,小区
B2094656D365A4F5419D,尖岭新村(西门),,114.54784,38.02645,0311,住宅区,0,0,小区
B2094656D365A4FB4498,鼎香府邸(西门),大经南街67号,114.49729,38.04194,0311,住宅区,0,0,小区
B2094656D365A4FB4999,国际城2区(北门),,114.56616,38.02911,0311,住宅区,1,0,小区
B2094656D365A4F54199,翟营大街小区(边门),,114.55604,38.0462,0311,住宅区,1,1,小区
B2094656D365ABF8429C,正元家具公司宿舍,,114.48497,38.06245,0311,住宅区,0,0,小区
B2094656D365ABFD459D,一印宿舍(北门),建明南路50,114.54825,38.03838,0311,住宅区,2,2,小区
B2094656D365ABFD4999,公交宿舍(西门),,114.55421,38.04533,0311,住宅区,0,0,小区
B2094656D365ABFD499F,清木苑(西门),,114.562,38.05152,0311,住宅区,0,0,小区
B2094656D365ABFE429A,沿东小区(西门),,114.52265,38.07551,0311,住宅区,0,0,小区
B2094656D365ABFE4398,十里华庭(东门),,114.57307,38.07125,0311,住宅区,0,0,小区
B2094656D368A7F4409D,常新家园,常山西路58号,114.5565,38.14542,0311,住宅区,4,0,小区
B2094656D364AAF8489E,谈固小区(北正门),,114.55509,38.04329,0311,住宅区,0,0,小区
B2094750D56BA4F54498,北里洋房,恒山东路与镇州街交口东北角，地税局北侧,114.579849,38.153727,0311,住宅区,1,1,小区
B2094757D56FA2FA489F,晶都花苑,中国河北省正定县恒州南街,114.56330377,38.14348687,0311,住宅区,69,35,小区
B2094757D56FA1FE469E,金星世纪嘉苑,中国河北省正定县育才街,114.56680176,38.14477837,0311,住宅区,15,10,小区
B2094656D368A6FB4598,盆景苑,燕赵南大街109-7,114.57133,38.13973,0311,住宅区,0,0,小区
B2094757DA64A7FB4399,洋货金街,正定晨光路与站前街交汇处东北角,114.559808,38.16709,0311,住宅区,0,0,小区
B2094455DB6DA6FE499F,荣国花园,石家庄市常山东路,114.57886,38.14599,0311,住宅区,0,0,小区
B2094656D368A6FD4999,梅山苑,府西街,114.56932,38.147823,0311,住宅区,1,1,小区
B209475DD46EABFA4192,石家庄北关景城社区,,114.574,38.1672,0311,住宅区,0,0,小区
B209475DD768A2F4479E,外滩森林,体育大街与古城东路交口东南角,114.55633705,38.10105306,0311,住宅区,0,0,小区
B209475DD768A5FC4292,容盛星河湾,正定华安东路与育英街交口北行900米路西(晨光路与育英街交口),114.577725,38.159363,0311,住宅区,0,0,小区
B209475DD768ABF8489C,吴兴庄园,燕赵大街与107国道交口北1.5公里,114.57324026,38.19144443,0311,住宅区,0,0,小区
B2094753DA6EA2FC469D,恒洲小区,常山西路县医院附近,114.564593,38.15776,0311,住宅区,0,0,小区
B2094753DA6EA2FE489D,恒山东路2号,恒山东路2号,114.57191,38.15263,0311,住宅区,0,0,小区
B2094752D56CAAFE409B,华北门业博览中心,正定恒山西路与市场东街交口东北角,114.580879,38.159666,0311,住宅区,3,3,小区
B2094752D56CAAF8449D,兴业广场,正定恒山路与成德街交汇处,114.560537,38.152242,0311,住宅区,2,0,小区
B2094750D56BABFE409A,壹度恒园,燕赵大街与恒山东路交口东行80米路南,114.571964,38.145088,0311,住宅区,0,0,小区
B2094750D564A4FC419F,源树林,正定新区正定县燕赵北大街与107交叉口东南侧,114.574553,38.180315,0311,住宅区,0,0,小区
B2094750D564ABF94398,天逸城,正定燕赵北大街国泰假日酒店东临,114.57427,38.178399,0311,住宅区,0,0,小区
B2094757D56FA3FE4198,晶都花苑(东门),中国河北省正定县恒州南街,114.56365587,38.14349935,0311,住宅区,7,0,小区
B2094750D569AAFD409A,福里,其他区正定燕赵北大街小蜜蜂北行100米路东,114.568995,38.14746,0311,住宅区,0,0,小区
B2094750D569AAFA489C,金源花园,恒山路与燕赵大街交口西行10米路南,114.571358,38.152605,0311,住宅区,0,0,小区
